{"type":"FeatureCollection","features":[{"type":"Feature","properties":{"NAMOBJ":"Tumpuk","KDBBPS":"3502","KDCBPS":"3502050001","KDCPUM":"35.02.05","KDEBPS":"350205","KDEPUM":"35.02.05.2001","KDPBPS":"35","KDPKAB":"35.02","KDPPUM":"35","TIPADM":1,"WADMKC":"Sawoo","WADMKD":"Tumpuk","WADMKK":"Ponorogo","WADMPR":"Jawa Timur","UUPP":"Kesepakatan Teknis Batas Wilayah Administrasi Desa/Kelurahan Tahun 2021","luas":9.613},"geometry":{"type":"Polygon","coordinates":[[[111.57604,-8.03892],[111.57462,-8.03971],[111.57432,-8.04],[111.57412,-8.0405],[111.57409,-8.04211],[111.57375,-8.04283],[111.57366,-8.0431],[111.57359,-8.04369],[111.57384,-8.04466],[111.5735,-8.0463],[111.57352,-8.0468],[111.57345,-8.04763],[111.57339,-8.04782],[111.57327,-8.04795],[111.57268,-8.04823],[111.57189,-8.04837],[111.57092,-8.04834],[111.57026,-8.0484],[111.56979,-8.04867],[111.5696,-8.0487],[111.56911,-8.04872],[111.56851,-8.04892],[111.56828,-8.04891],[111.56761,-8.0488],[111.56716,-8.04869],[111.56577,-8.04796],[111.56542,-8.04795],[111.56486,-8.04799],[111.56468,-8.04806],[111.56463,-8.04815],[111.56457,-8.04852],[111.56426,-8.0492],[111.56408,-8.04944],[111.5637,-8.04957],[111.56308,-8.04968],[111.56286,-8.04967],[111.56263,-8.04957],[111.56239,-8.04932],[111.56164,-8.04916],[111.56147,-8.04904],[111.56098,-8.04889],[111.56052,-8.04931],[111.55964,-8.04938],[111.5594,-8.04944],[111.55869,-8.0497],[111.55746,-8.04988],[111.55738,-8.04978],[111.55685,-8.04979],[111.55671,-8.04998],[111.55664,-8.05],[111.5565,-8.04997],[111.55638,-8.04989],[111.55616,-8.0494],[111.55603,-8.04924],[111.55568,-8.04917],[111.55511,-8.04919],[111.55474,-8.04902],[111.55424,-8.04893],[111.55433,-8.04838],[111.55429,-8.04834],[111.55394,-8.04823],[111.55362,-8.04794],[111.55343,-8.04729],[111.5531,-8.04681],[111.55271,-8.04634],[111.5525,-8.04622],[111.55184,-8.04614],[111.55126,-8.04566],[111.55126,-8.0452],[111.55104,-8.04461],[111.55061,-8.04391],[111.55023,-8.0437],[111.54917,-8.04278],[111.54702,-8.04184],[111.54655,-8.04206],[111.54592,-8.04179],[111.54553,-8.0413],[111.5451,-8.04123],[111.54473,-8.04127],[111.5442,-8.04141],[111.54374,-8.04127],[111.54318,-8.04081],[111.5425,-8.04189],[111.54235,-8.04195],[111.5422,-8.04184],[111.54192,-8.04183],[111.54175,-8.04158],[111.54167,-8.04156],[111.54131,-8.04199],[111.54103,-8.04203],[111.54048,-8.04221],[111.54024,-8.04212],[111.5398,-8.04225],[111.5396,-8.04207],[111.53947,-8.04208],[111.53878,-8.0425],[111.53887,-8.04218],[111.53933,-8.04136],[111.53964,-8.04106],[111.54022,-8.04074],[111.54058,-8.04026],[111.54085,-8.03893],[111.5404,-8.03757],[111.53998,-8.03677],[111.53986,-8.0366],[111.53969,-8.03646],[111.53854,-8.03685],[111.53913,-8.03557],[111.53873,-8.03527],[111.53861,-8.03507],[111.53864,-8.03472],[111.53919,-8.03392],[111.53953,-8.03316],[111.53963,-8.03281],[111.53964,-8.03241],[111.53955,-8.03189],[111.54025,-8.03158],[111.54057,-8.03136],[111.54103,-8.03105],[111.54142,-8.03062],[111.54174,-8.03006],[111.54261,-8.02803],[111.54293,-8.02749],[111.54568,-8.02329],[111.54599,-8.02288],[111.54632,-8.02255],[111.54679,-8.02225],[111.54714,-8.02208],[111.5489,-8.02135],[111.54917,-8.02118],[111.55028,-8.02064],[111.55219,-8.01957],[111.55359,-8.01871],[111.55459,-8.01805],[111.55591,-8.01737],[111.55635,-8.0171],[111.55694,-8.01669],[111.55785,-8.01593],[111.55828,-8.01544],[111.55884,-8.01467],[111.55959,-8.01523],[111.56021,-8.01583],[111.56098,-8.01665],[111.56136,-8.01715],[111.56135,-8.0176],[111.56123,-8.01828],[111.56122,-8.01861],[111.56152,-8.01892],[111.56173,-8.0192],[111.56184,-8.01993],[111.56206,-8.02044],[111.56233,-8.02081],[111.56243,-8.02139],[111.56247,-8.02197],[111.5624,-8.02364],[111.56246,-8.02382],[111.56298,-8.02436],[111.56347,-8.0246],[111.56377,-8.02485],[111.56394,-8.02487],[111.56409,-8.0248],[111.56444,-8.02485],[111.5646,-8.02572],[111.56532,-8.0264],[111.5662,-8.02703],[111.56727,-8.02716],[111.56759,-8.02701],[111.56771,-8.02709],[111.56777,-8.0272],[111.56782,-8.02743],[111.56793,-8.02752],[111.56846,-8.02743],[111.56878,-8.02761],[111.56908,-8.02757],[111.57019,-8.0285],[111.57034,-8.0285],[111.57057,-8.02864],[111.5707,-8.02883],[111.57108,-8.02902],[111.57146,-8.02968],[111.57157,-8.02995],[111.57193,-8.03044],[111.57213,-8.03052],[111.57227,-8.03075],[111.57226,-8.03095],[111.57217,-8.03133],[111.57224,-8.03154],[111.57252,-8.03178],[111.57256,-8.03195],[111.5728,-8.032],[111.57286,-8.03212],[111.57284,-8.03229],[111.57271,-8.03265],[111.57292,-8.03334],[111.57289,-8.03433],[111.57309,-8.03457],[111.57375,-8.03497],[111.57419,-8.03558],[111.57481,-8.03656],[111.57508,-8.03673],[111.57535,-8.03702],[111.57604,-8.03892]]]}},{"type":"Feature","properties":{"NAMOBJ":"Pangkal","KDBBPS":"3502","KDCBPS":"3502050002","KDCPUM":"35.02.05","KDEBPS":"350205","KDEPUM":"35.02.05.2002","KDPBPS":"35","KDPKAB":"35.02","KDPPUM":"35","TIPADM":1,"WADMKC":"Sawoo","WADMKD":"Pangkal","WADMKK":"Ponorogo","WADMPR":"Jawa Timur","UUPP":"Kesepakatan Teknis Batas Wilayah Administrasi Desa/Kelurahan Tahun 2021","luas":14.111},"geometry":{"type":"Polygon","coordinates":[[[111.60071,-7.9997],[111.60001,-8.00119],[111.59983,-8.00174],[111.5997,-8.00284],[111.59977,-8.00318],[111.60013,-8.00436],[111.60054,-8.00547],[111.60057,-8.00576],[111.60042,-8.00676],[111.60044,-8.00802],[111.60042,-8.00829],[111.60049,-8.00921],[111.60017,-8.01002],[111.5986,-8.01258],[111.59842,-8.01414],[111.59892,-8.01471],[111.59857,-8.01569],[111.59747,-8.01751],[111.59717,-8.01753],[111.59689,-8.0185],[111.59646,-8.01795],[111.59625,-8.01754],[111.59562,-8.01789],[111.59524,-8.01833],[111.59514,-8.01842],[111.59498,-8.01847],[111.59423,-8.01851],[111.5924,-8.01895],[111.59046,-8.01938],[111.58928,-8.02054],[111.58764,-8.02264],[111.58668,-8.02361],[111.58598,-8.02406],[111.58527,-8.02444],[111.58337,-8.02514],[111.58273,-8.02572],[111.58261,-8.0266],[111.58234,-8.02701],[111.58189,-8.02791],[111.58111,-8.02913],[111.58068,-8.03003],[111.58035,-8.03081],[111.57994,-8.03133],[111.57972,-8.03179],[111.57948,-8.03243],[111.57911,-8.0331],[111.57902,-8.03354],[111.57828,-8.03463],[111.57817,-8.03496],[111.57795,-8.03519],[111.57777,-8.03543],[111.57768,-8.03562],[111.57759,-8.03593],[111.57759,-8.0365],[111.57747,-8.0371],[111.57679,-8.03858],[111.57671,-8.03871],[111.57634,-8.03876],[111.57604,-8.03892],[111.57535,-8.03702],[111.57508,-8.03673],[111.57481,-8.03656],[111.57419,-8.03558],[111.57375,-8.03497],[111.57309,-8.03457],[111.57289,-8.03433],[111.57292,-8.03334],[111.57271,-8.03265],[111.57284,-8.03229],[111.57286,-8.03212],[111.5728,-8.032],[111.57256,-8.03195],[111.57252,-8.03178],[111.57224,-8.03154],[111.57217,-8.03133],[111.57226,-8.03095],[111.57227,-8.03075],[111.57213,-8.03052],[111.57193,-8.03044],[111.57157,-8.02995],[111.57146,-8.02968],[111.57108,-8.02902],[111.5707,-8.02883],[111.57057,-8.02864],[111.57034,-8.0285],[111.57019,-8.0285],[111.56908,-8.02757],[111.56878,-8.02761],[111.56846,-8.02743],[111.56793,-8.02752],[111.56782,-8.02743],[111.56777,-8.0272],[111.56771,-8.02709],[111.56759,-8.02701],[111.56727,-8.02716],[111.5662,-8.02703],[111.56532,-8.0264],[111.5646,-8.02572],[111.56444,-8.02485],[111.56409,-8.0248],[111.56394,-8.02487],[111.56377,-8.02485],[111.56347,-8.0246],[111.56298,-8.02436],[111.56246,-8.02382],[111.5624,-8.02364],[111.56247,-8.02197],[111.56243,-8.02139],[111.56233,-8.02081],[111.56206,-8.02044],[111.56184,-8.01993],[111.56173,-8.0192],[111.56152,-8.01892],[111.56122,-8.01861],[111.56123,-8.01828],[111.56135,-8.0176],[111.56136,-8.01715],[111.56098,-8.01665],[111.56021,-8.01583],[111.55959,-8.01523],[111.55866,-8.01456],[111.558,-8.01381],[111.55757,-8.01281],[111.55731,-8.01182],[111.55717,-8.0107],[111.55743,-8.00972],[111.55797,-8.00869],[111.55833,-8.0077],[111.5583,-8.00678],[111.55855,-8.00645],[111.55946,-8.00562],[111.56339,-8.00276],[111.56429,-8.00267],[111.56879,-8.00246],[111.56833,-7.99894],[111.56832,-7.99818],[111.5686,-7.99727],[111.57101,-7.99607],[111.57153,-7.99586],[111.57181,-7.99555],[111.57221,-7.99528],[111.57259,-7.99509],[111.57365,-7.99479],[111.57403,-7.99461],[111.5743,-7.99452],[111.57453,-7.99433],[111.57468,-7.99429],[111.57484,-7.99429],[111.57514,-7.99439],[111.57539,-7.99439],[111.57637,-7.99423],[111.57667,-7.99405],[111.57693,-7.99401],[111.57766,-7.99411],[111.5778,-7.99421],[111.5778,-7.99442],[111.57785,-7.99453],[111.57812,-7.99465],[111.57827,-7.99457],[111.57832,-7.99438],[111.57845,-7.9943],[111.57874,-7.99435],[111.57892,-7.99426],[111.57911,-7.99424],[111.58018,-7.99363],[111.58083,-7.99337],[111.58109,-7.99331],[111.58146,-7.99333],[111.58178,-7.99341],[111.582,-7.99343],[111.58205,-7.99351],[111.58249,-7.99355],[111.5827,-7.99369],[111.58296,-7.99353],[111.58317,-7.99319],[111.58348,-7.99323],[111.58372,-7.99308],[111.58383,-7.99294],[111.58404,-7.99279],[111.58412,-7.99282],[111.58442,-7.99283],[111.58469,-7.99274],[111.58539,-7.99292],[111.58563,-7.99311],[111.58574,-7.99337],[111.58589,-7.99348],[111.58605,-7.9934],[111.58622,-7.9934],[111.58651,-7.99347],[111.58723,-7.99374],[111.58728,-7.99383],[111.58707,-7.99397],[111.58694,-7.99413],[111.58689,-7.99455],[111.58701,-7.99475],[111.58728,-7.99463],[111.58741,-7.99453],[111.58748,-7.99451],[111.58752,-7.99452],[111.5876,-7.99463],[111.58761,-7.99478],[111.58771,-7.995],[111.58812,-7.99536],[111.58849,-7.99551],[111.58864,-7.99527],[111.58878,-7.99518],[111.58907,-7.99518],[111.58938,-7.99525],[111.58965,-7.99524],[111.58973,-7.99528],[111.58987,-7.99547],[111.59026,-7.99557],[111.59035,-7.99563],[111.59065,-7.99603],[111.5907,-7.99607],[111.59115,-7.99597],[111.59149,-7.99602],[111.59166,-7.99611],[111.59182,-7.99608],[111.59227,-7.99613],[111.59246,-7.99569],[111.59289,-7.99516],[111.59308,-7.99503],[111.59387,-7.99515],[111.59406,-7.99513],[111.59436,-7.99499],[111.59472,-7.99492],[111.59501,-7.99481],[111.59511,-7.99479],[111.59537,-7.99483],[111.59547,-7.99489],[111.59569,-7.99512],[111.59582,-7.99533],[111.59668,-7.9956],[111.59678,-7.99584],[111.59688,-7.99635],[111.59696,-7.99647],[111.59703,-7.99653],[111.59729,-7.99658],[111.59747,-7.99691],[111.59804,-7.99717],[111.59832,-7.99761],[111.59858,-7.9986],[111.59875,-7.9989],[111.59913,-7.99911],[111.60071,-7.9997]]]}},{"type":"Feature","properties":{"NAMOBJ":"Tumpak Pelem","KDBBPS":"3502","KDCBPS":"3502050003","KDCPUM":"35.02.05","KDEBPS":"350205","KDEPUM":"35.02.05.2003","KDPBPS":"35","KDPKAB":"35.02","KDPPUM":"35","TIPADM":1,"WADMKC":"Sawoo","WADMKD":"Tumpak Pelem","WADMKK":"Ponorogo","WADMPR":"Jawa Timur","UUPP":"Kesepakatan Teknis Batas Wilayah Administrasi Desa/Kelurahan Tahun 2021","luas":8.92},"geometry":{"type":"Polygon","coordinates":[[[111.63127,-8.0073],[111.63108,-8.00754],[111.6306,-8.00764],[111.62988,-8.00789],[111.62932,-8.00859],[111.62859,-8.00917],[111.62763,-8.00965],[111.62685,-8.01014],[111.62592,-8.01092],[111.62588,-8.01089],[111.62508,-8.00919],[111.62484,-8.00859],[111.62457,-8.00846],[111.62436,-8.00828],[111.62422,-8.00738],[111.62404,-8.00704],[111.62376,-8.00693],[111.62318,-8.0065],[111.62286,-8.00674],[111.62252,-8.00688],[111.62178,-8.00699],[111.62132,-8.00748],[111.6194,-8.00823],[111.61858,-8.00849],[111.61818,-8.00896],[111.61744,-8.0094],[111.61705,-8.0095],[111.61552,-8.00961],[111.61515,-8.00979],[111.61494,-8.01006],[111.61437,-8.01069],[111.61355,-8.01114],[111.61296,-8.0116],[111.61252,-8.01169],[111.61177,-8.01167],[111.61138,-8.01196],[111.61082,-8.01259],[111.61006,-8.01324],[111.6097,-8.01408],[111.60861,-8.01508],[111.60801,-8.0155],[111.60736,-8.01556],[111.60662,-8.01588],[111.60637,-8.01607],[111.60642,-8.01638],[111.60652,-8.01648],[111.6067,-8.01655],[111.60689,-8.01666],[111.60704,-8.01687],[111.60713,-8.01742],[111.60726,-8.0178],[111.60753,-8.01805],[111.60778,-8.01816],[111.60746,-8.01857],[111.60704,-8.0189],[111.60665,-8.01909],[111.60627,-8.01935],[111.60596,-8.01944],[111.60575,-8.01944],[111.60531,-8.01929],[111.60489,-8.01921],[111.60449,-8.01906],[111.60387,-8.01868],[111.60346,-8.01859],[111.60286,-8.01859],[111.60201,-8.01829],[111.60185,-8.01826],[111.60156,-8.01827],[111.60096,-8.01834],[111.6005,-8.01829],[111.6003,-8.01824],[111.59969,-8.01827],[111.59918,-8.01847],[111.59838,-8.0184],[111.59786,-8.0185],[111.59732,-8.01869],[111.59713,-8.01871],[111.59702,-8.01867],[111.59689,-8.0185],[111.59717,-8.01753],[111.59747,-8.01751],[111.59857,-8.01569],[111.59892,-8.01471],[111.59842,-8.01414],[111.5986,-8.01258],[111.60017,-8.01002],[111.60049,-8.00921],[111.60042,-8.00829],[111.60044,-8.00802],[111.60042,-8.00676],[111.60057,-8.00576],[111.60054,-8.00547],[111.60013,-8.00436],[111.59977,-8.00318],[111.5997,-8.00284],[111.59983,-8.00174],[111.60001,-8.00119],[111.60071,-7.9997],[111.60086,-7.99928],[111.60091,-7.9991],[111.60076,-7.99886],[111.60085,-7.99838],[111.60107,-7.99788],[111.60131,-7.99752],[111.60146,-7.9969],[111.60151,-7.99628],[111.6016,-7.99615],[111.60161,-7.99526],[111.60143,-7.99476],[111.60114,-7.99448],[111.60092,-7.99441],[111.60092,-7.99432],[111.60084,-7.99419],[111.60054,-7.99385],[111.60043,-7.99345],[111.60042,-7.99313],[111.60067,-7.99282],[111.60038,-7.9926],[111.6001,-7.99244],[111.59995,-7.99223],[111.59992,-7.99189],[111.59973,-7.99165],[111.59969,-7.99155],[111.59951,-7.9914],[111.5995,-7.99133],[111.5996,-7.99113],[111.59928,-7.99086],[111.59922,-7.99093],[111.59896,-7.99079],[111.59922,-7.99051],[111.5989,-7.99019],[111.59857,-7.98934],[111.59934,-7.98928],[111.6002,-7.98927],[111.60021,-7.989],[111.60015,-7.98879],[111.60009,-7.98865],[111.59988,-7.9884],[111.60046,-7.98854],[111.60057,-7.98869],[111.60119,-7.98916],[111.60146,-7.98926],[111.60185,-7.9893],[111.60205,-7.98916],[111.60223,-7.9891],[111.60341,-7.98902],[111.60453,-7.98878],[111.60643,-7.98858],[111.60672,-7.98848],[111.60805,-7.9878],[111.60835,-7.98768],[111.60978,-7.98733],[111.61046,-7.98744],[111.61082,-7.98737],[111.61105,-7.98723],[111.61118,-7.9871],[111.61131,-7.98696],[111.61149,-7.98659],[111.61203,-7.98615],[111.61254,-7.98558],[111.61271,-7.98521],[111.61288,-7.98466],[111.61289,-7.98406],[111.61329,-7.98355],[111.61338,-7.98337],[111.61358,-7.9832],[111.61387,-7.98268],[111.61408,-7.98263],[111.61448,-7.98266],[111.61489,-7.98276],[111.61512,-7.98268],[111.61564,-7.98219],[111.61607,-7.98218],[111.61638,-7.98212],[111.61664,-7.98203],[111.61689,-7.98183],[111.61742,-7.98118],[111.61858,-7.98098],[111.61875,-7.98084],[111.61878,-7.98071],[111.61886,-7.98058],[111.61901,-7.98043],[111.61916,-7.98034],[111.6198,-7.98014],[111.62014,-7.98056],[111.62027,-7.98087],[111.62038,-7.98081],[111.62054,-7.98099],[111.62074,-7.981],[111.62075,-7.98119],[111.62089,-7.98141],[111.62088,-7.98155],[111.621,-7.98172],[111.62082,-7.98185],[111.62103,-7.98239],[111.62112,-7.98271],[111.62133,-7.98319],[111.62169,-7.98353],[111.62178,-7.98359],[111.62194,-7.98356],[111.62212,-7.98347],[111.62226,-7.98343],[111.62242,-7.98341],[111.62248,-7.98345],[111.62226,-7.98371],[111.62214,-7.98392],[111.62214,-7.98403],[111.62222,-7.98416],[111.62212,-7.98453],[111.62225,-7.98477],[111.62247,-7.98506],[111.6228,-7.98494],[111.62301,-7.985],[111.62336,-7.9855],[111.62376,-7.98582],[111.62376,-7.98608],[111.62394,-7.98632],[111.62403,-7.9866],[111.62406,-7.98734],[111.62413,-7.98738],[111.62419,-7.98759],[111.62448,-7.98765],[111.62443,-7.9885],[111.62463,-7.98876],[111.62482,-7.98909],[111.62537,-7.98987],[111.6252,-7.99234],[111.62567,-7.99241],[111.62572,-7.99353],[111.62695,-7.99549],[111.6274,-7.99631],[111.62756,-7.9965],[111.62777,-7.99696],[111.62784,-7.99733],[111.62764,-7.99787],[111.62752,-7.99842],[111.62763,-7.99912],[111.62765,-7.99997],[111.627,-8.00189],[111.62872,-8.00571],[111.63127,-8.0073]]]}},{"type":"Feature","properties":{"NAMOBJ":"Tempuran","KDBBPS":"3502","KDCBPS":"3502050004","KDCPUM":"35.02.05","KDEBPS":"350205","KDEPUM":"35.02.05.2004","KDPBPS":"35","KDPKAB":"35.02","KDPPUM":"35","TIPADM":1,"WADMKC":"Sawoo","WADMKD":"Tempuran","WADMKK":"Ponorogo","WADMPR":"Jawa Timur","UUPP":"Kesepakatan Teknis Batas Wilayah Administrasi Desa/Kelurahan Tahun 2021","luas":11.763},"geometry":{"type":"Polygon","coordinates":[[[111.65632,-7.97588],[111.65626,-7.97593],[111.65613,-7.97621],[111.65598,-7.9767],[111.6558,-7.97712],[111.65569,-7.97753],[111.65565,-7.9778],[111.65545,-7.97824],[111.6553,-7.97871],[111.65535,-7.97968],[111.65523,-7.98013],[111.6551,-7.98043],[111.65499,-7.98059],[111.65388,-7.9814],[111.65372,-7.98154],[111.65369,-7.98166],[111.65376,-7.98223],[111.65338,-7.98336],[111.65335,-7.98357],[111.65342,-7.98378],[111.65351,-7.98448],[111.65367,-7.98499],[111.65371,-7.98551],[111.65369,-7.98584],[111.65358,-7.98614],[111.65367,-7.98644],[111.65382,-7.98659],[111.65407,-7.98675],[111.65443,-7.98727],[111.65503,-7.988],[111.65496,-7.98807],[111.65516,-7.98829],[111.65579,-7.9888],[111.65637,-7.98956],[111.65686,-7.98998],[111.6564,-7.99023],[111.65558,-7.99081],[111.65586,-7.99147],[111.65606,-7.99212],[111.65626,-7.99358],[111.65621,-7.99485],[111.65631,-7.99635],[111.65598,-7.99768],[111.65553,-7.99912],[111.65504,-7.99982],[111.65456,-8.00042],[111.65447,-8.00061],[111.65435,-8.00108],[111.65436,-8.0016],[111.65446,-8.00192],[111.6546,-8.00219],[111.65508,-8.00284],[111.65534,-8.00327],[111.6556,-8.00388],[111.65574,-8.00436],[111.65575,-8.00455],[111.65566,-8.00502],[111.65559,-8.00585],[111.65571,-8.00644],[111.65554,-8.00683],[111.65562,-8.00722],[111.65562,-8.00761],[111.65592,-8.0084],[111.65589,-8.00881],[111.65566,-8.00936],[111.65561,-8.00931],[111.65565,-8.01131],[111.65532,-8.01204],[111.65497,-8.01353],[111.65496,-8.01426],[111.65505,-8.01507],[111.655,-8.01551],[111.65452,-8.01637],[111.65384,-8.01705],[111.65373,-8.01726],[111.65379,-8.01819],[111.65356,-8.01856],[111.65332,-8.01885],[111.65332,-8.01898],[111.65358,-8.01946],[111.65337,-8.02015],[111.6533,-8.02048],[111.65319,-8.02058],[111.65294,-8.02067],[111.65165,-8.0214],[111.65142,-8.02146],[111.65096,-8.0214],[111.65086,-8.02148],[111.65079,-8.02162],[111.65074,-8.02203],[111.65064,-8.02214],[111.64983,-8.02207],[111.64933,-8.02173],[111.64923,-8.02174],[111.64901,-8.02184],[111.6489,-8.02194],[111.64816,-8.0209],[111.64828,-8.02006],[111.64827,-8.01931],[111.64806,-8.01876],[111.64775,-8.01826],[111.64742,-8.01787],[111.64718,-8.01729],[111.64708,-8.0166],[111.64695,-8.01605],[111.64686,-8.01546],[111.64686,-8.01488],[111.64722,-8.01295],[111.64725,-8.01255],[111.64754,-8.01217],[111.6477,-8.01174],[111.6477,-8.01104],[111.64781,-8.01059],[111.64784,-8.01007],[111.64799,-8.00953],[111.64799,-8.00914],[111.64834,-8.00867],[111.64827,-8.00817],[111.64847,-8.00743],[111.64835,-8.00695],[111.64836,-8.00633],[111.64824,-8.00577],[111.64789,-8.00517],[111.64771,-8.00378],[111.64684,-8.00343],[111.64619,-8.00329],[111.64544,-8.00319],[111.64521,-8.00375],[111.64487,-8.00433],[111.64455,-8.00468],[111.64429,-8.00485],[111.64372,-8.00504],[111.643,-8.00521],[111.6426,-8.00526],[111.64242,-8.00536],[111.64147,-8.00526],[111.64145,-8.00535],[111.64135,-8.00524],[111.64121,-8.00523],[111.63929,-8.00326],[111.63799,-8.00249],[111.63723,-8.00208],[111.63611,-8.00215],[111.63528,-8.00258],[111.6343,-8.00326],[111.63376,-8.00353],[111.63334,-8.00395],[111.63304,-8.00462],[111.63254,-8.00479],[111.63177,-8.00668],[111.63127,-8.0073],[111.62872,-8.00571],[111.627,-8.00189],[111.62765,-7.99997],[111.62763,-7.99912],[111.62752,-7.99842],[111.62764,-7.99787],[111.62784,-7.99733],[111.62777,-7.99696],[111.62756,-7.9965],[111.6274,-7.99631],[111.62695,-7.99549],[111.62572,-7.99353],[111.62567,-7.99241],[111.6252,-7.99234],[111.62537,-7.98987],[111.62482,-7.98909],[111.62463,-7.98876],[111.62443,-7.9885],[111.62448,-7.98765],[111.62419,-7.98759],[111.62413,-7.98738],[111.62406,-7.98734],[111.62403,-7.9866],[111.62394,-7.98632],[111.62376,-7.98608],[111.62376,-7.98582],[111.62336,-7.9855],[111.62301,-7.985],[111.6228,-7.98494],[111.62247,-7.98506],[111.62215,-7.98462],[111.62212,-7.98448],[111.62222,-7.98416],[111.62214,-7.98403],[111.62214,-7.98392],[111.62226,-7.98371],[111.62248,-7.98345],[111.62242,-7.98341],[111.62226,-7.98343],[111.62212,-7.98347],[111.62194,-7.98356],[111.62178,-7.98359],[111.62169,-7.98353],[111.62133,-7.98319],[111.62112,-7.98271],[111.62103,-7.98239],[111.62082,-7.98185],[111.621,-7.98172],[111.62088,-7.98155],[111.62089,-7.98141],[111.62075,-7.98119],[111.62074,-7.981],[111.62054,-7.98099],[111.62038,-7.98081],[111.62027,-7.98087],[111.62014,-7.98056],[111.6198,-7.98014],[111.61995,-7.9802],[111.62043,-7.97984],[111.62055,-7.97983],[111.62063,-7.97992],[111.62097,-7.97953],[111.621,-7.97948],[111.62098,-7.97935],[111.62139,-7.97949],[111.62195,-7.97905],[111.62218,-7.97902],[111.62242,-7.97893],[111.62343,-7.97885],[111.62386,-7.97895],[111.62459,-7.97898],[111.62538,-7.97909],[111.6263,-7.97914],[111.62655,-7.97892],[111.6269,-7.97852],[111.62779,-7.97864],[111.62829,-7.97865],[111.62853,-7.97905],[111.62956,-7.9789],[111.62982,-7.97901],[111.63036,-7.97897],[111.63053,-7.9789],[111.6307,-7.97887],[111.63077,-7.97865],[111.63196,-7.97876],[111.63208,-7.9788],[111.63243,-7.97905],[111.63253,-7.97903],[111.63341,-7.97905],[111.63394,-7.97887],[111.63424,-7.97884],[111.63445,-7.9787],[111.63485,-7.97865],[111.635,-7.97828],[111.63551,-7.9782],[111.63707,-7.97758],[111.63769,-7.97721],[111.63793,-7.97717],[111.63806,-7.97708],[111.63853,-7.97636],[111.63883,-7.97603],[111.63894,-7.97581],[111.6389,-7.97525],[111.63869,-7.97477],[111.6391,-7.97394],[111.6395,-7.97383],[111.63988,-7.97381],[111.64012,-7.97388],[111.64074,-7.97423],[111.64111,-7.97455],[111.64175,-7.97502],[111.64197,-7.97431],[111.64215,-7.97429],[111.64248,-7.97417],[111.64265,-7.97415],[111.64326,-7.97387],[111.64337,-7.97387],[111.64349,-7.97379],[111.64391,-7.97377],[111.64405,-7.97403],[111.64407,-7.97432],[111.6442,-7.97451],[111.64425,-7.97454],[111.64451,-7.97455],[111.64456,-7.97454],[111.64467,-7.97412],[111.64522,-7.97399],[111.64554,-7.9735],[111.64588,-7.97345],[111.6459,-7.97355],[111.6463,-7.97353],[111.64637,-7.97374],[111.64702,-7.97379],[111.64756,-7.97378],[111.64764,-7.97368],[111.64796,-7.97356],[111.6486,-7.97352],[111.64893,-7.97347],[111.64904,-7.97342],[111.64915,-7.97331],[111.6492,-7.97319],[111.64952,-7.97315],[111.64969,-7.97334],[111.6497,-7.97365],[111.64946,-7.97363],[111.6494,-7.97406],[111.64945,-7.97419],[111.65006,-7.97456],[111.65054,-7.97516],[111.65063,-7.97532],[111.65078,-7.97546],[111.65088,-7.97568],[111.65098,-7.9757],[111.65104,-7.97567],[111.65099,-7.97533],[111.65126,-7.97515],[111.65138,-7.97519],[111.65149,-7.97542],[111.65182,-7.97541],[111.65204,-7.97546],[111.65201,-7.97589],[111.65202,-7.97634],[111.65212,-7.97651],[111.65235,-7.97657],[111.65242,-7.97677],[111.65233,-7.97686],[111.65228,-7.97684],[111.65218,-7.97688],[111.65213,-7.97694],[111.65228,-7.97712],[111.65243,-7.97713],[111.65236,-7.97723],[111.65237,-7.97738],[111.65229,-7.9776],[111.65233,-7.97773],[111.65244,-7.97779],[111.65261,-7.97773],[111.65266,-7.97764],[111.65268,-7.97745],[111.65262,-7.9774],[111.65258,-7.97726],[111.65261,-7.97717],[111.65277,-7.977],[111.65285,-7.97698],[111.65296,-7.97701],[111.65306,-7.97712],[111.65316,-7.97716],[111.65359,-7.97701],[111.65399,-7.97676],[111.65435,-7.9768],[111.65461,-7.97643],[111.65471,-7.97642],[111.65477,-7.97607],[111.6549,-7.9759],[111.6551,-7.97579],[111.65522,-7.97579],[111.65555,-7.97588],[111.65578,-7.97602],[111.65632,-7.97588]]]}},{"type":"Feature","properties":{"NAMOBJ":"Tugurejo","KDBBPS":"3502","KDCBPS":"3502050009","KDCPUM":"35.02.05","KDEBPS":"350205","KDEPUM":"35.02.05.2009","KDPBPS":"35","KDPKAB":"35.02","KDPPUM":"35","TIPADM":1,"WADMKC":"Sawoo","WADMKD":"Tugurejo","WADMKK":"Ponorogo","WADMPR":"Jawa Timur","UUPP":"Kesepakatan Teknis Batas Wilayah Administrasi Desa/Kelurahan Tahun 2021","luas":2.23},"geometry":{"type":"Polygon","coordinates":[[[111.55602,-7.98342],[111.55436,-7.98252],[111.55306,-7.98147],[111.55136,-7.98055],[111.54743,-7.98192],[111.54701,-7.98197],[111.54623,-7.98183],[111.54597,-7.98159],[111.54585,-7.98143],[111.54562,-7.98143],[111.54557,-7.98139],[111.5456,-7.981],[111.54559,-7.98059],[111.54308,-7.98036],[111.53933,-7.98015],[111.53934,-7.97774],[111.53939,-7.97767],[111.53958,-7.97594],[111.53952,-7.9758],[111.53956,-7.97408],[111.53954,-7.9739],[111.53959,-7.97361],[111.53956,-7.9732],[111.53926,-7.97321],[111.53922,-7.97214],[111.53922,-7.97128],[111.53937,-7.97131],[111.53942,-7.97127],[111.53943,-7.97122],[111.53965,-7.97132],[111.53983,-7.97129],[111.54009,-7.97137],[111.5403,-7.97137],[111.54065,-7.97152],[111.54096,-7.9716],[111.54104,-7.97074],[111.5411,-7.97045],[111.5412,-7.96891],[111.54142,-7.96894],[111.54173,-7.96914],[111.54204,-7.96917],[111.54255,-7.96903],[111.54275,-7.96904],[111.54297,-7.96914],[111.54337,-7.96917],[111.54352,-7.96912],[111.54366,-7.969],[111.54379,-7.96903],[111.54423,-7.96905],[111.54462,-7.96878],[111.54499,-7.96862],[111.5457,-7.96865],[111.54586,-7.96819],[111.54603,-7.968],[111.54626,-7.9679],[111.5465,-7.96773],[111.54695,-7.96772],[111.54722,-7.96787],[111.5474,-7.96789],[111.54762,-7.9681],[111.54774,-7.96816],[111.54814,-7.96816],[111.54839,-7.96795],[111.54853,-7.96774],[111.54864,-7.96746],[111.54887,-7.9672],[111.54915,-7.96705],[111.54956,-7.96696],[111.54989,-7.96695],[111.54989,-7.96705],[111.54997,-7.96707],[111.55019,-7.96753],[111.55031,-7.96766],[111.55031,-7.96808],[111.55053,-7.96908],[111.55065,-7.96926],[111.55068,-7.96943],[111.5509,-7.96983],[111.55111,-7.96998],[111.55133,-7.97004],[111.55142,-7.97017],[111.55276,-7.97041],[111.55339,-7.97137],[111.55387,-7.9725],[111.55429,-7.97443],[111.55592,-7.9788],[111.55545,-7.98071],[111.55557,-7.98167],[111.55588,-7.98273],[111.55602,-7.98342]]]}},{"type":"Feature","properties":{"NAMOBJ":"Grogol","KDBBPS":"3502","KDCBPS":"3502050010","KDCPUM":"35.02.05","KDEBPS":"350205","KDEPUM":"35.02.05.2010","KDPBPS":"35","KDPKAB":"35.02","KDPPUM":"35","TIPADM":1,"WADMKC":"Sawoo","WADMKD":"Grogol","WADMKK":"Ponorogo","WADMPR":"Jawa Timur","UUPP":"Kesepakatan Teknis Batas Wilayah Administrasi Desa/Kelurahan Tahun 2021","luas":15.907},"geometry":{"type":"Polygon","coordinates":[[[111.5411,-7.97045],[111.54104,-7.97074],[111.54096,-7.9716],[111.54065,-7.97152],[111.5403,-7.97137],[111.54009,-7.97137],[111.53983,-7.97129],[111.53965,-7.97132],[111.53943,-7.97122],[111.53942,-7.97127],[111.53937,-7.97131],[111.53922,-7.97128],[111.53922,-7.97214],[111.53926,-7.97321],[111.53956,-7.9732],[111.53959,-7.97361],[111.53954,-7.9739],[111.53956,-7.97408],[111.53952,-7.9758],[111.53958,-7.97594],[111.53939,-7.97767],[111.53934,-7.97774],[111.53933,-7.98015],[111.54308,-7.98036],[111.54559,-7.98059],[111.5456,-7.981],[111.54557,-7.98139],[111.54562,-7.98143],[111.54585,-7.98143],[111.54597,-7.98159],[111.54623,-7.98183],[111.54701,-7.98197],[111.54743,-7.98192],[111.55136,-7.98055],[111.55306,-7.98147],[111.55436,-7.98252],[111.55687,-7.98386],[111.55813,-7.98433],[111.56328,-7.98563],[111.56333,-7.98555],[111.5634,-7.98555],[111.56351,-7.98561],[111.56371,-7.98565],[111.56465,-7.98647],[111.56496,-7.98658],[111.56557,-7.98662],[111.56583,-7.98669],[111.56599,-7.98683],[111.56603,-7.98711],[111.56621,-7.98729],[111.56651,-7.98744],[111.56672,-7.98783],[111.56679,-7.98811],[111.56679,-7.98847],[111.56668,-7.9887],[111.56653,-7.98942],[111.5664,-7.98963],[111.56627,-7.99006],[111.56613,-7.99033],[111.56606,-7.99075],[111.56594,-7.99114],[111.56575,-7.99143],[111.56557,-7.99238],[111.56549,-7.99263],[111.56533,-7.99292],[111.56531,-7.99307],[111.56547,-7.99332],[111.56582,-7.99358],[111.56611,-7.99372],[111.56638,-7.99377],[111.56673,-7.99425],[111.5677,-7.99582],[111.56823,-7.99644],[111.56926,-7.99694],[111.5686,-7.99727],[111.56832,-7.99818],[111.56833,-7.99894],[111.56879,-8.00246],[111.56429,-8.00267],[111.56339,-8.00276],[111.55946,-8.00562],[111.55855,-8.00645],[111.5583,-8.00678],[111.55833,-8.0077],[111.55797,-8.00869],[111.55743,-8.00972],[111.55717,-8.0107],[111.55731,-8.01182],[111.55757,-8.01281],[111.558,-8.01381],[111.55866,-8.01456],[111.55884,-8.01467],[111.55815,-8.0156],[111.55785,-8.01593],[111.55766,-8.0161],[111.55694,-8.01669],[111.55635,-8.0171],[111.55591,-8.01737],[111.55459,-8.01805],[111.55359,-8.01871],[111.55219,-8.01957],[111.55028,-8.02064],[111.54917,-8.02118],[111.5489,-8.02135],[111.54714,-8.02208],[111.54679,-8.02225],[111.54632,-8.02255],[111.54599,-8.02288],[111.54568,-8.02329],[111.54293,-8.02749],[111.54261,-8.02803],[111.54174,-8.03006],[111.54142,-8.03062],[111.54103,-8.03105],[111.54057,-8.03136],[111.54025,-8.03158],[111.53955,-8.03189],[111.5393,-8.03113],[111.53907,-8.0306],[111.53863,-8.02982],[111.53804,-8.02886],[111.53767,-8.02809],[111.5375,-8.02769],[111.53726,-8.02686],[111.53719,-8.02646],[111.53712,-8.02528],[111.53719,-8.02303],[111.53712,-8.02265],[111.53717,-8.0222],[111.53745,-8.02129],[111.53748,-8.02085],[111.5376,-8.02024],[111.53772,-8.01991],[111.53812,-8.01922],[111.53817,-8.01906],[111.53814,-8.01875],[111.53791,-8.01814],[111.53779,-8.01759],[111.53764,-8.01667],[111.53766,-8.01618],[111.53794,-8.01487],[111.53809,-8.01443],[111.53833,-8.01403],[111.53892,-8.01271],[111.53954,-8.01105],[111.53964,-8.01047],[111.53968,-8.01],[111.53986,-8.00946],[111.54013,-8.00903],[111.54017,-8.00881],[111.54001,-8.0072],[111.53996,-8.00702],[111.53983,-8.00681],[111.53973,-8.00653],[111.53933,-8.00614],[111.53917,-8.00589],[111.53912,-8.00566],[111.53897,-8.00556],[111.53876,-8.00549],[111.53861,-8.00556],[111.5382,-8.00554],[111.53555,-8.00518],[111.53537,-8.00506],[111.53477,-8.00409],[111.53429,-8.00116],[111.5341,-8.00025],[111.53381,-7.99967],[111.5341,-7.99892],[111.53405,-7.99882],[111.53386,-7.99866],[111.53355,-7.99851],[111.53342,-7.99841],[111.53324,-7.99709],[111.53313,-7.99511],[111.53282,-7.99186],[111.53257,-7.9895],[111.53232,-7.98772],[111.53207,-7.98367],[111.53198,-7.98174],[111.53198,-7.97973],[111.53107,-7.97973],[111.52943,-7.97961],[111.52939,-7.97748],[111.52953,-7.97087],[111.52851,-7.97083],[111.52803,-7.97087],[111.52307,-7.97103],[111.523,-7.97043],[111.52301,-7.97019],[111.52296,-7.96966],[111.52291,-7.96807],[111.52182,-7.96818],[111.52158,-7.96831],[111.52148,-7.96669],[111.52144,-7.96664],[111.52134,-7.96662],[111.52131,-7.96658],[111.52127,-7.96611],[111.51877,-7.96601],[111.5188,-7.96352],[111.52011,-7.96337],[111.52025,-7.96334],[111.52053,-7.9632],[111.52129,-7.96315],[111.52245,-7.9633],[111.52346,-7.96335],[111.52501,-7.96351],[111.52578,-7.96365],[111.527,-7.96378],[111.52713,-7.96382],[111.52722,-7.96388],[111.52724,-7.96394],[111.52728,-7.96428],[111.52739,-7.96434],[111.52763,-7.96457],[111.52782,-7.96463],[111.52829,-7.96459],[111.52842,-7.96464],[111.52861,-7.96482],[111.52881,-7.96481],[111.52903,-7.96485],[111.5291,-7.96483],[111.52913,-7.96481],[111.52923,-7.96457],[111.5293,-7.96452],[111.52939,-7.96451],[111.5296,-7.9647],[111.52967,-7.96491],[111.52978,-7.96493],[111.53009,-7.9649],[111.53027,-7.96518],[111.53042,-7.96531],[111.53059,-7.96529],[111.53058,-7.96503],[111.5307,-7.96497],[111.53077,-7.96489],[111.53082,-7.9664],[111.53089,-7.96641],[111.5309,-7.96636],[111.53125,-7.96641],[111.53185,-7.96644],[111.53192,-7.96659],[111.53192,-7.96678],[111.53232,-7.96683],[111.5328,-7.96687],[111.53281,-7.96681],[111.53345,-7.96681],[111.53354,-7.96684],[111.53363,-7.96693],[111.53378,-7.96688],[111.53401,-7.96685],[111.53408,-7.96678],[111.53596,-7.96686],[111.53608,-7.96894],[111.53625,-7.96879],[111.53635,-7.96866],[111.53656,-7.96869],[111.5367,-7.96874],[111.53684,-7.96896],[111.53716,-7.96922],[111.5372,-7.96958],[111.53732,-7.9698],[111.53769,-7.97013],[111.5379,-7.97055],[111.53826,-7.97102],[111.53835,-7.97107],[111.53846,-7.97107],[111.5389,-7.97095],[111.53889,-7.97061],[111.53892,-7.97015],[111.5411,-7.97045]]]}},{"type":"Feature","properties":{"NAMOBJ":"Sriti","KDBBPS":"3502","KDCBPS":"3502050005","KDCPUM":"35.02.05","KDEBPS":"350205","KDEPUM":"35.02.05.2005","KDPBPS":"35","KDPKAB":"35.02","KDPPUM":"35","TIPADM":1,"WADMKC":"Sawoo","WADMKD":"Sriti","WADMKK":"Ponorogo","WADMPR":"Jawa Timur","UUPP":"Kesepakatan Teknis Batas Wilayah Administrasi Desa/Kelurahan Tahun 2021","luas":8.232},"geometry":{"type":"Polygon","coordinates":[[[111.65632,-7.97588],[111.65578,-7.97602],[111.65555,-7.97588],[111.65522,-7.97579],[111.6551,-7.97579],[111.6549,-7.9759],[111.65477,-7.97607],[111.65471,-7.97642],[111.65461,-7.97643],[111.65435,-7.9768],[111.65399,-7.97676],[111.65359,-7.97701],[111.65316,-7.97716],[111.65306,-7.97712],[111.65296,-7.97701],[111.65285,-7.97698],[111.65277,-7.977],[111.65261,-7.97717],[111.65258,-7.97726],[111.65262,-7.9774],[111.65268,-7.97745],[111.65266,-7.97764],[111.65261,-7.97773],[111.65244,-7.97779],[111.65233,-7.97773],[111.65229,-7.9776],[111.65237,-7.97738],[111.65236,-7.97723],[111.65243,-7.97713],[111.65228,-7.97712],[111.65213,-7.97694],[111.65218,-7.97688],[111.65228,-7.97684],[111.65233,-7.97686],[111.65242,-7.97677],[111.65235,-7.97657],[111.65212,-7.97651],[111.65202,-7.97634],[111.65201,-7.97589],[111.65204,-7.97546],[111.65182,-7.97541],[111.65149,-7.97542],[111.65138,-7.97519],[111.65126,-7.97515],[111.65099,-7.97533],[111.65104,-7.97567],[111.65098,-7.9757],[111.65088,-7.97568],[111.65078,-7.97546],[111.65063,-7.97532],[111.65054,-7.97516],[111.65006,-7.97456],[111.64945,-7.97419],[111.6494,-7.97406],[111.64946,-7.97363],[111.6497,-7.97365],[111.64969,-7.97334],[111.64952,-7.97315],[111.6492,-7.97319],[111.64915,-7.97331],[111.64904,-7.97342],[111.64893,-7.97347],[111.6486,-7.97352],[111.64796,-7.97356],[111.64764,-7.97368],[111.64756,-7.97378],[111.64702,-7.97379],[111.64637,-7.97374],[111.6463,-7.97353],[111.6459,-7.97355],[111.64588,-7.97345],[111.64554,-7.9735],[111.64522,-7.97399],[111.64467,-7.97412],[111.64456,-7.97454],[111.64451,-7.97455],[111.64425,-7.97454],[111.6442,-7.97451],[111.64407,-7.97432],[111.64405,-7.97403],[111.64391,-7.97377],[111.64349,-7.97379],[111.64337,-7.97387],[111.64326,-7.97387],[111.64265,-7.97415],[111.64248,-7.97417],[111.64215,-7.97429],[111.64197,-7.97431],[111.64175,-7.97502],[111.64111,-7.97455],[111.64074,-7.97423],[111.64001,-7.97383],[111.63965,-7.97381],[111.6394,-7.97384],[111.6391,-7.97394],[111.63869,-7.97477],[111.6389,-7.97525],[111.63894,-7.97581],[111.63883,-7.97603],[111.63853,-7.97636],[111.63806,-7.97708],[111.63793,-7.97717],[111.63769,-7.97721],[111.63707,-7.97758],[111.63551,-7.9782],[111.635,-7.97828],[111.63485,-7.97865],[111.63445,-7.9787],[111.63424,-7.97884],[111.63394,-7.97887],[111.63341,-7.97905],[111.63253,-7.97903],[111.63243,-7.97905],[111.63208,-7.9788],[111.63196,-7.97876],[111.63077,-7.97865],[111.6307,-7.97887],[111.63053,-7.9789],[111.63036,-7.97897],[111.62982,-7.97901],[111.62956,-7.9789],[111.62853,-7.97905],[111.62829,-7.97865],[111.62779,-7.97864],[111.6269,-7.97852],[111.62655,-7.97892],[111.6263,-7.97914],[111.62538,-7.97909],[111.62459,-7.97898],[111.62386,-7.97895],[111.62343,-7.97885],[111.62242,-7.97893],[111.62218,-7.97902],[111.62195,-7.97905],[111.62139,-7.97949],[111.62098,-7.97935],[111.621,-7.97948],[111.62097,-7.97953],[111.62063,-7.97992],[111.62055,-7.97983],[111.62043,-7.97984],[111.61995,-7.9802],[111.6198,-7.98014],[111.61916,-7.98034],[111.61901,-7.98043],[111.61886,-7.98058],[111.61878,-7.98071],[111.61875,-7.98084],[111.61862,-7.98096],[111.61812,-7.98105],[111.61807,-7.98065],[111.61796,-7.9806],[111.61744,-7.98062],[111.61707,-7.98054],[111.61688,-7.98035],[111.61684,-7.98008],[111.61697,-7.97978],[111.61698,-7.97969],[111.6168,-7.97908],[111.61678,-7.97878],[111.61729,-7.97809],[111.61787,-7.97752],[111.61794,-7.97723],[111.61782,-7.97677],[111.61784,-7.97648],[111.61812,-7.97607],[111.61855,-7.97618],[111.6187,-7.97578],[111.61898,-7.97413],[111.61919,-7.97384],[111.61881,-7.973],[111.61922,-7.97152],[111.6193,-7.97136],[111.61976,-7.97129],[111.61975,-7.97115],[111.61982,-7.97106],[111.61957,-7.97083],[111.61956,-7.97059],[111.61932,-7.97059],[111.6191,-7.97049],[111.61892,-7.97046],[111.61868,-7.97052],[111.61839,-7.97075],[111.61835,-7.97086],[111.61827,-7.97089],[111.61808,-7.97076],[111.618,-7.97076],[111.61755,-7.97092],[111.61749,-7.97079],[111.61754,-7.97044],[111.61772,-7.97031],[111.61802,-7.97025],[111.61853,-7.97007],[111.61871,-7.97019],[111.61881,-7.97022],[111.6189,-7.97022],[111.61911,-7.97015],[111.61932,-7.97021],[111.61983,-7.97057],[111.62004,-7.97061],[111.62009,-7.97052],[111.61989,-7.97031],[111.61971,-7.97018],[111.61951,-7.9701],[111.61935,-7.96997],[111.61936,-7.96921],[111.61943,-7.96879],[111.62002,-7.96859],[111.62048,-7.96826],[111.62029,-7.9678],[111.62043,-7.96763],[111.6204,-7.96729],[111.62041,-7.96664],[111.62046,-7.96633],[111.62053,-7.96615],[111.62069,-7.96596],[111.62101,-7.96542],[111.62135,-7.96464],[111.62153,-7.96438],[111.62199,-7.96389],[111.62206,-7.9634],[111.62202,-7.9633],[111.62201,-7.96308],[111.62208,-7.96297],[111.6222,-7.96247],[111.62215,-7.96235],[111.62219,-7.96194],[111.62242,-7.96147],[111.62246,-7.961],[111.62263,-7.96098],[111.62306,-7.96106],[111.62328,-7.96106],[111.62376,-7.96074],[111.62407,-7.96048],[111.62417,-7.96032],[111.6242,-7.96013],[111.62429,-7.96006],[111.62444,-7.95976],[111.62448,-7.95956],[111.62447,-7.95935],[111.62473,-7.958],[111.62498,-7.95773],[111.6251,-7.95748],[111.62572,-7.9573],[111.62586,-7.95723],[111.62599,-7.95705],[111.62609,-7.95701],[111.62621,-7.95706],[111.62627,-7.95705],[111.62635,-7.95691],[111.62638,-7.95643],[111.62659,-7.95612],[111.6269,-7.95618],[111.62736,-7.95657],[111.62753,-7.95685],[111.62754,-7.95768],[111.6278,-7.95767],[111.62797,-7.95793],[111.62816,-7.95854],[111.62823,-7.95861],[111.62838,-7.95856],[111.62851,-7.95857],[111.62877,-7.95841],[111.62896,-7.95842],[111.62929,-7.9586],[111.62938,-7.95872],[111.62963,-7.95803],[111.62977,-7.95815],[111.63005,-7.95817],[111.63006,-7.95794],[111.62999,-7.95783],[111.63003,-7.95772],[111.63051,-7.95775],[111.63081,-7.9577],[111.63119,-7.95774],[111.63129,-7.9578],[111.63145,-7.95775],[111.63161,-7.95781],[111.63165,-7.95819],[111.63183,-7.95815],[111.63202,-7.95822],[111.6326,-7.95814],[111.63273,-7.95807],[111.63281,-7.95795],[111.63279,-7.95784],[111.63297,-7.95769],[111.63346,-7.95707],[111.63364,-7.95697],[111.63396,-7.95689],[111.63413,-7.95676],[111.63468,-7.95624],[111.63481,-7.95605],[111.63495,-7.95592],[111.63511,-7.95588],[111.63581,-7.95587],[111.63604,-7.95596],[111.63673,-7.95634],[111.63753,-7.95685],[111.63824,-7.95697],[111.63841,-7.95696],[111.63856,-7.9569],[111.6389,-7.95696],[111.63873,-7.95743],[111.63871,-7.95778],[111.63883,-7.95831],[111.63881,-7.95861],[111.63901,-7.95874],[111.6392,-7.95905],[111.63932,-7.95916],[111.63935,-7.9593],[111.63951,-7.95944],[111.63951,-7.95967],[111.63956,-7.95975],[111.63966,-7.9598],[111.64007,-7.95987],[111.64035,-7.96009],[111.64072,-7.96018],[111.64094,-7.96026],[111.64123,-7.96073],[111.64131,-7.96081],[111.64142,-7.96081],[111.64148,-7.96077],[111.64162,-7.96054],[111.64169,-7.96052],[111.64182,-7.96057],[111.64202,-7.96077],[111.64248,-7.96101],[111.6426,-7.961],[111.64275,-7.96086],[111.64282,-7.96085],[111.64295,-7.96093],[111.64308,-7.96091],[111.64314,-7.96087],[111.64321,-7.96071],[111.64321,-7.96017],[111.64328,-7.96011],[111.64348,-7.96014],[111.64405,-7.96043],[111.64422,-7.96046],[111.64434,-7.96042],[111.64441,-7.96026],[111.64448,-7.96023],[111.64459,-7.96026],[111.64831,-7.96014],[111.64837,-7.96037],[111.64878,-7.96081],[111.64977,-7.96131],[111.64986,-7.96141],[111.64986,-7.9615],[111.65026,-7.96185],[111.65076,-7.96194],[111.65099,-7.96202],[111.6514,-7.96229],[111.65149,-7.9624],[111.65175,-7.96315],[111.65216,-7.9637],[111.65237,-7.96389],[111.65285,-7.96397],[111.65302,-7.96405],[111.65319,-7.96427],[111.65317,-7.96437],[111.65367,-7.96454],[111.65436,-7.96505],[111.65487,-7.96526],[111.65582,-7.96572],[111.65692,-7.96611],[111.65777,-7.96667],[111.65849,-7.96735],[111.65902,-7.96777],[111.66052,-7.96757],[111.66187,-7.96716],[111.66262,-7.96713],[111.66343,-7.96758],[111.66349,-7.96774],[111.6635,-7.96813],[111.66333,-7.96884],[111.66299,-7.96982],[111.6626,-7.97052],[111.66251,-7.97061],[111.6624,-7.97089],[111.66223,-7.97107],[111.66171,-7.97122],[111.66163,-7.97129],[111.66172,-7.97189],[111.66154,-7.97224],[111.66151,-7.97323],[111.66158,-7.97344],[111.66192,-7.97383],[111.66225,-7.97403],[111.66223,-7.97414],[111.66209,-7.9743],[111.66164,-7.97459],[111.66161,-7.97479],[111.6615,-7.97491],[111.66119,-7.97504],[111.66109,-7.97533],[111.661,-7.97545],[111.66083,-7.97553],[111.66007,-7.97543],[111.65961,-7.97555],[111.65934,-7.97559],[111.65906,-7.97536],[111.65841,-7.97532],[111.65783,-7.97537],[111.65732,-7.97556],[111.65704,-7.97558],[111.6568,-7.97565],[111.65641,-7.97579],[111.65632,-7.97588]]]}},{"type":"Feature","properties":{"NAMOBJ":"Prayungan","KDBBPS":"3502","KDCBPS":"3502050008","KDCPUM":"35.02.05","KDEBPS":"350205","KDEPUM":"35.02.05.2008","KDPBPS":"35","KDPKAB":"35.02","KDPPUM":"35","TIPADM":1,"WADMKC":"Sawoo","WADMKD":"Prayungan","WADMKK":"Ponorogo","WADMPR":"Jawa Timur","UUPP":"Kesepakatan Teknis Batas Wilayah Administrasi Desa/Kelurahan Tahun 2021","luas":6.436},"geometry":{"type":"Polygon","coordinates":[[[111.57401,-7.95092],[111.57399,-7.95252],[111.57401,-7.95349],[111.57397,-7.95598],[111.5739,-7.95705],[111.57363,-7.95819],[111.57363,-7.9584],[111.57376,-7.95878],[111.57427,-7.95976],[111.57411,-7.96034],[111.57404,-7.96036],[111.57385,-7.96017],[111.57368,-7.96032],[111.57347,-7.96062],[111.57332,-7.96078],[111.5732,-7.96118],[111.57316,-7.96145],[111.573,-7.96167],[111.57284,-7.96178],[111.57268,-7.96221],[111.57252,-7.9625],[111.57246,-7.96253],[111.57244,-7.96251],[111.57234,-7.96213],[111.57224,-7.96205],[111.57208,-7.96222],[111.57184,-7.96225],[111.5716,-7.96221],[111.57148,-7.9621],[111.57149,-7.96199],[111.57088,-7.96229],[111.57058,-7.96254],[111.5706,-7.96261],[111.57054,-7.96298],[111.5705,-7.96299],[111.57023,-7.96293],[111.56998,-7.96335],[111.56995,-7.96352],[111.56964,-7.96352],[111.56958,-7.96362],[111.56942,-7.96373],[111.56929,-7.96394],[111.56917,-7.96423],[111.56902,-7.96499],[111.56902,-7.9652],[111.56911,-7.96534],[111.56918,-7.96556],[111.56931,-7.96557],[111.56935,-7.96567],[111.56897,-7.96584],[111.56898,-7.96641],[111.56934,-7.96641],[111.56967,-7.96646],[111.56978,-7.96659],[111.56996,-7.96669],[111.57045,-7.96707],[111.57069,-7.96714],[111.5708,-7.9672],[111.57104,-7.96741],[111.5712,-7.96774],[111.57122,-7.96794],[111.5713,-7.96814],[111.57153,-7.9685],[111.57166,-7.96859],[111.57197,-7.96863],[111.57219,-7.96873],[111.57238,-7.96887],[111.57269,-7.96888],[111.57261,-7.9691],[111.57253,-7.96961],[111.57179,-7.97028],[111.57106,-7.97082],[111.57092,-7.97103],[111.57073,-7.97141],[111.57011,-7.9731],[111.56537,-7.97129],[111.56525,-7.97169],[111.56511,-7.97194],[111.56458,-7.97235],[111.56408,-7.97315],[111.5638,-7.97325],[111.56367,-7.97347],[111.56362,-7.97359],[111.56376,-7.97368],[111.56391,-7.97366],[111.56409,-7.97373],[111.56395,-7.97395],[111.56387,-7.97498],[111.5641,-7.97519],[111.56438,-7.97562],[111.56441,-7.97637],[111.56429,-7.9766],[111.56427,-7.97716],[111.56414,-7.9774],[111.564,-7.97776],[111.56361,-7.97797],[111.56351,-7.97809],[111.56344,-7.97826],[111.56329,-7.97876],[111.56332,-7.97911],[111.56335,-7.97915],[111.56323,-7.97928],[111.56294,-7.97947],[111.56313,-7.9799],[111.56309,-7.9801],[111.56296,-7.98019],[111.5627,-7.98025],[111.56279,-7.98091],[111.56276,-7.98137],[111.56289,-7.98192],[111.56313,-7.98217],[111.56299,-7.98245],[111.56317,-7.98265],[111.56337,-7.98301],[111.56349,-7.98342],[111.56404,-7.98376],[111.56405,-7.98394],[111.56394,-7.98416],[111.56383,-7.98458],[111.56385,-7.98471],[111.56381,-7.98486],[111.56386,-7.98518],[111.56377,-7.98539],[111.56378,-7.98558],[111.56376,-7.98563],[111.56362,-7.98564],[111.56333,-7.98555],[111.56328,-7.98563],[111.55813,-7.98433],[111.55687,-7.98386],[111.55602,-7.98342],[111.55588,-7.98273],[111.55557,-7.98167],[111.55545,-7.98071],[111.55592,-7.9788],[111.55429,-7.97443],[111.55387,-7.9725],[111.55339,-7.97137],[111.55276,-7.97041],[111.55142,-7.97017],[111.55133,-7.97004],[111.55111,-7.96998],[111.5509,-7.96983],[111.55068,-7.96943],[111.55065,-7.96926],[111.55053,-7.96908],[111.55031,-7.96808],[111.55031,-7.96766],[111.55019,-7.96753],[111.54997,-7.96707],[111.54989,-7.96705],[111.54989,-7.96695],[111.54956,-7.96696],[111.54915,-7.96705],[111.54887,-7.9672],[111.54864,-7.96746],[111.54853,-7.96774],[111.54839,-7.96795],[111.54814,-7.96816],[111.54774,-7.96816],[111.54762,-7.9681],[111.5474,-7.96789],[111.54722,-7.96787],[111.54695,-7.96772],[111.5465,-7.96773],[111.54626,-7.9679],[111.54603,-7.968],[111.54586,-7.96819],[111.5457,-7.96865],[111.54499,-7.96862],[111.54462,-7.96878],[111.54423,-7.96905],[111.54379,-7.96903],[111.54366,-7.969],[111.54352,-7.96912],[111.54337,-7.96917],[111.54297,-7.96914],[111.54275,-7.96904],[111.54255,-7.96903],[111.54204,-7.96917],[111.54173,-7.96914],[111.54142,-7.96894],[111.5412,-7.96891],[111.54093,-7.9688],[111.54088,-7.96856],[111.54091,-7.96842],[111.54089,-7.96825],[111.54083,-7.96817],[111.54066,-7.96681],[111.54078,-7.96606],[111.5407,-7.96594],[111.5407,-7.9658],[111.54079,-7.96572],[111.54083,-7.96549],[111.54073,-7.96545],[111.54107,-7.96508],[111.54151,-7.96511],[111.54153,-7.96499],[111.5416,-7.9649],[111.54149,-7.96459],[111.54145,-7.96457],[111.54149,-7.96446],[111.54145,-7.96432],[111.54162,-7.96391],[111.54168,-7.96384],[111.54177,-7.96382],[111.54193,-7.96349],[111.54261,-7.96313],[111.543,-7.96314],[111.54299,-7.96322],[111.54427,-7.96283],[111.54461,-7.96268],[111.54475,-7.96287],[111.54491,-7.96351],[111.54498,-7.96364],[111.54507,-7.96375],[111.54519,-7.96382],[111.54533,-7.96388],[111.54556,-7.96388],[111.54563,-7.96381],[111.54567,-7.96371],[111.54563,-7.96307],[111.54571,-7.96297],[111.54592,-7.96286],[111.54594,-7.96275],[111.54577,-7.96259],[111.54556,-7.96227],[111.54534,-7.96223],[111.54523,-7.96227],[111.54504,-7.96226],[111.54499,-7.96209],[111.54503,-7.96189],[111.5452,-7.96163],[111.54525,-7.96147],[111.54538,-7.9613],[111.54565,-7.96128],[111.54687,-7.9616],[111.54723,-7.96175],[111.5476,-7.96174],[111.54772,-7.96043],[111.54785,-7.96049],[111.54887,-7.96056],[111.54923,-7.96051],[111.54942,-7.96052],[111.54984,-7.96058],[111.55032,-7.9606],[111.55078,-7.96059],[111.55164,-7.96042],[111.55214,-7.96025],[111.55258,-7.95994],[111.55306,-7.95965],[111.5543,-7.95947],[111.55625,-7.95939],[111.55708,-7.95909],[111.5571,-7.95889],[111.55878,-7.95832],[111.55887,-7.95832],[111.56069,-7.95769],[111.56158,-7.95693],[111.56181,-7.95668],[111.56193,-7.95667],[111.56245,-7.95647],[111.56259,-7.95631],[111.56303,-7.95611],[111.56342,-7.95574],[111.56385,-7.95519],[111.56473,-7.95429],[111.56526,-7.95359],[111.56547,-7.95344],[111.5666,-7.95324],[111.56689,-7.953],[111.56735,-7.95182],[111.56784,-7.95111],[111.56894,-7.94972],[111.5717,-7.94731],[111.57297,-7.94564],[111.57381,-7.94731],[111.57406,-7.94805],[111.5741,-7.94881],[111.57401,-7.95092]]]}},{"type":"Feature","properties":{"NAMOBJ":"Sawoo","KDBBPS":"3502","KDCBPS":"3502050007","KDCPUM":"35.02.05","KDEBPS":"350205","KDEPUM":"35.02.05.2007","KDPBPS":"35","KDPKAB":"35.02","KDPPUM":"35","TIPADM":1,"WADMKC":"Sawoo","WADMKD":"Sawoo","WADMKK":"Ponorogo","WADMPR":"Jawa Timur","UUPP":"Kesepakatan Teknis Batas Wilayah Administrasi Desa/Kelurahan Tahun 2021","luas":15.832},"geometry":{"type":"Polygon","coordinates":[[[111.59988,-7.9884],[111.60009,-7.98865],[111.60015,-7.98879],[111.60021,-7.989],[111.6002,-7.98927],[111.59934,-7.98928],[111.59857,-7.98934],[111.5989,-7.99019],[111.59922,-7.99051],[111.59896,-7.99079],[111.59922,-7.99093],[111.59928,-7.99086],[111.5996,-7.99113],[111.5995,-7.99133],[111.59951,-7.9914],[111.59969,-7.99155],[111.59973,-7.99165],[111.59992,-7.99189],[111.59995,-7.99223],[111.6001,-7.99244],[111.60038,-7.9926],[111.60067,-7.99282],[111.60042,-7.99313],[111.60043,-7.99345],[111.60054,-7.99385],[111.60084,-7.99419],[111.60092,-7.99432],[111.60092,-7.99441],[111.60114,-7.99448],[111.60143,-7.99476],[111.60161,-7.99526],[111.6016,-7.99615],[111.60151,-7.99628],[111.60146,-7.9969],[111.60131,-7.99752],[111.60107,-7.99788],[111.60085,-7.99838],[111.60076,-7.99886],[111.60091,-7.9991],[111.60071,-7.9997],[111.59913,-7.99911],[111.59875,-7.9989],[111.59858,-7.9986],[111.59832,-7.99761],[111.59804,-7.99717],[111.59747,-7.99691],[111.59729,-7.99658],[111.59703,-7.99653],[111.59696,-7.99647],[111.59688,-7.99635],[111.59678,-7.99584],[111.59668,-7.9956],[111.59582,-7.99533],[111.59569,-7.99512],[111.59543,-7.99486],[111.59511,-7.99479],[111.59501,-7.99481],[111.59472,-7.99492],[111.59436,-7.99499],[111.59406,-7.99513],[111.59387,-7.99515],[111.59308,-7.99503],[111.59289,-7.99516],[111.59246,-7.99569],[111.59227,-7.99613],[111.59182,-7.99608],[111.59166,-7.99611],[111.59149,-7.99602],[111.59115,-7.99597],[111.5907,-7.99607],[111.59065,-7.99603],[111.59035,-7.99563],[111.59026,-7.99557],[111.58987,-7.99547],[111.58973,-7.99528],[111.58965,-7.99524],[111.58938,-7.99525],[111.58907,-7.99518],[111.58878,-7.99518],[111.58864,-7.99527],[111.58849,-7.99551],[111.58812,-7.99536],[111.58771,-7.995],[111.58761,-7.99478],[111.5876,-7.99463],[111.58752,-7.99452],[111.58748,-7.99451],[111.58741,-7.99453],[111.58728,-7.99463],[111.58701,-7.99475],[111.58689,-7.99455],[111.58694,-7.99413],[111.58707,-7.99397],[111.58728,-7.99383],[111.58723,-7.99374],[111.58651,-7.99347],[111.58622,-7.9934],[111.58605,-7.9934],[111.58589,-7.99348],[111.58574,-7.99337],[111.58563,-7.99311],[111.58539,-7.99292],[111.58469,-7.99274],[111.58442,-7.99283],[111.58412,-7.99282],[111.58404,-7.99279],[111.58383,-7.99294],[111.58372,-7.99308],[111.58348,-7.99323],[111.58317,-7.99319],[111.58296,-7.99353],[111.5827,-7.99369],[111.58249,-7.99355],[111.58205,-7.99351],[111.582,-7.99343],[111.58178,-7.99341],[111.58146,-7.99333],[111.58109,-7.99331],[111.58083,-7.99337],[111.58018,-7.99363],[111.57911,-7.99424],[111.57892,-7.99426],[111.57874,-7.99435],[111.57845,-7.9943],[111.57832,-7.99438],[111.57827,-7.99457],[111.57812,-7.99465],[111.57785,-7.99453],[111.5778,-7.99442],[111.5778,-7.99421],[111.57766,-7.99411],[111.57693,-7.99401],[111.57667,-7.99405],[111.57637,-7.99423],[111.57539,-7.99439],[111.57514,-7.99439],[111.57484,-7.99429],[111.57468,-7.99429],[111.57453,-7.99433],[111.5743,-7.99452],[111.57403,-7.99461],[111.57365,-7.99479],[111.57259,-7.99509],[111.57221,-7.99528],[111.57181,-7.99555],[111.57153,-7.99586],[111.57101,-7.99607],[111.56926,-7.99694],[111.56823,-7.99644],[111.5677,-7.99582],[111.56673,-7.99425],[111.56638,-7.99377],[111.56611,-7.99372],[111.56582,-7.99358],[111.56547,-7.99332],[111.56531,-7.99307],[111.56533,-7.99292],[111.56549,-7.99263],[111.56557,-7.99238],[111.56575,-7.99143],[111.56594,-7.99114],[111.56606,-7.99075],[111.56613,-7.99033],[111.56627,-7.99006],[111.5664,-7.98963],[111.56653,-7.98942],[111.56668,-7.9887],[111.56679,-7.98847],[111.56679,-7.98811],[111.56672,-7.98783],[111.56651,-7.98744],[111.56621,-7.98729],[111.56603,-7.98711],[111.56599,-7.98683],[111.56583,-7.98669],[111.56557,-7.98662],[111.56496,-7.98658],[111.56465,-7.98647],[111.56371,-7.98565],[111.56378,-7.98558],[111.56377,-7.98539],[111.56386,-7.98518],[111.56381,-7.98486],[111.56385,-7.98471],[111.56383,-7.98458],[111.56394,-7.98416],[111.56405,-7.98394],[111.56404,-7.98376],[111.56349,-7.98342],[111.56337,-7.98301],[111.56317,-7.98265],[111.56299,-7.98245],[111.56313,-7.98217],[111.56289,-7.98192],[111.56276,-7.98137],[111.56279,-7.98091],[111.5627,-7.98025],[111.56296,-7.98019],[111.56309,-7.9801],[111.56313,-7.9799],[111.56294,-7.97947],[111.56323,-7.97928],[111.56335,-7.97915],[111.56332,-7.97911],[111.56329,-7.97876],[111.56344,-7.97826],[111.56351,-7.97809],[111.56361,-7.97797],[111.564,-7.97776],[111.56414,-7.9774],[111.56427,-7.97716],[111.56429,-7.9766],[111.56441,-7.97637],[111.56438,-7.97562],[111.5641,-7.97519],[111.56387,-7.97498],[111.56395,-7.97395],[111.56409,-7.97373],[111.56391,-7.97366],[111.56376,-7.97368],[111.56362,-7.97359],[111.5638,-7.97325],[111.56408,-7.97315],[111.56458,-7.97235],[111.56511,-7.97194],[111.56525,-7.97169],[111.56537,-7.97129],[111.57011,-7.9731],[111.57073,-7.97141],[111.57092,-7.97103],[111.57106,-7.97082],[111.57179,-7.97028],[111.57253,-7.96961],[111.57261,-7.9691],[111.57269,-7.96888],[111.57238,-7.96887],[111.57219,-7.96873],[111.57197,-7.96863],[111.57166,-7.96859],[111.57153,-7.9685],[111.5713,-7.96814],[111.57122,-7.96794],[111.5712,-7.96774],[111.57104,-7.96741],[111.5708,-7.9672],[111.57069,-7.96714],[111.57045,-7.96707],[111.56996,-7.96669],[111.56978,-7.96659],[111.56967,-7.96646],[111.56934,-7.96641],[111.56898,-7.96641],[111.56897,-7.96584],[111.56935,-7.96567],[111.56931,-7.96557],[111.56918,-7.96556],[111.56911,-7.96534],[111.56902,-7.9652],[111.56902,-7.96499],[111.56917,-7.96423],[111.56929,-7.96394],[111.56942,-7.96373],[111.56958,-7.96362],[111.56964,-7.96352],[111.56995,-7.96352],[111.56998,-7.96335],[111.57023,-7.96293],[111.5705,-7.96299],[111.57054,-7.96298],[111.5706,-7.96261],[111.57058,-7.96254],[111.57088,-7.96229],[111.57149,-7.96199],[111.57148,-7.9621],[111.5716,-7.96221],[111.57184,-7.96225],[111.57208,-7.96222],[111.57224,-7.96205],[111.57234,-7.96213],[111.57244,-7.96251],[111.57246,-7.96253],[111.57252,-7.9625],[111.57268,-7.96221],[111.57284,-7.96178],[111.573,-7.96167],[111.57316,-7.96145],[111.5732,-7.96118],[111.57332,-7.96078],[111.57347,-7.96062],[111.57368,-7.96032],[111.57385,-7.96017],[111.57404,-7.96036],[111.57411,-7.96034],[111.57427,-7.95976],[111.57376,-7.95878],[111.57363,-7.9584],[111.57363,-7.95819],[111.5739,-7.95705],[111.57397,-7.95598],[111.57401,-7.95349],[111.57399,-7.95252],[111.57401,-7.95092],[111.58123,-7.95015],[111.5818,-7.94984],[111.58233,-7.94909],[111.58302,-7.94795],[111.58334,-7.94725],[111.58367,-7.94676],[111.58407,-7.94658],[111.5854,-7.94637],[111.58612,-7.94616],[111.58636,-7.94603],[111.587,-7.94547],[111.58733,-7.945],[111.58832,-7.94422],[111.5884,-7.94402],[111.58911,-7.94466],[111.58935,-7.94483],[111.58958,-7.94493],[111.58992,-7.94543],[111.59023,-7.94574],[111.59119,-7.94633],[111.59144,-7.94658],[111.59212,-7.94806],[111.5921,-7.94841],[111.59212,-7.94852],[111.59227,-7.94858],[111.59235,-7.94893],[111.59226,-7.94913],[111.5923,-7.94933],[111.5924,-7.94946],[111.59267,-7.95025],[111.59259,-7.95063],[111.59263,-7.95092],[111.59255,-7.95122],[111.59257,-7.95146],[111.59284,-7.95199],[111.59285,-7.95218],[111.59303,-7.95239],[111.59342,-7.95306],[111.59359,-7.95311],[111.59392,-7.953],[111.59422,-7.95283],[111.59426,-7.95271],[111.59432,-7.95264],[111.59446,-7.95262],[111.59459,-7.95266],[111.59483,-7.953],[111.59487,-7.95318],[111.59482,-7.95361],[111.59483,-7.95415],[111.59471,-7.95443],[111.59472,-7.95491],[111.59487,-7.9553],[111.5951,-7.95566],[111.59519,-7.95588],[111.59518,-7.95595],[111.59512,-7.95604],[111.59496,-7.95618],[111.59484,-7.95619],[111.59455,-7.95637],[111.59446,-7.95653],[111.59421,-7.95672],[111.59377,-7.95693],[111.59365,-7.95704],[111.59358,-7.95744],[111.59353,-7.95802],[111.59357,-7.9582],[111.59337,-7.95844],[111.59323,-7.95849],[111.59309,-7.95848],[111.59292,-7.95841],[111.59283,-7.95831],[111.59277,-7.95833],[111.59276,-7.95846],[111.59246,-7.95911],[111.5921,-7.95962],[111.59214,-7.96035],[111.59211,-7.9605],[111.59216,-7.96062],[111.59229,-7.96077],[111.59206,-7.9611],[111.59205,-7.9612],[111.5921,-7.96136],[111.59219,-7.96146],[111.59229,-7.96153],[111.59261,-7.96165],[111.59336,-7.96183],[111.59384,-7.96208],[111.59404,-7.96226],[111.59423,-7.96257],[111.59427,-7.96274],[111.59431,-7.96291],[111.59419,-7.96397],[111.59393,-7.96445],[111.59389,-7.96474],[111.59378,-7.96494],[111.59468,-7.96636],[111.59415,-7.96774],[111.59472,-7.96836],[111.59531,-7.96876],[111.59568,-7.96907],[111.59615,-7.96932],[111.59689,-7.96931],[111.59732,-7.96936],[111.59762,-7.96944],[111.5979,-7.96961],[111.59808,-7.96983],[111.59824,-7.97041],[111.59851,-7.97079],[111.59866,-7.97123],[111.59951,-7.97216],[111.60014,-7.97257],[111.60023,-7.97307],[111.60012,-7.97416],[111.60019,-7.97455],[111.60009,-7.97523],[111.59934,-7.97579],[111.59894,-7.97623],[111.59878,-7.97672],[111.59759,-7.97802],[111.59695,-7.97846],[111.59694,-7.97863],[111.59704,-7.97885],[111.59709,-7.97916],[111.59714,-7.97998],[111.5971,-7.98005],[111.59686,-7.98016],[111.59684,-7.98022],[111.5969,-7.98038],[111.59709,-7.9807],[111.59708,-7.98086],[111.59698,-7.98109],[111.59695,-7.98137],[111.5961,-7.9822],[111.59577,-7.98246],[111.59557,-7.98266],[111.59553,-7.98281],[111.59556,-7.98308],[111.59554,-7.98329],[111.59548,-7.98353],[111.59532,-7.9838],[111.59529,-7.98397],[111.59543,-7.98423],[111.59575,-7.98463],[111.59562,-7.9848],[111.5956,-7.98504],[111.59553,-7.98506],[111.59532,-7.98498],[111.5952,-7.98507],[111.59502,-7.98528],[111.59531,-7.98578],[111.59584,-7.98619],[111.59645,-7.98655],[111.5967,-7.98645],[111.59681,-7.98647],[111.59701,-7.98668],[111.59703,-7.98676],[111.59698,-7.98691],[111.59703,-7.98705],[111.59702,-7.98715],[111.59695,-7.98723],[111.59707,-7.9876],[111.59707,-7.98774],[111.59699,-7.98805],[111.59732,-7.98833],[111.59741,-7.98835],[111.59749,-7.98831],[111.59782,-7.98835],[111.59817,-7.9882],[111.59829,-7.98823],[111.59853,-7.98853],[111.59878,-7.98852],[111.599,-7.98839],[111.59908,-7.98839],[111.59934,-7.98847],[111.59949,-7.98858],[111.59977,-7.98867],[111.5998,-7.98866],[111.59988,-7.9884]]]}},{"type":"Feature","properties":{"NAMOBJ":"Ketro","KDBBPS":"3502","KDCBPS":"3502050011","KDCPUM":"35.02.05","KDEBPS":"350205","KDEPUM":"35.02.05.2011","KDPBPS":"35","KDPKAB":"35.02","KDPPUM":"35","TIPADM":1,"WADMKC":"Sawoo","WADMKD":"Ketro","WADMKK":"Ponorogo","WADMPR":"Jawa Timur","UUPP":"Kesepakatan Teknis Batas Wilayah Administrasi Desa/Kelurahan Tahun 2021","luas":1.213},"geometry":{"type":"Polygon","coordinates":[[[111.53379,-7.94327],[111.53474,-7.94317],[111.53483,-7.94319],[111.53506,-7.94383],[111.53528,-7.94468],[111.53564,-7.94518],[111.53594,-7.9459],[111.53591,-7.94602],[111.53582,-7.94614],[111.53586,-7.94629],[111.53608,-7.94634],[111.53631,-7.94632],[111.5375,-7.9466],[111.53771,-7.94798],[111.53782,-7.94812],[111.5378,-7.94851],[111.53847,-7.94893],[111.53852,-7.94892],[111.53866,-7.94916],[111.53951,-7.94908],[111.5398,-7.94912],[111.53979,-7.94923],[111.54035,-7.94941],[111.54034,-7.94973],[111.54037,-7.95],[111.54082,-7.95004],[111.54081,-7.95017],[111.54094,-7.95035],[111.54091,-7.9506],[111.54146,-7.95089],[111.54138,-7.95163],[111.54124,-7.95204],[111.54122,-7.95249],[111.54139,-7.95306],[111.54078,-7.95368],[111.54027,-7.95393],[111.53986,-7.95458],[111.53972,-7.95465],[111.53941,-7.95465],[111.53913,-7.95472],[111.53889,-7.9548],[111.5388,-7.95491],[111.53816,-7.95476],[111.53758,-7.95472],[111.53759,-7.95514],[111.53685,-7.95514],[111.53692,-7.9557],[111.5368,-7.95577],[111.53642,-7.95579],[111.53642,-7.95586],[111.5362,-7.95595],[111.53567,-7.95633],[111.53496,-7.95636],[111.53386,-7.95625],[111.53327,-7.95625],[111.53302,-7.95703],[111.53297,-7.95707],[111.53248,-7.95711],[111.53214,-7.95708],[111.53185,-7.9571],[111.53171,-7.95639],[111.53161,-7.95402],[111.53147,-7.95333],[111.53147,-7.95269],[111.53126,-7.95226],[111.53126,-7.95195],[111.53132,-7.95187],[111.53156,-7.95174],[111.53144,-7.9511],[111.5318,-7.95102],[111.5321,-7.95078],[111.53222,-7.95073],[111.53198,-7.95013],[111.53178,-7.94975],[111.53105,-7.9502],[111.53078,-7.94975],[111.53042,-7.94932],[111.53099,-7.94912],[111.53101,-7.94909],[111.53012,-7.94628],[111.52929,-7.94394],[111.52946,-7.94382],[111.52977,-7.94367],[111.53009,-7.94357],[111.53032,-7.9434],[111.53074,-7.94321],[111.5308,-7.94317],[111.53077,-7.94303],[111.53139,-7.94287],[111.53195,-7.9431],[111.53327,-7.94344],[111.53344,-7.94343],[111.53379,-7.94327]]]}},{"type":"Feature","properties":{"NAMOBJ":"Kori","KDBBPS":"3502","KDCBPS":"3502050012","KDCPUM":"35.02.05","KDEBPS":"350205","KDEPUM":"35.02.05.2012","KDPBPS":"35","KDPKAB":"35.02","KDPPUM":"35","TIPADM":1,"WADMKC":"Sawoo","WADMKD":"Kori","WADMKK":"Ponorogo","WADMPR":"Jawa Timur","UUPP":"Kesepakatan Teknis Batas Wilayah Administrasi Desa/Kelurahan Tahun 2021","luas":3.713},"geometry":{"type":"Polygon","coordinates":[[[111.5571,-7.95889],[111.55708,-7.95909],[111.55625,-7.95939],[111.5543,-7.95947],[111.55306,-7.95965],[111.55258,-7.95994],[111.55214,-7.96025],[111.55164,-7.96042],[111.55078,-7.96059],[111.55032,-7.9606],[111.54923,-7.96051],[111.54887,-7.96056],[111.54785,-7.96049],[111.54772,-7.96043],[111.54715,-7.96041],[111.54627,-7.96027],[111.54451,-7.96011],[111.54429,-7.96044],[111.54413,-7.96055],[111.54377,-7.96069],[111.54246,-7.96066],[111.54246,-7.9606],[111.54192,-7.96059],[111.54185,-7.96054],[111.54165,-7.96053],[111.5412,-7.96044],[111.5409,-7.96045],[111.54087,-7.95988],[111.54083,-7.95986],[111.54007,-7.95998],[111.53999,-7.95983],[111.53999,-7.95971],[111.53958,-7.95985],[111.53952,-7.95978],[111.53935,-7.95974],[111.53916,-7.95959],[111.53899,-7.95959],[111.53893,-7.95956],[111.53881,-7.95937],[111.53868,-7.9589],[111.53868,-7.95887],[111.53887,-7.95876],[111.53871,-7.95839],[111.5385,-7.95803],[111.53811,-7.95746],[111.53818,-7.95742],[111.53827,-7.9573],[111.53847,-7.95688],[111.53852,-7.95671],[111.53858,-7.95623],[111.53866,-7.95602],[111.53872,-7.95594],[111.53893,-7.95583],[111.53896,-7.95577],[111.53895,-7.95564],[111.53888,-7.95553],[111.53888,-7.95523],[111.5388,-7.95502],[111.5388,-7.95491],[111.53889,-7.9548],[111.53913,-7.95472],[111.53941,-7.95465],[111.53972,-7.95465],[111.53986,-7.95458],[111.54027,-7.95393],[111.54078,-7.95368],[111.54139,-7.95306],[111.54122,-7.95249],[111.54124,-7.95204],[111.54138,-7.95163],[111.54146,-7.95089],[111.54091,-7.9506],[111.54094,-7.95035],[111.54081,-7.95017],[111.54082,-7.95004],[111.54037,-7.95],[111.54034,-7.94973],[111.54035,-7.94941],[111.53979,-7.94923],[111.5398,-7.94912],[111.53951,-7.94908],[111.53866,-7.94916],[111.53852,-7.94892],[111.53847,-7.94893],[111.5378,-7.94851],[111.53782,-7.94812],[111.53771,-7.94798],[111.5375,-7.9466],[111.53631,-7.94632],[111.53608,-7.94634],[111.53586,-7.94629],[111.53582,-7.94614],[111.53706,-7.946],[111.5371,-7.94594],[111.5377,-7.94574],[111.53834,-7.94565],[111.5386,-7.94565],[111.53881,-7.94559],[111.53939,-7.94562],[111.54016,-7.94551],[111.54033,-7.94543],[111.54101,-7.94532],[111.54198,-7.94552],[111.54297,-7.94529],[111.54353,-7.94505],[111.54378,-7.94485],[111.54404,-7.9445],[111.54425,-7.94437],[111.54471,-7.94421],[111.54477,-7.9441],[111.54477,-7.94397],[111.54487,-7.944],[111.54507,-7.94394],[111.54502,-7.94382],[111.54576,-7.94354],[111.54636,-7.94324],[111.54703,-7.94328],[111.54703,-7.94262],[111.54772,-7.94249],[111.54772,-7.9418],[111.54779,-7.94179],[111.54798,-7.94156],[111.54833,-7.94139],[111.54868,-7.94115],[111.54894,-7.94111],[111.54929,-7.94029],[111.54975,-7.94016],[111.55031,-7.93982],[111.55052,-7.93965],[111.55073,-7.93957],[111.55084,-7.93932],[111.55116,-7.93912],[111.5518,-7.93897],[111.55197,-7.93879],[111.55209,-7.93872],[111.55318,-7.93854],[111.55355,-7.93841],[111.55355,-7.9382],[111.55337,-7.93801],[111.55373,-7.93791],[111.55455,-7.93778],[111.55495,-7.93754],[111.55542,-7.93745],[111.55576,-7.93981],[111.55596,-7.94074],[111.5562,-7.94166],[111.55639,-7.94221],[111.55664,-7.94348],[111.55691,-7.94398],[111.55739,-7.94464],[111.55803,-7.94521],[111.5586,-7.94499],[111.55866,-7.94538],[111.55878,-7.94536],[111.55943,-7.94653],[111.56016,-7.94716],[111.55987,-7.94758],[111.55968,-7.94778],[111.55882,-7.94815],[111.55828,-7.94832],[111.55785,-7.9482],[111.55755,-7.94852],[111.55736,-7.9489],[111.55735,-7.94919],[111.55705,-7.94938],[111.55695,-7.94942],[111.55681,-7.94964],[111.55633,-7.94978],[111.55627,-7.94987],[111.55614,-7.95016],[111.55582,-7.95034],[111.5558,-7.9502],[111.55574,-7.95013],[111.5553,-7.95017],[111.5546,-7.94999],[111.55422,-7.95006],[111.55403,-7.95002],[111.55391,-7.94997],[111.55321,-7.95006],[111.55275,-7.95002],[111.55272,-7.9503],[111.55284,-7.95059],[111.55348,-7.95033],[111.5536,-7.95032],[111.55385,-7.95041],[111.55417,-7.95041],[111.55457,-7.95078],[111.55499,-7.95126],[111.55561,-7.95137],[111.55585,-7.9516],[111.55591,-7.95228],[111.55582,-7.95229],[111.55598,-7.95352],[111.55592,-7.95388],[111.55601,-7.95428],[111.55625,-7.95463],[111.55639,-7.9549],[111.55636,-7.95549],[111.5564,-7.9559],[111.55682,-7.95698],[111.55693,-7.95741],[111.55704,-7.95769],[111.5571,-7.95889]],[[111.55266,-7.94766],[111.55246,-7.94774],[111.5519,-7.94775],[111.55184,-7.9477],[111.55152,-7.94767],[111.55105,-7.94768],[111.55102,-7.94794],[111.55099,-7.94798],[111.55089,-7.94801],[111.55049,-7.94783],[111.54957,-7.94837],[111.54931,-7.94844],[111.54918,-7.94853],[111.54906,-7.94851],[111.54838,-7.94876],[111.54801,-7.94895],[111.548,-7.94902],[111.54791,-7.94912],[111.54777,-7.94901],[111.54758,-7.94914],[111.54752,-7.94923],[111.54729,-7.94939],[111.54717,-7.94959],[111.54647,-7.94956],[111.54609,-7.94927],[111.54477,-7.94917],[111.54471,-7.95026],[111.54446,-7.95172],[111.54471,-7.95166],[111.54506,-7.95169],[111.54533,-7.95186],[111.5458,-7.95195],[111.54631,-7.95195],[111.54634,-7.95161],[111.54663,-7.9516],[111.54664,-7.95185],[111.54673,-7.95185],[111.54693,-7.95173],[111.54706,-7.95171],[111.54708,-7.95167],[111.54733,-7.95164],[111.54756,-7.95167],[111.5481,-7.95161],[111.54815,-7.9518],[111.54846,-7.9518],[111.54878,-7.95156],[111.5492,-7.95107],[111.54937,-7.95075],[111.54954,-7.95052],[111.54993,-7.9498],[111.5503,-7.94935],[111.55126,-7.94923],[111.55167,-7.94949],[111.55194,-7.94951],[111.55261,-7.94946],[111.55275,-7.94941],[111.55305,-7.94903],[111.55275,-7.94864],[111.55269,-7.94821],[111.5527,-7.94776],[111.55266,-7.94766]]]}},{"type":"Feature","properties":{"NAMOBJ":"Temon","KDBBPS":"3502","KDCBPS":"3502050006","KDCPUM":"35.02.05","KDEBPS":"350205","KDEPUM":"35.02.05.2006","KDPBPS":"35","KDPKAB":"35.02","KDPPUM":"35","TIPADM":1,"WADMKC":"Sawoo","WADMKD":"Temon","WADMKK":"Ponorogo","WADMPR":"Jawa Timur","UUPP":"Kesepakatan Teknis Batas Wilayah Administrasi Desa/Kelurahan Tahun 2021","luas":17.513},"geometry":{"type":"Polygon","coordinates":[[[111.62659,-7.95612],[111.62638,-7.95643],[111.62635,-7.95691],[111.62627,-7.95705],[111.62621,-7.95706],[111.62609,-7.95701],[111.62599,-7.95705],[111.62586,-7.95723],[111.62572,-7.9573],[111.6251,-7.95748],[111.62498,-7.95773],[111.62473,-7.958],[111.62447,-7.95935],[111.62448,-7.95956],[111.62444,-7.95976],[111.62429,-7.96006],[111.6242,-7.96013],[111.62417,-7.96032],[111.62407,-7.96048],[111.62376,-7.96074],[111.62328,-7.96106],[111.62306,-7.96106],[111.62263,-7.96098],[111.62246,-7.961],[111.62242,-7.96147],[111.62219,-7.96194],[111.62215,-7.96235],[111.6222,-7.96247],[111.62208,-7.96297],[111.62201,-7.96308],[111.62202,-7.9633],[111.62206,-7.9634],[111.62199,-7.96389],[111.62153,-7.96438],[111.62135,-7.96464],[111.62101,-7.96542],[111.62069,-7.96596],[111.62053,-7.96615],[111.62046,-7.96633],[111.62041,-7.96664],[111.6204,-7.96729],[111.62043,-7.96763],[111.62029,-7.9678],[111.62048,-7.96826],[111.62002,-7.96859],[111.61943,-7.96879],[111.61936,-7.96921],[111.61935,-7.96997],[111.61951,-7.9701],[111.61971,-7.97018],[111.61989,-7.97031],[111.62009,-7.97052],[111.62004,-7.97061],[111.61983,-7.97057],[111.61932,-7.97021],[111.61911,-7.97015],[111.6189,-7.97022],[111.61881,-7.97022],[111.61871,-7.97019],[111.61853,-7.97007],[111.61802,-7.97025],[111.61772,-7.97031],[111.61754,-7.97044],[111.61749,-7.97079],[111.61755,-7.97092],[111.618,-7.97076],[111.61808,-7.97076],[111.61827,-7.97089],[111.61835,-7.97086],[111.61839,-7.97075],[111.61868,-7.97052],[111.61892,-7.97046],[111.6191,-7.97049],[111.61932,-7.97059],[111.61956,-7.97059],[111.61957,-7.97083],[111.61982,-7.97106],[111.61975,-7.97115],[111.61976,-7.97129],[111.6193,-7.97136],[111.61922,-7.97152],[111.61881,-7.973],[111.61919,-7.97384],[111.61898,-7.97413],[111.6187,-7.97578],[111.61855,-7.97618],[111.61812,-7.97607],[111.61784,-7.97648],[111.61782,-7.97677],[111.61794,-7.97723],[111.61787,-7.97752],[111.61729,-7.97809],[111.61678,-7.97878],[111.6168,-7.97908],[111.61698,-7.97969],[111.61697,-7.97978],[111.61684,-7.98008],[111.61688,-7.98035],[111.61707,-7.98054],[111.6172,-7.98058],[111.61744,-7.98062],[111.61796,-7.9806],[111.61807,-7.98065],[111.61812,-7.98105],[111.61746,-7.98115],[111.61737,-7.98123],[111.61689,-7.98183],[111.61674,-7.98197],[111.61638,-7.98212],[111.61607,-7.98218],[111.61564,-7.98219],[111.61512,-7.98268],[111.61489,-7.98276],[111.61448,-7.98266],[111.61408,-7.98263],[111.61387,-7.98268],[111.61358,-7.9832],[111.61338,-7.98337],[111.61329,-7.98355],[111.61289,-7.98406],[111.61288,-7.98466],[111.61271,-7.98521],[111.61254,-7.98558],[111.61203,-7.98615],[111.61149,-7.98659],[111.61131,-7.98696],[111.61118,-7.9871],[111.61105,-7.98723],[111.61082,-7.98737],[111.61046,-7.98744],[111.60978,-7.98733],[111.60835,-7.98768],[111.60805,-7.9878],[111.60672,-7.98848],[111.60643,-7.98858],[111.60453,-7.98878],[111.60341,-7.98902],[111.60223,-7.9891],[111.60205,-7.98916],[111.60185,-7.9893],[111.60146,-7.98926],[111.60119,-7.98916],[111.60057,-7.98869],[111.60046,-7.98854],[111.6002,-7.98845],[111.59988,-7.9884],[111.5998,-7.98866],[111.59977,-7.98867],[111.59949,-7.98858],[111.59934,-7.98847],[111.59908,-7.98839],[111.599,-7.98839],[111.59878,-7.98852],[111.59853,-7.98853],[111.59829,-7.98823],[111.59817,-7.9882],[111.59782,-7.98835],[111.59749,-7.98831],[111.59741,-7.98835],[111.59732,-7.98833],[111.59699,-7.98805],[111.59707,-7.98774],[111.59707,-7.9876],[111.59695,-7.98723],[111.59702,-7.98715],[111.59703,-7.98705],[111.59698,-7.98691],[111.59703,-7.98676],[111.59701,-7.98668],[111.59681,-7.98647],[111.5967,-7.98645],[111.59645,-7.98655],[111.59584,-7.98619],[111.59531,-7.98578],[111.59502,-7.98528],[111.5952,-7.98507],[111.59532,-7.98498],[111.59553,-7.98506],[111.5956,-7.98504],[111.59562,-7.9848],[111.59575,-7.98463],[111.59543,-7.98423],[111.59529,-7.98397],[111.59532,-7.9838],[111.59548,-7.98353],[111.59554,-7.98329],[111.59556,-7.98308],[111.59553,-7.98281],[111.59557,-7.98266],[111.59577,-7.98246],[111.5961,-7.9822],[111.59695,-7.98137],[111.59698,-7.98109],[111.59708,-7.98086],[111.59709,-7.9807],[111.5969,-7.98038],[111.59684,-7.98022],[111.59686,-7.98016],[111.5971,-7.98005],[111.59714,-7.97998],[111.59709,-7.97916],[111.59704,-7.97885],[111.59694,-7.97863],[111.59695,-7.97846],[111.59759,-7.97802],[111.59878,-7.97672],[111.59894,-7.97623],[111.59934,-7.97579],[111.60009,-7.97523],[111.60019,-7.97455],[111.60012,-7.97416],[111.60023,-7.97307],[111.60014,-7.97257],[111.59951,-7.97216],[111.59866,-7.97123],[111.59851,-7.97079],[111.59824,-7.97041],[111.59808,-7.96983],[111.5979,-7.96961],[111.59762,-7.96944],[111.59732,-7.96936],[111.59689,-7.96931],[111.59615,-7.96932],[111.59568,-7.96907],[111.59531,-7.96876],[111.59472,-7.96836],[111.59415,-7.96774],[111.59468,-7.96636],[111.59378,-7.96494],[111.59389,-7.96474],[111.59393,-7.96445],[111.59419,-7.96397],[111.59431,-7.96291],[111.59427,-7.96274],[111.59423,-7.96257],[111.59404,-7.96226],[111.59384,-7.96208],[111.59336,-7.96183],[111.59261,-7.96165],[111.59229,-7.96153],[111.59219,-7.96146],[111.5921,-7.96136],[111.59205,-7.9612],[111.59206,-7.9611],[111.59229,-7.96077],[111.59216,-7.96062],[111.59211,-7.9605],[111.59214,-7.96035],[111.5921,-7.95962],[111.59246,-7.95911],[111.59276,-7.95846],[111.59277,-7.95833],[111.59283,-7.95831],[111.59292,-7.95841],[111.59309,-7.95848],[111.59323,-7.95849],[111.59337,-7.95844],[111.59357,-7.9582],[111.59353,-7.95802],[111.59358,-7.95744],[111.59365,-7.95704],[111.59377,-7.95693],[111.59421,-7.95672],[111.59446,-7.95653],[111.59455,-7.95637],[111.59484,-7.95619],[111.59496,-7.95618],[111.59512,-7.95604],[111.59518,-7.95595],[111.59519,-7.95588],[111.5951,-7.95566],[111.59487,-7.9553],[111.59472,-7.95491],[111.59471,-7.95443],[111.59483,-7.95415],[111.59482,-7.95361],[111.59487,-7.95318],[111.59483,-7.953],[111.59459,-7.95266],[111.59446,-7.95262],[111.59432,-7.95264],[111.59426,-7.95271],[111.59422,-7.95283],[111.59402,-7.95296],[111.59373,-7.95308],[111.59359,-7.95311],[111.59351,-7.9531],[111.59342,-7.95306],[111.59303,-7.95239],[111.59285,-7.95218],[111.59284,-7.95199],[111.59257,-7.95146],[111.59255,-7.95122],[111.59263,-7.95092],[111.59259,-7.95063],[111.59267,-7.95025],[111.5924,-7.94946],[111.5923,-7.94933],[111.59226,-7.94913],[111.59235,-7.94893],[111.59227,-7.94858],[111.59212,-7.94852],[111.5921,-7.94841],[111.59212,-7.94806],[111.59204,-7.94785],[111.59167,-7.94712],[111.59144,-7.94658],[111.59136,-7.94648],[111.59119,-7.94633],[111.59023,-7.94574],[111.58992,-7.94543],[111.58958,-7.94493],[111.58935,-7.94483],[111.58895,-7.94454],[111.58861,-7.94421],[111.58847,-7.94411],[111.58835,-7.94396],[111.5883,-7.9436],[111.58851,-7.94292],[111.58849,-7.9427],[111.58869,-7.94224],[111.58862,-7.94209],[111.58862,-7.94192],[111.58869,-7.94167],[111.5887,-7.94123],[111.58858,-7.94103],[111.58848,-7.94101],[111.58835,-7.94091],[111.58801,-7.94036],[111.58785,-7.94021],[111.58749,-7.94],[111.5874,-7.93989],[111.5874,-7.9396],[111.58747,-7.93952],[111.58741,-7.9394],[111.58732,-7.93931],[111.58734,-7.93908],[111.58711,-7.93894],[111.58697,-7.9386],[111.58691,-7.93857],[111.58673,-7.93863],[111.58667,-7.9386],[111.58656,-7.93839],[111.58659,-7.93832],[111.58676,-7.93802],[111.58693,-7.93779],[111.58748,-7.93721],[111.58756,-7.93717],[111.58772,-7.93726],[111.5882,-7.93776],[111.58848,-7.93783],[111.5886,-7.93793],[111.58892,-7.93789],[111.58936,-7.93761],[111.58971,-7.93726],[111.58985,-7.93702],[111.58992,-7.9368],[111.58985,-7.93666],[111.58985,-7.93651],[111.5899,-7.93644],[111.58996,-7.93642],[111.59017,-7.9364],[111.59076,-7.93645],[111.59192,-7.93683],[111.59214,-7.93686],[111.59257,-7.93689],[111.59308,-7.93685],[111.59323,-7.93674],[111.59332,-7.93654],[111.59335,-7.93618],[111.5933,-7.93571],[111.59331,-7.93535],[111.59339,-7.93504],[111.59367,-7.93438],[111.594,-7.93409],[111.59483,-7.93395],[111.59496,-7.93389],[111.59512,-7.93356],[111.59508,-7.93339],[111.59512,-7.93331],[111.5952,-7.93328],[111.59553,-7.93318],[111.5961,-7.9332],[111.59631,-7.93318],[111.59703,-7.93294],[111.59747,-7.93291],[111.59822,-7.93293],[111.59961,-7.93303],[111.59988,-7.93307],[111.60008,-7.93313],[111.60024,-7.93336],[111.60026,-7.93352],[111.60019,-7.93362],[111.60007,-7.93416],[111.60009,-7.93424],[111.60021,-7.93431],[111.60027,-7.93449],[111.60032,-7.93452],[111.60052,-7.93442],[111.60071,-7.93442],[111.60112,-7.93434],[111.60134,-7.93422],[111.60157,-7.93404],[111.6017,-7.93399],[111.60208,-7.93409],[111.60226,-7.9341],[111.60235,-7.93408],[111.60239,-7.934],[111.6025,-7.93397],[111.60255,-7.9339],[111.60262,-7.93388],[111.60279,-7.93371],[111.60313,-7.93369],[111.60337,-7.93374],[111.60384,-7.93399],[111.60414,-7.93436],[111.6044,-7.93458],[111.60443,-7.93472],[111.60441,-7.93491],[111.60445,-7.93505],[111.60458,-7.93517],[111.60469,-7.93567],[111.60476,-7.93571],[111.60494,-7.93577],[111.60583,-7.93593],[111.6059,-7.93599],[111.60618,-7.93582],[111.6063,-7.93561],[111.60636,-7.93538],[111.60637,-7.93515],[111.60627,-7.93473],[111.60633,-7.93465],[111.6065,-7.93463],[111.60733,-7.93527],[111.60795,-7.93594],[111.60822,-7.93609],[111.60836,-7.93608],[111.60853,-7.93614],[111.6092,-7.93583],[111.60938,-7.93577],[111.60954,-7.93567],[111.61007,-7.93573],[111.61036,-7.93567],[111.61069,-7.93571],[111.61107,-7.93594],[111.61115,-7.93644],[111.61125,-7.93681],[111.61118,-7.93712],[111.61119,-7.93722],[111.61132,-7.93728],[111.61153,-7.93719],[111.6117,-7.93705],[111.612,-7.93649],[111.61199,-7.93636],[111.61207,-7.93603],[111.61236,-7.93538],[111.61255,-7.93515],[111.61267,-7.9351],[111.61289,-7.93531],[111.61355,-7.93614],[111.61377,-7.93631],[111.61402,-7.93657],[111.61435,-7.93681],[111.61521,-7.93719],[111.61564,-7.93727],[111.61573,-7.93726],[111.61622,-7.93684],[111.61658,-7.93671],[111.61734,-7.93659],[111.61753,-7.93659],[111.61782,-7.93685],[111.61797,-7.93704],[111.61827,-7.93729],[111.61841,-7.93737],[111.61905,-7.93739],[111.6193,-7.93746],[111.61979,-7.9379],[111.6199,-7.93806],[111.62006,-7.93815],[111.6205,-7.93803],[111.62068,-7.93803],[111.62077,-7.93812],[111.62086,-7.93838],[111.62102,-7.93854],[111.62126,-7.93858],[111.62155,-7.93857],[111.62201,-7.93842],[111.62215,-7.93843],[111.62263,-7.93867],[111.62266,-7.93878],[111.62259,-7.93898],[111.62258,-7.9393],[111.62266,-7.9395],[111.62273,-7.93957],[111.62295,-7.93969],[111.62326,-7.93983],[111.62385,-7.93998],[111.62392,-7.94007],[111.62392,-7.94019],[111.62402,-7.94048],[111.62433,-7.94056],[111.62451,-7.94057],[111.62464,-7.94051],[111.62476,-7.94041],[111.62486,-7.94042],[111.62493,-7.94044],[111.62499,-7.94051],[111.62514,-7.94053],[111.62531,-7.94068],[111.62536,-7.94083],[111.62536,-7.94097],[111.62554,-7.94106],[111.62563,-7.94125],[111.62565,-7.94144],[111.62554,-7.94155],[111.62554,-7.94165],[111.62555,-7.94174],[111.62562,-7.94181],[111.62565,-7.9421],[111.62572,-7.94231],[111.62575,-7.94237],[111.62584,-7.94241],[111.62586,-7.94248],[111.62592,-7.9425],[111.62599,-7.94265],[111.62599,-7.94287],[111.62589,-7.94297],[111.62571,-7.94331],[111.62562,-7.94339],[111.62543,-7.94334],[111.62532,-7.94338],[111.62533,-7.94366],[111.6253,-7.94373],[111.62523,-7.94382],[111.62493,-7.94389],[111.62494,-7.94399],[111.62503,-7.94409],[111.62492,-7.94418],[111.62471,-7.94418],[111.62457,-7.9442],[111.6245,-7.94424],[111.62447,-7.94434],[111.62447,-7.9447],[111.62429,-7.94486],[111.62419,-7.94502],[111.62423,-7.94513],[111.62441,-7.94542],[111.62459,-7.94551],[111.62476,-7.94549],[111.62482,-7.94552],[111.62485,-7.94569],[111.62478,-7.94589],[111.62486,-7.94603],[111.625,-7.94617],[111.625,-7.94653],[111.62483,-7.94674],[111.62486,-7.94684],[111.62506,-7.947],[111.62512,-7.94719],[111.62487,-7.94775],[111.62485,-7.94789],[111.62496,-7.94824],[111.62493,-7.94831],[111.62498,-7.94842],[111.62511,-7.94841],[111.62519,-7.94852],[111.62525,-7.94853],[111.62532,-7.94861],[111.62529,-7.9487],[111.62517,-7.94893],[111.62518,-7.94908],[111.62527,-7.94914],[111.62574,-7.94926],[111.62586,-7.94954],[111.62612,-7.94965],[111.62615,-7.94971],[111.6261,-7.95016],[111.62594,-7.9502],[111.62574,-7.95002],[111.62563,-7.94998],[111.62554,-7.95],[111.62554,-7.95027],[111.62549,-7.95041],[111.62574,-7.95062],[111.62576,-7.9507],[111.62574,-7.95079],[111.62563,-7.95086],[111.62553,-7.95087],[111.6254,-7.95106],[111.62546,-7.95114],[111.62581,-7.95131],[111.62597,-7.95135],[111.62617,-7.95132],[111.62625,-7.95134],[111.62632,-7.9514],[111.62642,-7.95167],[111.62628,-7.9519],[111.62633,-7.95195],[111.62632,-7.95233],[111.62606,-7.95253],[111.62607,-7.95279],[111.62612,-7.95298],[111.62607,-7.95325],[111.62581,-7.9535],[111.62572,-7.95381],[111.62574,-7.95394],[111.62586,-7.95411],[111.6258,-7.95437],[111.62585,-7.95448],[111.62588,-7.95494],[111.62583,-7.955],[111.62589,-7.95521],[111.62605,-7.95521],[111.62614,-7.95525],[111.62618,-7.95528],[111.62619,-7.95535],[111.62636,-7.95544],[111.62642,-7.95556],[111.62643,-7.95581],[111.62656,-7.956],[111.62659,-7.95612]]]}},{"type":"Feature","properties":{"NAMOBJ":"Ngindeng","KDBBPS":"3502","KDCBPS":"3502050014","KDCPUM":"35.02.05","KDEBPS":"350205","KDEPUM":"35.02.05.2014","KDPBPS":"35","KDPKAB":"35.02","KDPPUM":"35","TIPADM":1,"WADMKC":"Sawoo","WADMKD":"Ngindeng","WADMKK":"Ponorogo","WADMPR":"Jawa Timur","UUPP":"Kesepakatan Teknis Batas Wilayah Administrasi Desa/Kelurahan Tahun 2021","luas":7.828},"geometry":{"type":"MultiPolygon","coordinates":[[[[111.55266,-7.94766],[111.5527,-7.94776],[111.55269,-7.94821],[111.55275,-7.94864],[111.55305,-7.94903],[111.55275,-7.94941],[111.55261,-7.94946],[111.55194,-7.94951],[111.55167,-7.94949],[111.55126,-7.94923],[111.5503,-7.94935],[111.54993,-7.9498],[111.54954,-7.95052],[111.54937,-7.95075],[111.5492,-7.95107],[111.54878,-7.95156],[111.54846,-7.9518],[111.54815,-7.9518],[111.5481,-7.95161],[111.54756,-7.95167],[111.54733,-7.95164],[111.54708,-7.95167],[111.54706,-7.95171],[111.54693,-7.95173],[111.54673,-7.95185],[111.54664,-7.95185],[111.54663,-7.9516],[111.54634,-7.95161],[111.54631,-7.95195],[111.5458,-7.95195],[111.54533,-7.95186],[111.54506,-7.95169],[111.54471,-7.95166],[111.54446,-7.95172],[111.54471,-7.95026],[111.54477,-7.94917],[111.54609,-7.94927],[111.54647,-7.94956],[111.54717,-7.94959],[111.54729,-7.94939],[111.54752,-7.94923],[111.54758,-7.94914],[111.54777,-7.94901],[111.54791,-7.94912],[111.548,-7.94902],[111.54801,-7.94895],[111.54838,-7.94876],[111.54906,-7.94851],[111.54918,-7.94853],[111.54931,-7.94844],[111.54957,-7.94837],[111.55049,-7.94783],[111.55089,-7.94801],[111.55099,-7.94798],[111.55102,-7.94794],[111.55105,-7.94768],[111.55152,-7.94767],[111.55184,-7.9477],[111.5519,-7.94775],[111.55246,-7.94774],[111.55266,-7.94766]]],[[[111.58244,-7.93003],[111.58296,-7.93006],[111.58459,-7.93005],[111.58544,-7.93023],[111.58635,-7.93073],[111.58699,-7.9313],[111.58803,-7.93159],[111.59005,-7.93154],[111.59112,-7.9314],[111.59245,-7.93163],[111.59246,-7.93689],[111.59192,-7.93683],[111.59076,-7.93645],[111.59017,-7.9364],[111.58996,-7.93642],[111.5899,-7.93644],[111.58985,-7.93651],[111.58985,-7.93666],[111.58992,-7.9368],[111.58985,-7.93702],[111.58971,-7.93726],[111.58936,-7.93761],[111.58892,-7.93789],[111.5886,-7.93793],[111.58848,-7.93783],[111.5882,-7.93776],[111.58772,-7.93726],[111.58756,-7.93717],[111.58748,-7.93721],[111.58693,-7.93779],[111.58676,-7.93802],[111.58656,-7.93839],[111.58667,-7.9386],[111.58673,-7.93863],[111.58691,-7.93857],[111.58697,-7.9386],[111.58711,-7.93894],[111.58734,-7.93908],[111.58732,-7.93931],[111.58741,-7.9394],[111.58747,-7.93952],[111.5874,-7.9396],[111.5874,-7.93989],[111.58749,-7.94],[111.58785,-7.94021],[111.58801,-7.94036],[111.58835,-7.94091],[111.58848,-7.94101],[111.58858,-7.94103],[111.5887,-7.94123],[111.58869,-7.94167],[111.58862,-7.94192],[111.58862,-7.94209],[111.58869,-7.94224],[111.58849,-7.9427],[111.58851,-7.94292],[111.5883,-7.9436],[111.58835,-7.94396],[111.5884,-7.94402],[111.58832,-7.94422],[111.58733,-7.945],[111.587,-7.94547],[111.58636,-7.94603],[111.58612,-7.94616],[111.5854,-7.94637],[111.58407,-7.94658],[111.58367,-7.94676],[111.58334,-7.94725],[111.58302,-7.94795],[111.58233,-7.94909],[111.5818,-7.94984],[111.58123,-7.95015],[111.57401,-7.95092],[111.5741,-7.94881],[111.57406,-7.94805],[111.57381,-7.94731],[111.57297,-7.94564],[111.5717,-7.94731],[111.56894,-7.94972],[111.56784,-7.95111],[111.56735,-7.95182],[111.56689,-7.953],[111.5666,-7.95324],[111.56547,-7.95344],[111.56526,-7.95359],[111.56473,-7.95429],[111.56385,-7.95519],[111.56342,-7.95574],[111.56303,-7.95611],[111.56259,-7.95631],[111.56245,-7.95647],[111.56193,-7.95667],[111.56181,-7.95668],[111.56158,-7.95693],[111.56069,-7.95769],[111.55887,-7.95832],[111.55878,-7.95832],[111.5571,-7.95889],[111.55704,-7.95769],[111.55693,-7.95741],[111.55682,-7.95698],[111.5564,-7.9559],[111.55636,-7.95549],[111.55639,-7.9549],[111.55625,-7.95463],[111.55601,-7.95428],[111.55592,-7.95388],[111.55598,-7.95352],[111.55582,-7.95229],[111.55591,-7.95228],[111.55585,-7.9516],[111.55561,-7.95137],[111.55499,-7.95126],[111.55457,-7.95078],[111.55417,-7.95041],[111.55385,-7.95041],[111.5536,-7.95032],[111.55348,-7.95033],[111.55284,-7.95059],[111.55272,-7.9503],[111.55275,-7.95002],[111.55321,-7.95006],[111.55391,-7.94997],[111.55403,-7.95002],[111.55422,-7.95006],[111.5546,-7.94999],[111.5553,-7.95017],[111.55574,-7.95013],[111.5558,-7.9502],[111.55582,-7.95034],[111.55614,-7.95016],[111.55627,-7.94987],[111.55633,-7.94978],[111.55681,-7.94964],[111.55695,-7.94942],[111.55705,-7.94938],[111.55735,-7.94919],[111.55736,-7.9489],[111.55755,-7.94852],[111.55785,-7.9482],[111.55828,-7.94832],[111.55882,-7.94815],[111.55968,-7.94778],[111.55987,-7.94758],[111.56016,-7.94716],[111.55943,-7.94653],[111.55878,-7.94536],[111.55866,-7.94538],[111.5586,-7.94499],[111.55803,-7.94521],[111.55739,-7.94464],[111.55691,-7.94398],[111.55664,-7.94348],[111.55639,-7.94221],[111.5562,-7.94166],[111.55596,-7.94074],[111.55576,-7.93981],[111.55544,-7.93752],[111.5553,-7.93701],[111.55517,-7.93709],[111.55505,-7.93647],[111.55502,-7.93579],[111.55552,-7.93572],[111.55751,-7.93557],[111.55855,-7.93552],[111.55892,-7.93545],[111.55917,-7.93535],[111.55996,-7.9349],[111.56044,-7.93469],[111.5607,-7.9346],[111.56205,-7.93431],[111.56256,-7.9341],[111.56295,-7.93383],[111.5635,-7.93379],[111.56422,-7.93362],[111.56569,-7.933],[111.56638,-7.93298],[111.5666,-7.93293],[111.56717,-7.9327],[111.56731,-7.93268],[111.56824,-7.9327],[111.56998,-7.93196],[111.57178,-7.93123],[111.57195,-7.93121],[111.57224,-7.93123],[111.57333,-7.93145],[111.57477,-7.93194],[111.57509,-7.93196],[111.5754,-7.93194],[111.5764,-7.93181],[111.57695,-7.93168],[111.57722,-7.93152],[111.57772,-7.93107],[111.57872,-7.93029],[111.57908,-7.93013],[111.5795,-7.93005],[111.58064,-7.93001],[111.58188,-7.9299],[111.58244,-7.93003]]]]}},{"type":"Feature","properties":{"NAMOBJ":"Bondrang","KDBBPS":"3502","KDCBPS":"3502050013","KDCPUM":"35.02.05","KDEBPS":"350205","KDEPUM":"35.02.05.2013","KDPBPS":"35","KDPKAB":"35.02","KDPPUM":"35","TIPADM":1,"WADMKC":"Sawoo","WADMKD":"Bondrang","WADMKK":"Ponorogo","WADMPR":"Jawa Timur","UUPP":"Kesepakatan Teknis Batas Wilayah Administrasi Desa/Kelurahan Tahun 2021","luas":5.168},"geometry":{"type":"Polygon","coordinates":[[[111.58067,-7.93001],[111.5795,-7.93005],[111.57908,-7.93013],[111.57872,-7.93029],[111.57772,-7.93107],[111.5771,-7.93161],[111.57695,-7.93168],[111.5764,-7.93181],[111.57509,-7.93196],[111.57477,-7.93194],[111.57333,-7.93145],[111.57224,-7.93123],[111.57195,-7.93121],[111.57178,-7.93123],[111.56998,-7.93196],[111.56824,-7.9327],[111.56731,-7.93268],[111.56717,-7.9327],[111.5666,-7.93293],[111.56638,-7.93298],[111.56569,-7.933],[111.56422,-7.93362],[111.5635,-7.93379],[111.56295,-7.93383],[111.56256,-7.9341],[111.56205,-7.93431],[111.5607,-7.9346],[111.56044,-7.93469],[111.55996,-7.9349],[111.55917,-7.93535],[111.55892,-7.93545],[111.55855,-7.93552],[111.55751,-7.93557],[111.55552,-7.93572],[111.55502,-7.93579],[111.55505,-7.93647],[111.55517,-7.93709],[111.5553,-7.93701],[111.55542,-7.93745],[111.55495,-7.93754],[111.55455,-7.93778],[111.55373,-7.93791],[111.55337,-7.93801],[111.55355,-7.9382],[111.55355,-7.93841],[111.55318,-7.93854],[111.55209,-7.93872],[111.55197,-7.93879],[111.5518,-7.93897],[111.55116,-7.93912],[111.55084,-7.93932],[111.55073,-7.93957],[111.55052,-7.93965],[111.55031,-7.93982],[111.54975,-7.94016],[111.54929,-7.94029],[111.54894,-7.94111],[111.54868,-7.94115],[111.54833,-7.94139],[111.54798,-7.94156],[111.54779,-7.94179],[111.54772,-7.9418],[111.54772,-7.94249],[111.54703,-7.94262],[111.54703,-7.94328],[111.54636,-7.94324],[111.54576,-7.94354],[111.54502,-7.94382],[111.54507,-7.94394],[111.54487,-7.944],[111.54477,-7.94397],[111.54477,-7.9441],[111.54471,-7.94421],[111.54425,-7.94437],[111.54404,-7.9445],[111.54378,-7.94485],[111.54353,-7.94505],[111.54297,-7.94529],[111.54198,-7.94552],[111.54101,-7.94532],[111.54033,-7.94543],[111.54016,-7.94551],[111.53939,-7.94562],[111.53881,-7.94559],[111.5386,-7.94565],[111.53834,-7.94565],[111.5377,-7.94574],[111.5371,-7.94594],[111.53706,-7.946],[111.53582,-7.94614],[111.53591,-7.94602],[111.53594,-7.9459],[111.53564,-7.94518],[111.53528,-7.94468],[111.53506,-7.94383],[111.53483,-7.94319],[111.53474,-7.94317],[111.53379,-7.94327],[111.53353,-7.94232],[111.5328,-7.94018],[111.53277,-7.93999],[111.53267,-7.9398],[111.5325,-7.93963],[111.53246,-7.93954],[111.53248,-7.93945],[111.53258,-7.93935],[111.53306,-7.93928],[111.53317,-7.93919],[111.53323,-7.93907],[111.53323,-7.93899],[111.53313,-7.93859],[111.53313,-7.93844],[111.53321,-7.93838],[111.53336,-7.93836],[111.53356,-7.93839],[111.53371,-7.93834],[111.53388,-7.93812],[111.53399,-7.93773],[111.53413,-7.93748],[111.5342,-7.93722],[111.53429,-7.9371],[111.53451,-7.93694],[111.53464,-7.93693],[111.53471,-7.93696],[111.53485,-7.93724],[111.53507,-7.93746],[111.5352,-7.93743],[111.53537,-7.93727],[111.53541,-7.93718],[111.53548,-7.93716],[111.53556,-7.93716],[111.53574,-7.93739],[111.53594,-7.93754],[111.53611,-7.93759],[111.53625,-7.93758],[111.53643,-7.9375],[111.5365,-7.93743],[111.53663,-7.9371],[111.53666,-7.93692],[111.53672,-7.93683],[111.5368,-7.9368],[111.53704,-7.93692],[111.53715,-7.93692],[111.53733,-7.93673],[111.53744,-7.93649],[111.53763,-7.93633],[111.53766,-7.93622],[111.5377,-7.9362],[111.53803,-7.93625],[111.53823,-7.93607],[111.53841,-7.93601],[111.53864,-7.93575],[111.53891,-7.93553],[111.53917,-7.93563],[111.53928,-7.93574],[111.53938,-7.93594],[111.53969,-7.93635],[111.53975,-7.9364],[111.53983,-7.9364],[111.53999,-7.93618],[111.53993,-7.93598],[111.53996,-7.93589],[111.54013,-7.93586],[111.54024,-7.93567],[111.54035,-7.9358],[111.54054,-7.93582],[111.54073,-7.93581],[111.54086,-7.93574],[111.5409,-7.93567],[111.54092,-7.93532],[111.5409,-7.93515],[111.54096,-7.93502],[111.54102,-7.93498],[111.54111,-7.93495],[111.54129,-7.93504],[111.54149,-7.93502],[111.54153,-7.93513],[111.54163,-7.93528],[111.5417,-7.93528],[111.54195,-7.93507],[111.54198,-7.93498],[111.54196,-7.93485],[111.54192,-7.93478],[111.54192,-7.93456],[111.54195,-7.93442],[111.54202,-7.93432],[111.54272,-7.93386],[111.54288,-7.93379],[111.54316,-7.93378],[111.54332,-7.93386],[111.5434,-7.93393],[111.54366,-7.93404],[111.54405,-7.93431],[111.54446,-7.93427],[111.54458,-7.9342],[111.54494,-7.93386],[111.54502,-7.93367],[111.54531,-7.93355],[111.54542,-7.93343],[111.54546,-7.93322],[111.54551,-7.93315],[111.54563,-7.93309],[111.54576,-7.93282],[111.54586,-7.93275],[111.5461,-7.93271],[111.54657,-7.93294],[111.5467,-7.93292],[111.54694,-7.93276],[111.54699,-7.93276],[111.54709,-7.93287],[111.54717,-7.9329],[111.5473,-7.93291],[111.54744,-7.93285],[111.54764,-7.9326],[111.54764,-7.93249],[111.54788,-7.9321],[111.54795,-7.93188],[111.548,-7.93186],[111.5481,-7.93185],[111.54851,-7.932],[111.54881,-7.932],[111.54938,-7.93228],[111.54946,-7.93227],[111.54955,-7.93218],[111.54974,-7.93186],[111.54989,-7.93178],[111.55015,-7.93177],[111.55024,-7.93181],[111.55037,-7.93181],[111.55071,-7.93175],[111.55082,-7.93165],[111.55091,-7.9315],[111.55091,-7.93141],[111.55105,-7.93101],[111.55098,-7.93083],[111.55081,-7.93075],[111.55044,-7.93047],[111.55033,-7.93024],[111.55037,-7.92992],[111.55061,-7.92953],[111.55072,-7.92929],[111.55077,-7.9291],[111.55079,-7.92854],[111.55099,-7.92854],[111.55153,-7.92877],[111.55161,-7.92877],[111.55177,-7.92862],[111.55178,-7.92845],[111.55173,-7.92839],[111.55159,-7.92831],[111.55147,-7.92818],[111.55143,-7.928],[111.55154,-7.92785],[111.55164,-7.92781],[111.55179,-7.9279],[111.55196,-7.92791],[111.55214,-7.92742],[111.55214,-7.92726],[111.55202,-7.92706],[111.55191,-7.92701],[111.55182,-7.92692],[111.55177,-7.92678],[111.55179,-7.9266],[111.55192,-7.9264],[111.55218,-7.92617],[111.55248,-7.92619],[111.55306,-7.92634],[111.55345,-7.92635],[111.55375,-7.9263],[111.55427,-7.92613],[111.55469,-7.92611],[111.55492,-7.92628],[111.55505,-7.92648],[111.55514,-7.92686],[111.55524,-7.92707],[111.55534,-7.92713],[111.55563,-7.92715],[111.55578,-7.92713],[111.55601,-7.92704],[111.55631,-7.92682],[111.55643,-7.9267],[111.55665,-7.92628],[111.55681,-7.92605],[111.5569,-7.92596],[111.5573,-7.9258],[111.5575,-7.92562],[111.55762,-7.92556],[111.55775,-7.92557],[111.55805,-7.92569],[111.55832,-7.92567],[111.55848,-7.92553],[111.55867,-7.92518],[111.55902,-7.92495],[111.55921,-7.92494],[111.55963,-7.92506],[111.55983,-7.92515],[111.56026,-7.92547],[111.56062,-7.92568],[111.56105,-7.92572],[111.56123,-7.92567],[111.56135,-7.92557],[111.56164,-7.92519],[111.56195,-7.92519],[111.56225,-7.92528],[111.56236,-7.92529],[111.56282,-7.92514],[111.56299,-7.92498],[111.56311,-7.92474],[111.56325,-7.92464],[111.56344,-7.92458],[111.56378,-7.92452],[111.56386,-7.92447],[111.56413,-7.92407],[111.56426,-7.92397],[111.56443,-7.92398],[111.56478,-7.92413],[111.56498,-7.92417],[111.56504,-7.92413],[111.5651,-7.924],[111.56508,-7.92393],[111.56501,-7.92381],[111.56506,-7.92374],[111.56516,-7.9237],[111.56558,-7.92379],[111.56579,-7.92365],[111.56616,-7.92365],[111.56628,-7.92355],[111.56639,-7.92351],[111.56648,-7.92352],[111.56658,-7.92359],[111.56663,-7.92367],[111.56671,-7.92396],[111.56687,-7.92409],[111.56731,-7.92422],[111.56751,-7.92413],[111.56761,-7.92413],[111.56812,-7.9244],[111.56796,-7.92409],[111.56771,-7.92389],[111.5677,-7.92378],[111.56773,-7.92371],[111.56782,-7.92361],[111.56825,-7.92332],[111.56851,-7.92281],[111.56866,-7.92265],[111.5689,-7.92246],[111.56988,-7.92188],[111.57031,-7.92177],[111.57053,-7.92152],[111.57058,-7.92139],[111.57095,-7.92101],[111.57099,-7.92078],[111.57096,-7.9207],[111.57056,-7.92008],[111.57048,-7.91988],[111.57049,-7.91977],[111.5707,-7.91931],[111.57066,-7.91906],[111.57082,-7.91877],[111.57091,-7.91871],[111.57128,-7.91858],[111.57154,-7.91843],[111.57185,-7.91841],[111.57194,-7.91854],[111.57208,-7.91897],[111.57179,-7.91909],[111.57154,-7.91925],[111.57156,-7.91971],[111.57173,-7.92009],[111.57203,-7.92103],[111.57242,-7.9218],[111.57278,-7.92228],[111.57472,-7.9242],[111.57535,-7.92488],[111.57664,-7.92581],[111.57818,-7.92709],[111.57898,-7.92795],[111.58067,-7.93001]]]}}]}