{"type":"FeatureCollection","features":[{"type":"Feature","properties":{"namobj":"Ponorogo - Trenggalek","remark":"Data Digital Kemendagri","admin1":"35.02","admin2":"35.03","karktr":999,"klbadm":8,"stsbts":1,"tiplok":1,"tiptbt":2,"uupp":"Permendagri Nomor 50 Tahun 2020","wakbk1":"Ponorogo","wakbk2":"Trenggalek","wapro1":"Jawa Timur","wapro2":"Jawa Timur"},"geometry":{"type":"MultiLineString","coordinates":[[[111.66119,-7.97505],[111.6615,-7.97491],[111.66161,-7.97479],[111.66164,-7.97459],[111.66209,-7.9743],[111.66223,-7.97414],[111.66225,-7.97403],[111.66192,-7.97383],[111.66158,-7.97344],[111.66151,-7.97323],[111.66154,-7.97224],[111.66172,-7.97189],[111.66163,-7.97129],[111.66171,-7.97122],[111.66223,-7.97107],[111.6624,-7.97089],[111.66251,-7.97061],[111.6626,-7.97052],[111.66299,-7.96982],[111.66333,-7.96884],[111.6635,-7.96813],[111.66349,-7.96774],[111.66343,-7.96758],[111.66262,-7.96713],[111.66187,-7.96716],[111.66052,-7.96757],[111.65902,-7.96777],[111.65849,-7.96735],[111.65777,-7.96667],[111.65692,-7.96611],[111.65582,-7.96572],[111.65487,-7.96526],[111.65436,-7.96505],[111.65367,-7.96454],[111.65317,-7.96437],[111.65319,-7.96427],[111.65302,-7.96405],[111.65285,-7.96397],[111.65237,-7.96389],[111.65216,-7.9637],[111.65175,-7.96315],[111.65149,-7.9624],[111.6514,-7.96229],[111.65099,-7.96202],[111.65076,-7.96194],[111.65026,-7.96185],[111.64986,-7.9615],[111.64986,-7.96141],[111.64977,-7.96131],[111.64878,-7.96081],[111.64837,-7.96037],[111.64831,-7.96014]],[[111.65788,-7.97537],[111.65841,-7.97532],[111.65906,-7.97536],[111.65934,-7.97559],[111.65961,-7.97555],[111.66007,-7.97543],[111.66083,-7.97553],[111.661,-7.97545],[111.66109,-7.97533],[111.66119,-7.97505]],[[111.65748,-7.9755],[111.65784,-7.97537]],[[111.65732,-7.97556],[111.65738,-7.97554]],[[111.65682,-7.97564],[111.65704,-7.97558],[111.65732,-7.97556]],[[111.65637,-7.97583],[111.6568,-7.97565]],[[111.65556,-7.97801],[111.65565,-7.9778],[111.65569,-7.97753],[111.6558,-7.97712],[111.65598,-7.9767],[111.65613,-7.97621],[111.65626,-7.97593]],[[111.65433,-7.98107],[111.65499,-7.98059],[111.6551,-7.98043],[111.65523,-7.98013],[111.65535,-7.97968],[111.6553,-7.97871],[111.6555,-7.97812]],[[111.65361,-7.98263],[111.65376,-7.98223],[111.65369,-7.98166],[111.65372,-7.98154],[111.65429,-7.98109]],[[111.65394,-7.98666],[111.65367,-7.98644],[111.65358,-7.98614],[111.65369,-7.98584],[111.65371,-7.98551],[111.65367,-7.98499],[111.65351,-7.98448],[111.65342,-7.98378],[111.65335,-7.98357],[111.65346,-7.98313]],[[111.65516,-7.98829],[111.65496,-7.98807],[111.65503,-7.988],[111.65443,-7.98727],[111.65407,-7.98675],[111.65394,-7.98666]],[[111.6557,-8.00928],[111.65589,-8.00881],[111.65592,-8.0084],[111.65562,-8.00761],[111.65562,-8.00722],[111.65554,-8.00683],[111.65571,-8.00644],[111.65559,-8.00585],[111.65566,-8.00502],[111.65575,-8.00455],[111.65574,-8.00436],[111.6556,-8.00388],[111.65534,-8.00327],[111.65508,-8.00284],[111.6547,-8.00234],[111.6545,-8.00201],[111.65436,-8.0016],[111.65434,-8.00133],[111.65437,-8.00099],[111.65456,-8.00042],[111.65504,-7.99982],[111.65553,-7.99912],[111.65598,-7.99768],[111.65631,-7.99635],[111.65621,-7.99485],[111.65626,-7.99358],[111.65606,-7.99212],[111.65586,-7.99147],[111.65558,-7.99081],[111.6564,-7.99023],[111.65686,-7.98998],[111.65637,-7.98956],[111.65579,-7.9888]],[[111.63137,-8.00717],[111.63177,-8.00668],[111.63254,-8.00479],[111.63304,-8.00462],[111.63334,-8.00395],[111.63376,-8.00353],[111.6343,-8.00326],[111.63528,-8.00258],[111.63611,-8.00215],[111.63723,-8.00208],[111.63799,-8.00249],[111.63929,-8.00326],[111.64121,-8.00523],[111.64135,-8.00524],[111.64145,-8.00535],[111.64147,-8.00526],[111.64242,-8.00536]],[[111.64358,-8.00508],[111.64429,-8.00485],[111.64455,-8.00468],[111.64487,-8.00433],[111.64521,-8.00375],[111.64544,-8.00319],[111.64619,-8.00329],[111.64684,-8.00343],[111.64771,-8.00378],[111.64789,-8.00517],[111.64824,-8.00577],[111.64836,-8.00633],[111.64835,-8.00695],[111.64847,-8.00743],[111.64827,-8.00817],[111.64834,-8.00867],[111.64799,-8.00914],[111.64799,-8.00953],[111.64784,-8.01007],[111.64781,-8.01059],[111.6477,-8.01104],[111.6477,-8.01174],[111.64754,-8.01217],[111.64725,-8.01255],[111.64722,-8.01295],[111.64686,-8.01488],[111.64686,-8.01546],[111.64695,-8.01605],[111.64708,-8.0166],[111.64718,-8.01729],[111.64742,-8.01787],[111.64775,-8.01826],[111.64806,-8.01876],[111.64827,-8.01931],[111.64828,-8.02006],[111.64816,-8.0209],[111.6489,-8.02194],[111.64901,-8.02184],[111.64923,-8.02174],[111.64933,-8.02173],[111.64983,-8.02207]],[[111.6426,-8.00526],[111.643,-8.00521],[111.64357,-8.00508]],[[111.61494,-8.01006],[111.61515,-8.00979],[111.61552,-8.00961],[111.61705,-8.0095],[111.61744,-8.0094],[111.61818,-8.00896],[111.61858,-8.00849],[111.6194,-8.00823],[111.62132,-8.00748],[111.62178,-8.00699],[111.62252,-8.00688],[111.62286,-8.00674],[111.62318,-8.0065],[111.62376,-8.00693],[111.62404,-8.00704],[111.62422,-8.00738],[111.62436,-8.00828],[111.62457,-8.00846],[111.62484,-8.00859],[111.62508,-8.00919],[111.62588,-8.01089],[111.62592,-8.01092],[111.62685,-8.01014],[111.62763,-8.00965],[111.62859,-8.00917],[111.62932,-8.00859],[111.62988,-8.00789],[111.6306,-8.00764],[111.63108,-8.00754]],[[111.65458,-8.01626],[111.655,-8.01551],[111.65505,-8.01507],[111.65496,-8.01426],[111.65497,-8.01353],[111.65532,-8.01204],[111.65565,-8.01131],[111.65561,-8.00931],[111.65566,-8.00936]],[[111.61252,-8.01169],[111.61296,-8.0116],[111.61355,-8.01114],[111.61437,-8.01069]],[[111.60979,-8.01387],[111.61006,-8.01324],[111.61082,-8.01259],[111.61138,-8.01196],[111.61177,-8.01167]],[[111.60901,-8.01472],[111.6097,-8.01408]],[[111.60772,-8.01813],[111.60753,-8.01805],[111.60726,-8.0178],[111.60713,-8.01742],[111.60704,-8.01687],[111.60689,-8.01666],[111.6067,-8.01655],[111.60652,-8.01648],[111.60642,-8.01638],[111.60637,-8.01607],[111.60662,-8.01588],[111.60736,-8.01556],[111.60801,-8.0155],[111.60861,-8.01508]],[[111.65376,-8.0178],[111.65373,-8.01726],[111.65384,-8.01705],[111.65452,-8.01637]],[[111.595,-8.01847],[111.59514,-8.01842],[111.59524,-8.01833],[111.59562,-8.01789],[111.59625,-8.01754]],[[111.59646,-8.01795],[111.59657,-8.01807]],[[111.65337,-8.02015],[111.65358,-8.01946],[111.65332,-8.01898],[111.65332,-8.01885],[111.65356,-8.01856],[111.65379,-8.01819],[111.65378,-8.01795]],[[111.6064,-8.01926],[111.60665,-8.01909],[111.60704,-8.0189],[111.60746,-8.01857],[111.60778,-8.01816]],[[111.59702,-8.01867],[111.59713,-8.01871],[111.59732,-8.01869],[111.59786,-8.0185],[111.59838,-8.0184],[111.59918,-8.01847],[111.59969,-8.01827],[111.6003,-8.01824],[111.60087,-8.01833]],[[111.60134,-8.01829],[111.60185,-8.01826],[111.60201,-8.01829],[111.60257,-8.0185]],[[111.60096,-8.01834],[111.60128,-8.0183]],[[111.59423,-8.01851],[111.595,-8.01847]],[[111.60313,-8.0186],[111.60346,-8.01859],[111.60387,-8.01868],[111.60449,-8.01906]],[[111.60286,-8.01859],[111.60304,-8.0186]],[[111.57402,-8.04225],[111.57409,-8.04211],[111.57412,-8.0405],[111.57432,-8.04],[111.57462,-8.03971],[111.57634,-8.03876],[111.57671,-8.03871],[111.57679,-8.03858],[111.57747,-8.0371],[111.57759,-8.0365],[111.57759,-8.03593],[111.57768,-8.03562],[111.57777,-8.03543],[111.57795,-8.03519],[111.57817,-8.03496],[111.57828,-8.03463],[111.57902,-8.03354],[111.57911,-8.0331],[111.57948,-8.03243],[111.57972,-8.03179],[111.57994,-8.03133],[111.58035,-8.03081],[111.58068,-8.03003],[111.58111,-8.02913],[111.58189,-8.02791],[111.58234,-8.02701],[111.58261,-8.0266],[111.58273,-8.02572],[111.58337,-8.02514],[111.58527,-8.02444],[111.58598,-8.02406],[111.58668,-8.02361],[111.58764,-8.02264],[111.58928,-8.02054],[111.59046,-8.01938],[111.5924,-8.01895]],[[111.60489,-8.01921],[111.60531,-8.01929],[111.60575,-8.01944],[111.60596,-8.01944],[111.60627,-8.01935],[111.6064,-8.01926]],[[111.65278,-8.02076],[111.65319,-8.02058],[111.6533,-8.02048],[111.65335,-8.02024]],[[111.65055,-8.02214],[111.65064,-8.02214],[111.65074,-8.02203],[111.65079,-8.02162],[111.65086,-8.02148],[111.65096,-8.0214],[111.65142,-8.02146],[111.65165,-8.0214],[111.65278,-8.02076]],[[111.64983,-8.02207],[111.65009,-8.02211]],[[111.65015,-8.02211],[111.65053,-8.02214]],[[111.57372,-8.04415],[111.57359,-8.04369],[111.57366,-8.0431],[111.57375,-8.04283]],[[111.57359,-8.0458],[111.57384,-8.04466]],[[111.56996,-8.04857],[111.57026,-8.0484],[111.57092,-8.04834],[111.57189,-8.04837],[111.57268,-8.04823],[111.57327,-8.04795],[111.57339,-8.04782],[111.57345,-8.04763],[111.57352,-8.0468],[111.5735,-8.0463]],[[111.55893,-8.04961],[111.5594,-8.04944],[111.55964,-8.04938],[111.56052,-8.04931],[111.56098,-8.04889],[111.56147,-8.04904],[111.56164,-8.04916],[111.56239,-8.04932],[111.56263,-8.04957],[111.56286,-8.04967],[111.56308,-8.04968],[111.5637,-8.04957],[111.56408,-8.04944],[111.56426,-8.0492],[111.56457,-8.04852],[111.56463,-8.04815],[111.56468,-8.04806],[111.56486,-8.04799],[111.56542,-8.04795],[111.56577,-8.04796],[111.56716,-8.04869],[111.56761,-8.0488],[111.56828,-8.04891],[111.56851,-8.04892],[111.56911,-8.04872],[111.5696,-8.0487],[111.56979,-8.04867],[111.56989,-8.04861]],[[111.55774,-8.04984],[111.55869,-8.0497],[111.55893,-8.04961]]]}}]}