{"type":"FeatureCollection","features":[{"type":"Feature","properties":{"no_":923,"kd_inf":"6.21.923","nm_inf":"Sumur Air Tanah","nama_balai":"BBWS BENGAWAN SOLO","nama_ws":"WS BENGAWAN SOLO","nama_das":"DAS BENGAWAN SOLO","provinsi":"JAWA TIMUR","kabupaten":"KAB. PONOROGO","kecamatan":"SAWOO","desa":"PRAYUNGAN","thn_dat":2021,"koord_x":111.559,"koord_y":-7.97,"jns_sumur":"Air Baku","air_baku":"340","jns_pom":"Submersible","nm_sumur":"ATABPO 644","kelembagaa":"Desa","status":"Hibah","dbt_air_ba":"1","dbt_pom":"1","dbt_aw":"1","thn_buat":"2019","kdlm_at":"120","_cls":"Sumur Air Tanah"},"geometry":{"type":"Point","coordinates":[111.55889,-7.97044]}}]}