{"type":"FeatureCollection","features":[{"type":"Feature","properties":{"deskripsi":"Batuan Terobosan","pulau":"Jawa","litologi":"Batuan Malihan Dan Beku","kelulusan":"Rendah - Sangat Rendah","umur":"To","_cls":"Batuan Malihan Dan Beku"},"geometry":{"type":"Polygon","coordinates":[[[111.64915,-7.99886],[111.64881,-7.99887],[111.64849,-7.99893],[111.64814,-7.99891],[111.64755,-7.99876],[111.64715,-7.99856],[111.64676,-7.99821],[111.64661,-7.99796],[111.6466,-7.99758],[111.64677,-7.99724],[111.64698,-7.99699],[111.64725,-7.99679],[111.64755,-7.99664],[111.64785,-7.99656],[111.64822,-7.99657],[111.64855,-7.99664],[111.6489,-7.99678],[111.64919,-7.99694],[111.64954,-7.99723],[111.64987,-7.9976],[111.64999,-7.99783],[111.65003,-7.99809],[111.64998,-7.99837],[111.64984,-7.99856],[111.64961,-7.9987],[111.64915,-7.99886]]]}},{"type":"Feature","properties":{"deskripsi":"Batuan Terobosan","pulau":"Jawa","litologi":"Batuan Malihan Dan Beku","kelulusan":"Rendah - Sangat Rendah","umur":"To","_cls":"Batuan Malihan Dan Beku"},"geometry":{"type":"Polygon","coordinates":[[[111.6444,-7.99488],[111.64458,-7.99531],[111.6446,-7.99546],[111.64456,-7.99564],[111.64444,-7.99588],[111.6442,-7.99623],[111.64377,-7.99667],[111.64321,-7.99706],[111.6427,-7.99735],[111.6417,-7.99776],[111.64133,-7.99796],[111.64124,-7.99797],[111.64113,-7.99793],[111.64085,-7.99769],[111.64066,-7.99734],[111.64056,-7.99702],[111.6405,-7.99647],[111.6405,-7.99582],[111.64056,-7.9956],[111.64068,-7.99535],[111.64094,-7.99497],[111.64112,-7.99477],[111.64127,-7.99467],[111.64141,-7.99463],[111.64178,-7.99461],[111.64218,-7.99467],[111.64277,-7.99487],[111.6429,-7.99489],[111.64313,-7.99483],[111.64365,-7.99462],[111.64394,-7.99456],[111.64416,-7.99463],[111.6444,-7.99488]]]}},{"type":"Feature","properties":{"deskripsi":"Batuan Terobosan","pulau":"Jawa","litologi":"Batuan Malihan Dan Beku","kelulusan":"Rendah - Sangat Rendah","umur":"To","_cls":"Batuan Malihan Dan Beku"},"geometry":{"type":"Polygon","coordinates":[[[111.56535,-7.99069],[111.56525,-7.99069],[111.56511,-7.99061],[111.56496,-7.99048],[111.56486,-7.99034],[111.56428,-7.98838],[111.56431,-7.98805],[111.56443,-7.98779],[111.56466,-7.98758],[111.56492,-7.98749],[111.56518,-7.98751],[111.56541,-7.98763],[111.56576,-7.98805],[111.56588,-7.98834],[111.56588,-7.98892],[111.56597,-7.98928],[111.566,-7.98955],[111.56597,-7.99004],[111.56588,-7.99027],[111.56571,-7.99049],[111.56553,-7.99064],[111.56535,-7.99069]]]}},{"type":"Feature","properties":{"deskripsi":"Batuan Terobosan","pulau":"Jawa","litologi":"Batuan Malihan Dan Beku","kelulusan":"Rendah - Sangat Rendah","umur":"To","_cls":"Batuan Malihan Dan Beku"},"geometry":{"type":"Polygon","coordinates":[[[111.62983,-7.99295],[111.62952,-7.99296],[111.62941,-7.99304],[111.62913,-7.99308],[111.62894,-7.9932],[111.62872,-7.9934],[111.62849,-7.99377],[111.62841,-7.99434],[111.62821,-7.99492],[111.62793,-7.99527],[111.62761,-7.99557],[111.62717,-7.99585],[111.62649,-7.99617],[111.62579,-7.99644],[111.62519,-7.99661],[111.62444,-7.99673],[111.62366,-7.99676],[111.62282,-7.99668],[111.62161,-7.99646],[111.62104,-7.99621],[111.62065,-7.99595],[111.62036,-7.9956],[111.62022,-7.99524],[111.6202,-7.99491],[111.62027,-7.99442],[111.62118,-7.99148],[111.62148,-7.9898],[111.62152,-7.98914],[111.62189,-7.98783],[111.62208,-7.98745],[111.62231,-7.98718],[111.62256,-7.98699],[111.62285,-7.98688],[111.62326,-7.98686],[111.62375,-7.98697],[111.62453,-7.98738],[111.62478,-7.98749],[111.62647,-7.98792],[111.62699,-7.98811],[111.62754,-7.98836],[111.62794,-7.98865],[111.62826,-7.98897],[111.62843,-7.98926],[111.62847,-7.98946],[111.62849,-7.98995],[111.62853,-7.99035],[111.62863,-7.99062],[111.62884,-7.99078],[111.62972,-7.99124],[111.62994,-7.99147],[111.63011,-7.99173],[111.63018,-7.99204],[111.63021,-7.99259],[111.63008,-7.99281],[111.62983,-7.99295]]]}},{"type":"Feature","properties":{"deskripsi":"Batuan Terobosan","pulau":"Jawa","litologi":"Batuan Malihan Dan Beku","kelulusan":"Rendah - Sangat Rendah","umur":"To","_cls":"Batuan Malihan Dan Beku"},"geometry":{"type":"Polygon","coordinates":[[[111.56481,-7.98565],[111.56452,-7.9856],[111.56433,-7.98544],[111.56411,-7.98512],[111.56399,-7.98473],[111.56395,-7.9843],[111.56399,-7.98391],[111.56414,-7.98328],[111.56422,-7.98321],[111.56434,-7.98317],[111.5645,-7.98317],[111.56463,-7.98322],[111.56487,-7.98339],[111.56507,-7.9836],[111.56535,-7.98404],[111.56537,-7.98439],[111.56547,-7.98459],[111.56549,-7.98508],[111.56539,-7.98535],[111.56527,-7.9855],[111.56497,-7.98562],[111.56481,-7.98565]]]}},{"type":"Feature","properties":{"deskripsi":"Batuan Terobosan","pulau":"Jawa","litologi":"Batuan Malihan Dan Beku","kelulusan":"Rendah - Sangat Rendah","umur":"To","_cls":"Batuan Malihan Dan Beku"},"geometry":{"type":"Polygon","coordinates":[[[111.56489,-7.98133],[111.56466,-7.98132],[111.56434,-7.98126],[111.5641,-7.98113],[111.56404,-7.98093],[111.56411,-7.98048],[111.56417,-7.98032],[111.56427,-7.98017],[111.56497,-7.97953],[111.56516,-7.97944],[111.56542,-7.97946],[111.56546,-7.97947],[111.56552,-7.97957],[111.56572,-7.98],[111.56576,-7.98014],[111.56575,-7.98028],[111.56556,-7.98079],[111.56542,-7.98103],[111.56519,-7.98122],[111.56489,-7.98133]]]}},{"type":"Feature","properties":{"deskripsi":"Batuan Terobosan","pulau":"Jawa","litologi":"Batuan Malihan Dan Beku","kelulusan":"Rendah - Sangat Rendah","umur":"To","_cls":"Batuan Malihan Dan Beku"},"geometry":{"type":"Polygon","coordinates":[[[111.56553,-7.9785],[111.56521,-7.97846],[111.56501,-7.9783],[111.56494,-7.9782],[111.56488,-7.97802],[111.56487,-7.97771],[111.56506,-7.97733],[111.56539,-7.97692],[111.56564,-7.97677],[111.56586,-7.97676],[111.56596,-7.97679],[111.56603,-7.97685],[111.56617,-7.97708],[111.56615,-7.97785],[111.56606,-7.97813],[111.56593,-7.97831],[111.56572,-7.97845],[111.56553,-7.9785]]]}},{"type":"Feature","properties":{"deskripsi":"Batuan Terobosan","pulau":"Jawa","litologi":"Batuan Malihan Dan Beku","kelulusan":"Rendah - Sangat Rendah","umur":"To","_cls":"Batuan Malihan Dan Beku"},"geometry":{"type":"Polygon","coordinates":[[[111.60281,-7.97455],[111.60206,-7.97457],[111.60184,-7.97451],[111.60161,-7.9743],[111.60152,-7.97413],[111.60153,-7.97396],[111.60161,-7.97377],[111.60177,-7.97352],[111.60196,-7.97331],[111.60212,-7.97319],[111.6023,-7.97312],[111.60281,-7.9731],[111.60326,-7.97318],[111.60346,-7.97328],[111.60361,-7.97341],[111.60376,-7.97363],[111.60381,-7.97383],[111.60375,-7.97402],[111.60361,-7.97422],[111.60341,-7.97434],[111.60281,-7.97455]]]}},{"type":"Feature","properties":{"deskripsi":"Batuan Terobosan","pulau":"Jawa","litologi":"Batuan Malihan Dan Beku","kelulusan":"Rendah - Sangat Rendah","umur":"To","_cls":"Batuan Malihan Dan Beku"},"geometry":{"type":"Polygon","coordinates":[[[111.553,-7.97314],[111.55288,-7.97313],[111.55275,-7.97307],[111.55262,-7.97291],[111.55257,-7.97276],[111.55276,-7.97224],[111.5529,-7.97212],[111.55304,-7.97208],[111.55317,-7.97211],[111.55336,-7.9724],[111.55338,-7.97278],[111.55333,-7.97291],[111.5532,-7.97305],[111.553,-7.97314]]]}},{"type":"Feature","properties":{"deskripsi":"Batuan Terobosan","pulau":"Jawa","litologi":"Batuan Malihan Dan Beku","kelulusan":"Rendah - Sangat Rendah","umur":"To","_cls":"Batuan Malihan Dan Beku"},"geometry":{"type":"Polygon","coordinates":[[[111.62428,-7.98617],[111.62368,-7.98614],[111.62296,-7.98598],[111.62196,-7.98567],[111.62007,-7.98497],[111.6197,-7.98476],[111.6193,-7.98446],[111.6187,-7.9838],[111.61811,-7.9833],[111.61741,-7.98292],[111.61663,-7.98259],[111.6162,-7.98226],[111.61595,-7.98197],[111.61572,-7.98162],[111.61518,-7.98056],[111.615,-7.98009],[111.61495,-7.9796],[111.61505,-7.97803],[111.61501,-7.9777],[111.61487,-7.97748],[111.61418,-7.97679],[111.61409,-7.97664],[111.61405,-7.97647],[111.61413,-7.9754],[111.6143,-7.97498],[111.61453,-7.9746],[111.61476,-7.9744],[111.6154,-7.97413],[111.61674,-7.97339],[111.61716,-7.97311],[111.61745,-7.97286],[111.61778,-7.97247],[111.618,-7.97212],[111.61837,-7.97127],[111.61848,-7.97089],[111.61858,-7.97067],[111.61886,-7.97029],[111.61928,-7.96986],[111.61971,-7.96951],[111.62006,-7.96934],[111.62154,-7.96879],[111.62245,-7.96858],[111.62301,-7.96858],[111.62369,-7.96864],[111.62421,-7.96879],[111.62473,-7.96908],[111.62494,-7.96916],[111.6258,-7.96924],[111.62733,-7.96947],[111.62792,-7.96969],[111.62838,-7.96997],[111.62861,-7.97019],[111.62931,-7.97108],[111.62961,-7.97141],[111.63019,-7.9719],[111.63079,-7.97229],[111.63128,-7.97267],[111.63151,-7.97288],[111.63168,-7.97308],[111.63187,-7.97345],[111.63203,-7.97392],[111.63219,-7.97477],[111.63249,-7.97594],[111.63258,-7.97647],[111.63261,-7.97705],[111.63258,-7.97755],[111.63249,-7.97809],[111.63236,-7.9784],[111.63187,-7.97922],[111.63159,-7.97959],[111.63121,-7.97992],[111.63063,-7.98031],[111.63047,-7.98047],[111.63034,-7.98081],[111.63029,-7.98113],[111.6303,-7.98137],[111.63025,-7.98153],[111.62979,-7.98232],[111.62921,-7.98311],[111.62872,-7.98358],[111.62762,-7.9842],[111.62732,-7.98441],[111.62636,-7.98543],[111.626,-7.98573],[111.62564,-7.9859],[111.6253,-7.98593],[111.62481,-7.9861],[111.62428,-7.98617]]]}},{"type":"Feature","properties":{"deskripsi":"Batuan Terobosan","pulau":"Jawa","litologi":"Batuan Malihan Dan Beku","kelulusan":"Rendah - Sangat Rendah","umur":"To","_cls":"Batuan Malihan Dan Beku"},"geometry":{"type":"Polygon","coordinates":[[[111.64951,-7.96714],[111.64935,-7.96709],[111.6492,-7.96693],[111.64908,-7.96668],[111.64905,-7.96649],[111.64908,-7.96621],[111.64914,-7.96603],[111.64929,-7.96591],[111.6495,-7.96586],[111.64973,-7.96592],[111.65004,-7.96611],[111.65023,-7.96636],[111.65027,-7.96653],[111.65023,-7.9667],[111.65009,-7.96689],[111.64982,-7.96704],[111.64951,-7.96714]]]}},{"type":"Feature","properties":{"deskripsi":"Batuan Terobosan","pulau":"Jawa","litologi":"Batuan Malihan Dan Beku","kelulusan":"Rendah - Sangat Rendah","umur":"To","_cls":"Batuan Malihan Dan Beku"},"geometry":{"type":"Polygon","coordinates":[[[111.62516,-7.96621],[111.62504,-7.96621],[111.62488,-7.96615],[111.62472,-7.96606],[111.62465,-7.96598],[111.62455,-7.96539],[111.62458,-7.96526],[111.62467,-7.96519],[111.62498,-7.96512],[111.6253,-7.96512],[111.62553,-7.96523],[111.62568,-7.96542],[111.62568,-7.96599],[111.62544,-7.96613],[111.62516,-7.96621]]]}},{"type":"Feature","properties":{"deskripsi":"Batuan Terobosan","pulau":"Jawa","litologi":"Batuan Malihan Dan Beku","kelulusan":"Rendah - Sangat Rendah","umur":"To","_cls":"Batuan Malihan Dan Beku"},"geometry":{"type":"Polygon","coordinates":[[[111.62258,-7.96618],[111.62224,-7.96612],[111.62201,-7.96596],[111.62197,-7.96586],[111.62197,-7.96535],[111.62205,-7.96521],[111.62223,-7.96508],[111.62248,-7.965],[111.6227,-7.96499],[111.62293,-7.96506],[111.62309,-7.96522],[111.6232,-7.96545],[111.62323,-7.96569],[111.62316,-7.96588],[111.62302,-7.96603],[111.62283,-7.96613],[111.62258,-7.96618]]]}},{"type":"Feature","properties":{"deskripsi":"Batuan Terobosan","pulau":"Jawa","litologi":"Batuan Malihan Dan Beku","kelulusan":"Rendah - Sangat Rendah","umur":"To","_cls":"Batuan Malihan Dan Beku"},"geometry":{"type":"Polygon","coordinates":[[[111.62843,-7.96614],[111.62815,-7.96608],[111.62796,-7.96593],[111.6279,-7.96574],[111.62786,-7.96532],[111.62795,-7.96512],[111.62822,-7.96485],[111.62842,-7.96476],[111.62861,-7.96476],[111.62878,-7.96482],[111.62896,-7.96498],[111.62905,-7.96517],[111.62908,-7.96541],[111.629,-7.96561],[111.62878,-7.96593],[111.62858,-7.96611],[111.62843,-7.96614]]]}},{"type":"Feature","properties":{"deskripsi":"Batuan Terobosan","pulau":"Jawa","litologi":"Batuan Malihan Dan Beku","kelulusan":"Rendah - Sangat Rendah","umur":"To","_cls":"Batuan Malihan Dan Beku"},"geometry":{"type":"Polygon","coordinates":[[[111.64625,-7.9637],[111.64596,-7.96365],[111.64576,-7.96353],[111.64576,-7.96303],[111.64584,-7.96278],[111.64597,-7.96261],[111.64618,-7.96251],[111.64646,-7.9625],[111.64662,-7.96256],[111.64677,-7.96272],[111.64686,-7.96297],[111.64686,-7.96315],[111.64677,-7.96335],[111.64663,-7.96352],[111.64641,-7.96367],[111.64625,-7.9637]]]}},{"type":"Feature","properties":{"deskripsi":"Batuan Terobosan","pulau":"Jawa","litologi":"Batuan Malihan Dan Beku","kelulusan":"Rendah - Sangat Rendah","umur":"To","_cls":"Batuan Malihan Dan Beku"},"geometry":{"type":"Polygon","coordinates":[[[111.53851,-7.95485],[111.53816,-7.95476],[111.53758,-7.95472],[111.53759,-7.95514],[111.53685,-7.95514],[111.53692,-7.9557],[111.5368,-7.95577],[111.53642,-7.95579],[111.53642,-7.95586],[111.5362,-7.95595],[111.53567,-7.95633],[111.53496,-7.95636],[111.53386,-7.95625],[111.53327,-7.95625],[111.53302,-7.95703],[111.53297,-7.95707],[111.53248,-7.95711],[111.53214,-7.95708],[111.53185,-7.9571],[111.53171,-7.95639],[111.53164,-7.95485],[111.53298,-7.95393],[111.53358,-7.95363],[111.53488,-7.95327],[111.53551,-7.95316],[111.53579,-7.95315],[111.5364,-7.95322],[111.53729,-7.95321],[111.53763,-7.95325],[111.53781,-7.95332],[111.53791,-7.9534],[111.53797,-7.9535],[111.53799,-7.95367],[111.53803,-7.95373],[111.5385,-7.95385],[111.5386,-7.95396],[111.53868,-7.95422],[111.53868,-7.95445],[111.53863,-7.95462],[111.53851,-7.95485]]]}},{"type":"Feature","properties":{"deskripsi":"Batuan Terobosan","pulau":"Jawa","litologi":"Batuan Malihan Dan Beku","kelulusan":"Rendah - Sangat Rendah","umur":"To","_cls":"Batuan Malihan Dan Beku"},"geometry":{"type":"Polygon","coordinates":[[[111.61078,-7.95262],[111.61051,-7.95247],[111.61032,-7.95227],[111.61021,-7.95201],[111.61018,-7.95174],[111.6103,-7.95151],[111.61061,-7.95117],[111.61088,-7.95105],[111.61118,-7.95101],[111.61078,-7.95262]]]}},{"type":"Feature","properties":{"deskripsi":"Konglomerat, Batupasir Tufan, Tuf, Dan Breksi Tufan","pulau":"Jawa","litologi":"Batuan Padu","kelulusan":"Rendah","umur":"Q","_cls":"Batuan Padu"},"geometry":{"type":"MultiPolygon","coordinates":[[[[111.53596,-7.96686],[111.53597,-7.9672],[111.53586,-7.96685],[111.53596,-7.96686]]],[[[111.61595,-7.9371],[111.61589,-7.93714],[111.61597,-7.93707],[111.61595,-7.9371]]],[[[111.61521,-7.93719],[111.61565,-7.93727],[111.61531,-7.93743],[111.61477,-7.93748],[111.61431,-7.9374],[111.61372,-7.93716],[111.61337,-7.93688],[111.61267,-7.93595],[111.61247,-7.93582],[111.61219,-7.93573],[111.61236,-7.93538],[111.6126,-7.93511],[111.61273,-7.93513],[111.61355,-7.93614],[111.61426,-7.93675],[111.61521,-7.93719]]],[[[111.60795,-7.93594],[111.60822,-7.93609],[111.60836,-7.93608],[111.60853,-7.93614],[111.6092,-7.93583],[111.60938,-7.93577],[111.60954,-7.93567],[111.61007,-7.93573],[111.61051,-7.93567],[111.61069,-7.93571],[111.61101,-7.93588],[111.61107,-7.93594],[111.61109,-7.93606],[111.61087,-7.93626],[111.61059,-7.93677],[111.61048,-7.93689],[111.61015,-7.93707],[111.60997,-7.9371],[111.60982,-7.93708],[111.6097,-7.93702],[111.60912,-7.93645],[111.60858,-7.93626],[111.60736,-7.93633],[111.60718,-7.93629],[111.60672,-7.93609],[111.60642,-7.93582],[111.60624,-7.93571],[111.6063,-7.93561],[111.60636,-7.93538],[111.60637,-7.93515],[111.60627,-7.93473],[111.60633,-7.93465],[111.6065,-7.93463],[111.60659,-7.93468],[111.60696,-7.935],[111.60733,-7.93527],[111.60795,-7.93594]]],[[[111.60158,-7.93417],[111.60112,-7.93434],[111.60134,-7.93422],[111.60157,-7.93404],[111.6017,-7.93399],[111.60202,-7.93408],[111.60158,-7.93417]]],[[[111.60319,-7.9337],[111.60337,-7.93374],[111.60357,-7.93383],[111.60384,-7.93399],[111.60414,-7.93436],[111.6044,-7.93458],[111.60443,-7.93472],[111.60441,-7.93491],[111.60445,-7.93505],[111.60458,-7.93517],[111.60469,-7.93567],[111.60482,-7.93573],[111.60458,-7.93591],[111.60422,-7.9361],[111.6041,-7.93612],[111.60383,-7.93606],[111.60363,-7.93596],[111.60348,-7.93584],[111.60325,-7.93549],[111.6027,-7.93431],[111.60253,-7.93414],[111.60235,-7.93408],[111.60239,-7.934],[111.6025,-7.93397],[111.60255,-7.9339],[111.60262,-7.93388],[111.60279,-7.93371],[111.60319,-7.9337]]],[[[111.60008,-7.93313],[111.60024,-7.93336],[111.60026,-7.93352],[111.60019,-7.93362],[111.60007,-7.93416],[111.60009,-7.93424],[111.60021,-7.93431],[111.60027,-7.93449],[111.60032,-7.93452],[111.60052,-7.93442],[111.60071,-7.93442],[111.60112,-7.93434],[111.60045,-7.9346],[111.60008,-7.93483],[111.59985,-7.93488],[111.59954,-7.93483],[111.59927,-7.93468],[111.59904,-7.9343],[111.59863,-7.93345],[111.59851,-7.93334],[111.59823,-7.9332],[111.59803,-7.93316],[111.59781,-7.93318],[111.59755,-7.93326],[111.59728,-7.93342],[111.59708,-7.93345],[111.59619,-7.93334],[111.59559,-7.93337],[111.59511,-7.93359],[111.59511,-7.93346],[111.59508,-7.93339],[111.59512,-7.93331],[111.59553,-7.93318],[111.5961,-7.9332],[111.59631,-7.93318],[111.59703,-7.93294],[111.59747,-7.93291],[111.59822,-7.93293],[111.59961,-7.93303],[111.59988,-7.93307],[111.60008,-7.93313]]],[[[111.57486,-7.92434],[111.57535,-7.92488],[111.57664,-7.92581],[111.57818,-7.92709],[111.57898,-7.92795],[111.58067,-7.93001],[111.58188,-7.9299],[111.58244,-7.93003],[111.58296,-7.93006],[111.58459,-7.93005],[111.58544,-7.93023],[111.58635,-7.93073],[111.58699,-7.9313],[111.58803,-7.93159],[111.59005,-7.93154],[111.59112,-7.9314],[111.59245,-7.93163],[111.59246,-7.93661],[111.59207,-7.93691],[111.59119,-7.93709],[111.59014,-7.93745],[111.58983,-7.93743],[111.5895,-7.93723],[111.58912,-7.93716],[111.58897,-7.93727],[111.58868,-7.93764],[111.58824,-7.938],[111.588,-7.93808],[111.58777,-7.9381],[111.58716,-7.93797],[111.58689,-7.93782],[111.58654,-7.93757],[111.58632,-7.93754],[111.58627,-7.9375],[111.5862,-7.93719],[111.5863,-7.9368],[111.5863,-7.93646],[111.58547,-7.93511],[111.5852,-7.93477],[111.58497,-7.93458],[111.58449,-7.93431],[111.5829,-7.93361],[111.582,-7.93309],[111.58185,-7.93294],[111.58173,-7.93275],[111.58157,-7.93214],[111.58146,-7.9319],[111.58135,-7.93173],[111.5812,-7.9316],[111.58101,-7.9315],[111.58081,-7.93144],[111.58058,-7.93141],[111.5804,-7.93144],[111.5802,-7.93155],[111.57996,-7.93175],[111.57977,-7.93197],[111.57938,-7.93267],[111.57917,-7.9333],[111.57903,-7.9336],[111.57882,-7.93387],[111.57831,-7.93428],[111.57811,-7.93495],[111.57798,-7.93514],[111.57765,-7.93536],[111.57747,-7.93539],[111.57731,-7.93535],[111.5767,-7.93505],[111.57642,-7.93497],[111.57627,-7.93499],[111.57608,-7.93515],[111.57597,-7.93533],[111.57591,-7.93551],[111.57592,-7.93583],[111.57584,-7.93605],[111.57576,-7.93617],[111.57551,-7.93636],[111.57516,-7.93645],[111.57495,-7.93655],[111.57483,-7.93664],[111.57479,-7.93672],[111.57479,-7.93684],[111.5749,-7.93722],[111.57496,-7.93767],[111.57502,-7.93865],[111.57491,-7.93972],[111.57483,-7.94167],[111.57472,-7.94276],[111.57471,-7.94345],[111.57463,-7.94427],[111.57462,-7.94525],[111.57447,-7.94588],[111.57446,-7.94612],[111.57457,-7.94627],[111.57502,-7.94645],[111.57527,-7.94668],[111.57592,-7.94755],[111.5763,-7.94823],[111.57642,-7.94858],[111.57648,-7.9489],[111.57653,-7.9495],[111.5765,-7.95045],[111.57663,-7.95101],[111.57726,-7.95232],[111.57822,-7.95389],[111.57868,-7.95474],[111.57898,-7.95536],[111.57917,-7.95589],[111.57952,-7.95734],[111.57961,-7.95852],[111.57974,-7.95916],[111.5798,-7.95976],[111.57989,-7.96003],[111.58028,-7.96079],[111.58158,-7.96266],[111.5824,-7.96433],[111.58266,-7.9652],[111.583,-7.96661],[111.58312,-7.96722],[111.58313,-7.96751],[111.58303,-7.96796],[111.58303,-7.96835],[111.58293,-7.96865],[111.58292,-7.96884],[111.58281,-7.9691],[111.58273,-7.96957],[111.58268,-7.96965],[111.58237,-7.96992],[111.58201,-7.97006],[111.58177,-7.97008],[111.5816,-7.97005],[111.58119,-7.9699],[111.58089,-7.96967],[111.58053,-7.9692],[111.58031,-7.96878],[111.57997,-7.9679],[111.57982,-7.96739],[111.57972,-7.96686],[111.57974,-7.96545],[111.57981,-7.96511],[111.57997,-7.96464],[111.58002,-7.96425],[111.58004,-7.96348],[111.58,-7.96326],[111.57992,-7.96308],[111.5798,-7.96291],[111.57953,-7.96268],[111.57916,-7.96228],[111.57879,-7.96206],[111.57832,-7.96194],[111.57803,-7.96192],[111.57773,-7.96195],[111.57713,-7.96212],[111.57682,-7.96228],[111.57599,-7.96289],[111.57576,-7.963],[111.5751,-7.96321],[111.57465,-7.96315],[111.57398,-7.96292],[111.57353,-7.96286],[111.5731,-7.96292],[111.57258,-7.96313],[111.57229,-7.96332],[111.57193,-7.96363],[111.57157,-7.96399],[111.57112,-7.9646],[111.57065,-7.96497],[111.57042,-7.96506],[111.56999,-7.96511],[111.56908,-7.96511],[111.56888,-7.96517],[111.56865,-7.96533],[111.56831,-7.96573],[111.56811,-7.96612],[111.56796,-7.96674],[111.56794,-7.96735],[111.56799,-7.9677],[111.56815,-7.9682],[111.56838,-7.96875],[111.56858,-7.96912],[111.56882,-7.96945],[111.56903,-7.96968],[111.56987,-7.97044],[111.57038,-7.97086],[111.57111,-7.97139],[111.57397,-7.97327],[111.575,-7.97401],[111.57604,-7.97451],[111.57625,-7.97465],[111.5764,-7.97481],[111.57645,-7.97492],[111.57645,-7.97504],[111.57639,-7.97527],[111.57632,-7.97537],[111.57619,-7.97543],[111.57601,-7.97546],[111.57562,-7.97541],[111.57545,-7.97542],[111.57531,-7.97557],[111.57525,-7.97583],[111.57552,-7.97646],[111.57603,-7.97711],[111.57616,-7.97757],[111.57643,-7.97797],[111.57645,-7.97828],[111.57664,-7.97875],[111.57665,-7.97911],[111.57675,-7.97949],[111.57674,-7.97962],[111.57665,-7.9798],[111.57664,-7.98006],[111.57655,-7.98029],[111.57657,-7.98058],[111.57675,-7.98093],[111.57699,-7.98121],[111.5773,-7.98163],[111.57735,-7.98173],[111.57732,-7.98193],[111.5772,-7.98215],[111.57661,-7.98257],[111.57639,-7.98282],[111.57633,-7.98297],[111.57637,-7.98326],[111.57649,-7.98355],[111.57676,-7.98387],[111.57697,-7.98402],[111.57735,-7.98417],[111.57752,-7.98431],[111.57756,-7.9844],[111.57754,-7.98504],[111.57762,-7.98511],[111.57775,-7.98513],[111.57761,-7.98529],[111.57741,-7.98536],[111.57716,-7.98523],[111.5763,-7.98489],[111.5761,-7.98476],[111.57559,-7.98408],[111.57503,-7.98313],[111.5743,-7.9822],[111.57332,-7.9812],[111.57289,-7.98085],[111.57233,-7.98046],[111.57211,-7.98035],[111.57185,-7.98027],[111.57079,-7.98019],[111.57005,-7.98003],[111.56914,-7.97978],[111.56884,-7.97965],[111.56863,-7.97949],[111.56826,-7.97909],[111.56798,-7.97862],[111.56791,-7.97834],[111.56779,-7.97738],[111.5676,-7.97694],[111.56742,-7.97668],[111.56722,-7.97646],[111.56695,-7.97623],[111.56665,-7.97604],[111.5662,-7.97586],[111.5657,-7.97575],[111.56473,-7.9758],[111.56448,-7.97588],[111.56386,-7.97629],[111.56341,-7.9767],[111.56307,-7.97711],[111.5628,-7.97755],[111.56254,-7.9779],[111.56193,-7.97852],[111.56172,-7.97866],[111.56151,-7.97874],[111.56132,-7.97878],[111.56117,-7.97876],[111.56101,-7.97865],[111.5605,-7.97809],[111.56029,-7.97797],[111.5601,-7.97793],[111.55987,-7.97792],[111.55967,-7.97797],[111.55947,-7.97808],[111.55916,-7.9781],[111.55905,-7.97806],[111.55896,-7.97783],[111.55898,-7.97713],[111.5589,-7.97689],[111.55883,-7.97676],[111.55868,-7.97667],[111.55844,-7.97663],[111.55808,-7.97685],[111.55799,-7.97687],[111.55786,-7.97681],[111.55774,-7.97671],[111.55766,-7.97662],[111.55762,-7.97651],[111.55767,-7.97587],[111.55756,-7.97551],[111.5574,-7.97521],[111.55722,-7.97502],[111.55668,-7.97465],[111.55637,-7.97437],[111.55622,-7.97415],[111.55594,-7.97347],[111.55558,-7.97303],[111.55527,-7.97275],[111.55479,-7.97241],[111.55403,-7.97171],[111.55336,-7.97133],[111.55278,-7.97106],[111.55246,-7.97097],[111.55165,-7.97086],[111.55132,-7.97085],[111.55104,-7.97091],[111.55075,-7.97104],[111.55031,-7.97131],[111.55008,-7.97153],[111.54992,-7.97187],[111.54986,-7.97231],[111.54974,-7.97258],[111.54946,-7.973],[111.54889,-7.97358],[111.54872,-7.97395],[111.54865,-7.97434],[111.54869,-7.97466],[111.5488,-7.9748],[111.54914,-7.97512],[111.54924,-7.97537],[111.5493,-7.97619],[111.54921,-7.9765],[111.54873,-7.97711],[111.54829,-7.97752],[111.54755,-7.97807],[111.54654,-7.97864],[111.54613,-7.97898],[111.54578,-7.97935],[111.54566,-7.97955],[111.54557,-7.97979],[111.54555,-7.98014],[111.54561,-7.98047],[111.54574,-7.98074],[111.54594,-7.98105],[111.54621,-7.98132],[111.54676,-7.98176],[111.54735,-7.98216],[111.54759,-7.98243],[111.54774,-7.98272],[111.54779,-7.98291],[111.54778,-7.98312],[111.54771,-7.98336],[111.54764,-7.98349],[111.54753,-7.98359],[111.54715,-7.98374],[111.54679,-7.98377],[111.5463,-7.98365],[111.54591,-7.98364],[111.54553,-7.98372],[111.5452,-7.98391],[111.54501,-7.9841],[111.54483,-7.98445],[111.54477,-7.98467],[111.54472,-7.98511],[111.54466,-7.98528],[111.54448,-7.98551],[111.54397,-7.98591],[111.54378,-7.98612],[111.54368,-7.98635],[111.54361,-7.98673],[111.54362,-7.98714],[111.54371,-7.98752],[111.54387,-7.98793],[111.5441,-7.98832],[111.54426,-7.98851],[111.54455,-7.98878],[111.54519,-7.98926],[111.54583,-7.98966],[111.54608,-7.98989],[111.54637,-7.99029],[111.54702,-7.99148],[111.54717,-7.99169],[111.54741,-7.99184],[111.54776,-7.99197],[111.54796,-7.992],[111.54863,-7.99199],[111.54898,-7.99211],[111.54922,-7.99226],[111.54936,-7.9924],[111.54948,-7.99263],[111.54949,-7.99282],[111.54938,-7.99303],[111.54913,-7.99316],[111.54875,-7.99326],[111.5481,-7.99328],[111.54773,-7.99343],[111.54741,-7.99369],[111.54721,-7.99407],[111.54697,-7.99435],[111.54671,-7.99454],[111.54636,-7.99464],[111.54589,-7.99463],[111.54534,-7.99447],[111.54505,-7.99431],[111.54438,-7.99384],[111.54385,-7.99359],[111.54352,-7.9935],[111.54304,-7.99347],[111.54279,-7.99351],[111.54257,-7.99365],[111.54232,-7.99396],[111.54224,-7.99413],[111.5422,-7.99434],[111.54225,-7.99517],[111.54222,-7.99549],[111.54211,-7.99579],[111.54177,-7.99649],[111.54153,-7.99716],[111.54154,-7.99759],[111.54165,-7.99802],[111.54183,-7.99841],[111.54205,-7.99878],[111.54292,-7.99997],[111.54333,-8.00036],[111.54448,-8.00123],[111.54487,-8.00157],[111.54514,-8.00193],[111.54521,-8.00211],[111.54522,-8.00228],[111.54518,-8.00255],[111.54509,-8.00279],[111.54477,-8.00339],[111.54433,-8.00393],[111.54388,-8.00429],[111.54354,-8.00442],[111.54316,-8.00444],[111.54271,-8.00437],[111.54209,-8.00416],[111.54143,-8.00385],[111.5411,-8.00363],[111.53972,-8.00232],[111.53918,-8.00191],[111.53782,-8.00097],[111.53721,-8.00044],[111.5369,-8.00009],[111.53669,-7.99978],[111.53621,-7.99878],[111.53582,-7.99812],[111.53551,-7.99771],[111.53524,-7.99743],[111.53484,-7.9972],[111.53398,-7.99688],[111.53358,-7.99685],[111.53323,-7.99699],[111.53313,-7.99511],[111.53282,-7.99186],[111.53257,-7.9895],[111.53232,-7.98772],[111.53207,-7.98367],[111.53198,-7.98174],[111.53198,-7.97973],[111.53107,-7.97973],[111.52943,-7.97961],[111.52939,-7.97748],[111.52942,-7.97559],[111.52994,-7.97558],[111.53113,-7.97561],[111.53178,-7.97555],[111.53206,-7.97548],[111.53231,-7.97533],[111.53252,-7.97512],[111.53275,-7.97483],[111.53298,-7.97439],[111.53311,-7.97424],[111.5336,-7.97393],[111.53408,-7.97375],[111.5349,-7.97358],[111.53514,-7.97357],[111.53552,-7.97364],[111.53625,-7.97385],[111.53688,-7.9739],[111.53717,-7.97385],[111.53743,-7.9737],[111.53779,-7.97338],[111.53791,-7.97316],[111.5379,-7.97234],[111.5378,-7.97161],[111.53797,-7.97095],[111.538,-7.97071],[111.53817,-7.97093],[111.53835,-7.97107],[111.5386,-7.97104],[111.5389,-7.97095],[111.53889,-7.97061],[111.53892,-7.97015],[111.5411,-7.97045],[111.5412,-7.96891],[111.54093,-7.9688],[111.54089,-7.96867],[111.54088,-7.96856],[111.54091,-7.96842],[111.54089,-7.96825],[111.54083,-7.96817],[111.54066,-7.96681],[111.54078,-7.96606],[111.5407,-7.96594],[111.5407,-7.9658],[111.54079,-7.96572],[111.54083,-7.96549],[111.54073,-7.96545],[111.54107,-7.96508],[111.54151,-7.96511],[111.54153,-7.96499],[111.5416,-7.9649],[111.54149,-7.96459],[111.54145,-7.96457],[111.54149,-7.96446],[111.54145,-7.96432],[111.54162,-7.96391],[111.54168,-7.96384],[111.54177,-7.96382],[111.54193,-7.96349],[111.54261,-7.96313],[111.543,-7.96314],[111.54299,-7.96322],[111.54427,-7.96283],[111.54461,-7.96268],[111.54475,-7.96287],[111.54491,-7.96351],[111.54498,-7.96364],[111.54507,-7.96375],[111.54519,-7.96382],[111.54533,-7.96388],[111.54556,-7.96388],[111.54563,-7.96381],[111.54567,-7.96371],[111.54563,-7.96307],[111.54571,-7.96297],[111.54592,-7.96286],[111.54594,-7.96275],[111.54577,-7.96259],[111.54556,-7.96227],[111.54534,-7.96223],[111.54523,-7.96227],[111.54504,-7.96226],[111.54499,-7.96209],[111.54503,-7.96189],[111.5452,-7.96163],[111.54525,-7.96147],[111.54538,-7.9613],[111.54565,-7.96128],[111.54687,-7.9616],[111.54723,-7.96175],[111.5476,-7.96174],[111.54772,-7.96043],[111.54715,-7.96041],[111.54627,-7.96027],[111.54451,-7.96011],[111.54429,-7.96044],[111.54413,-7.96055],[111.54377,-7.96069],[111.54246,-7.96066],[111.54246,-7.9606],[111.54192,-7.96059],[111.54185,-7.96054],[111.54165,-7.96053],[111.5412,-7.96044],[111.5409,-7.96045],[111.54087,-7.95988],[111.54083,-7.95986],[111.54007,-7.95998],[111.53999,-7.95983],[111.53999,-7.95971],[111.53958,-7.95985],[111.53952,-7.95978],[111.53935,-7.95974],[111.53916,-7.95959],[111.53899,-7.95959],[111.53887,-7.95948],[111.53881,-7.95937],[111.53868,-7.95887],[111.53887,-7.95876],[111.53871,-7.95839],[111.5385,-7.95803],[111.53811,-7.95746],[111.53818,-7.95742],[111.53827,-7.9573],[111.53847,-7.95688],[111.53852,-7.95671],[111.53858,-7.95623],[111.53866,-7.95602],[111.53872,-7.95594],[111.53893,-7.95583],[111.53896,-7.95577],[111.53895,-7.95564],[111.53888,-7.95553],[111.53888,-7.95523],[111.5388,-7.95501],[111.53906,-7.95475],[111.53947,-7.95424],[111.53968,-7.95392],[111.53991,-7.95346],[111.54061,-7.95294],[111.54075,-7.95273],[111.5408,-7.95255],[111.54077,-7.95205],[111.54068,-7.95187],[111.54067,-7.95173],[111.5407,-7.95155],[111.54087,-7.95117],[111.54087,-7.95102],[111.54061,-7.95067],[111.54049,-7.95058],[111.54017,-7.9504],[111.53954,-7.95021],[111.53915,-7.95002],[111.53888,-7.94985],[111.53857,-7.94955],[111.53836,-7.94943],[111.53798,-7.94932],[111.53749,-7.94931],[111.5372,-7.94926],[111.53695,-7.94911],[111.53631,-7.9489],[111.53603,-7.94875],[111.5357,-7.94846],[111.53548,-7.94818],[111.53539,-7.94796],[111.53525,-7.9474],[111.5351,-7.94715],[111.53472,-7.94677],[111.53427,-7.94648],[111.53402,-7.94638],[111.5337,-7.94633],[111.53256,-7.94643],[111.53213,-7.94641],[111.5316,-7.94622],[111.53136,-7.94604],[111.53123,-7.9458],[111.53113,-7.94539],[111.53118,-7.94415],[111.53138,-7.94331],[111.53161,-7.94295],[111.53195,-7.9431],[111.53327,-7.94344],[111.53344,-7.94343],[111.53379,-7.94327],[111.53353,-7.94232],[111.5328,-7.94018],[111.53277,-7.93999],[111.53267,-7.9398],[111.5325,-7.93963],[111.53246,-7.93954],[111.53248,-7.93945],[111.53258,-7.93935],[111.53306,-7.93928],[111.53317,-7.93919],[111.53323,-7.93907],[111.53323,-7.93899],[111.53313,-7.93859],[111.53313,-7.93844],[111.53321,-7.93838],[111.53336,-7.93836],[111.53356,-7.93839],[111.53371,-7.93834],[111.53388,-7.93812],[111.53399,-7.93773],[111.53413,-7.93748],[111.5342,-7.93722],[111.53429,-7.9371],[111.53451,-7.93694],[111.53464,-7.93693],[111.53471,-7.93696],[111.53485,-7.93724],[111.53507,-7.93746],[111.5352,-7.93743],[111.53537,-7.93727],[111.53541,-7.93718],[111.53548,-7.93716],[111.53556,-7.93716],[111.53574,-7.93739],[111.53594,-7.93754],[111.53611,-7.93759],[111.53625,-7.93758],[111.53643,-7.9375],[111.5365,-7.93743],[111.53663,-7.9371],[111.53666,-7.93692],[111.53672,-7.93683],[111.5368,-7.9368],[111.53704,-7.93692],[111.53715,-7.93692],[111.53733,-7.93673],[111.53744,-7.93649],[111.53763,-7.93633],[111.53766,-7.93622],[111.5377,-7.9362],[111.53803,-7.93625],[111.53823,-7.93607],[111.53841,-7.93601],[111.53864,-7.93575],[111.53891,-7.93553],[111.53917,-7.93563],[111.53928,-7.93574],[111.53938,-7.93594],[111.53969,-7.93635],[111.53975,-7.9364],[111.53983,-7.9364],[111.53999,-7.93618],[111.53993,-7.93598],[111.53996,-7.93589],[111.54013,-7.93586],[111.54024,-7.93567],[111.54035,-7.9358],[111.54054,-7.93582],[111.54073,-7.93581],[111.54086,-7.93574],[111.5409,-7.93567],[111.54092,-7.93532],[111.5409,-7.93515],[111.54096,-7.93502],[111.54102,-7.93498],[111.54111,-7.93495],[111.54129,-7.93504],[111.54149,-7.93502],[111.54153,-7.93513],[111.54163,-7.93528],[111.5417,-7.93528],[111.54195,-7.93507],[111.54198,-7.93498],[111.54196,-7.93485],[111.54192,-7.93478],[111.54192,-7.93456],[111.54195,-7.93442],[111.54202,-7.93432],[111.54272,-7.93386],[111.54288,-7.93379],[111.54316,-7.93378],[111.54332,-7.93386],[111.5434,-7.93393],[111.54366,-7.93404],[111.54405,-7.93431],[111.54446,-7.93427],[111.54458,-7.9342],[111.54494,-7.93386],[111.54502,-7.93367],[111.54531,-7.93355],[111.54542,-7.93343],[111.54546,-7.93322],[111.54551,-7.93315],[111.54563,-7.93309],[111.54576,-7.93282],[111.54586,-7.93275],[111.5461,-7.93271],[111.54657,-7.93294],[111.5467,-7.93292],[111.54694,-7.93276],[111.54699,-7.93276],[111.54709,-7.93287],[111.54717,-7.9329],[111.5473,-7.93291],[111.54744,-7.93285],[111.54764,-7.9326],[111.54764,-7.93249],[111.54788,-7.9321],[111.54795,-7.93188],[111.548,-7.93186],[111.5481,-7.93185],[111.54851,-7.932],[111.54881,-7.932],[111.54938,-7.93228],[111.54946,-7.93227],[111.54955,-7.93218],[111.54974,-7.93186],[111.54989,-7.93178],[111.55015,-7.93177],[111.55024,-7.93181],[111.55037,-7.93181],[111.55071,-7.93175],[111.55082,-7.93165],[111.55091,-7.9315],[111.55091,-7.93141],[111.55105,-7.93101],[111.55098,-7.93083],[111.55081,-7.93075],[111.55044,-7.93047],[111.55033,-7.93024],[111.55037,-7.92992],[111.55061,-7.92953],[111.55072,-7.92929],[111.55077,-7.9291],[111.55079,-7.92854],[111.55099,-7.92854],[111.55153,-7.92877],[111.55161,-7.92877],[111.55177,-7.92862],[111.55178,-7.92845],[111.55173,-7.92839],[111.55159,-7.92831],[111.55147,-7.92818],[111.55143,-7.928],[111.55154,-7.92785],[111.55164,-7.92781],[111.55179,-7.9279],[111.55196,-7.92791],[111.55214,-7.92742],[111.55214,-7.92726],[111.55202,-7.92706],[111.55191,-7.92701],[111.55182,-7.92692],[111.55177,-7.92678],[111.55179,-7.9266],[111.55192,-7.9264],[111.55218,-7.92617],[111.55248,-7.92619],[111.55306,-7.92634],[111.55345,-7.92635],[111.55375,-7.9263],[111.55427,-7.92613],[111.55469,-7.92611],[111.55492,-7.92628],[111.55505,-7.92648],[111.55514,-7.92686],[111.55524,-7.92707],[111.55534,-7.92713],[111.55563,-7.92715],[111.55578,-7.92713],[111.55601,-7.92704],[111.55631,-7.92682],[111.55643,-7.9267],[111.55665,-7.92628],[111.55681,-7.92605],[111.5569,-7.92596],[111.5573,-7.9258],[111.5575,-7.92562],[111.55762,-7.92556],[111.55775,-7.92557],[111.55805,-7.92569],[111.55832,-7.92567],[111.55848,-7.92553],[111.55867,-7.92518],[111.55902,-7.92495],[111.55921,-7.92494],[111.55963,-7.92506],[111.55983,-7.92515],[111.56026,-7.92547],[111.56062,-7.92568],[111.56105,-7.92572],[111.56123,-7.92567],[111.56135,-7.92557],[111.56164,-7.92519],[111.56195,-7.92519],[111.56225,-7.92528],[111.56236,-7.92529],[111.56282,-7.92514],[111.56299,-7.92498],[111.56311,-7.92474],[111.56325,-7.92464],[111.56344,-7.92458],[111.56378,-7.92452],[111.56386,-7.92447],[111.56413,-7.92407],[111.56426,-7.92397],[111.56443,-7.92398],[111.56478,-7.92413],[111.56498,-7.92417],[111.56504,-7.92413],[111.5651,-7.924],[111.56508,-7.92393],[111.56501,-7.92381],[111.56506,-7.92374],[111.56516,-7.9237],[111.56558,-7.92379],[111.56579,-7.92365],[111.56616,-7.92365],[111.56628,-7.92355],[111.56639,-7.92351],[111.56648,-7.92352],[111.56658,-7.92359],[111.56663,-7.92367],[111.56671,-7.92396],[111.56687,-7.92409],[111.56731,-7.92422],[111.56751,-7.92413],[111.56761,-7.92413],[111.56812,-7.9244],[111.56796,-7.92409],[111.56771,-7.92389],[111.5677,-7.92378],[111.56773,-7.92371],[111.56782,-7.92361],[111.56825,-7.92332],[111.56851,-7.92281],[111.56866,-7.92265],[111.5689,-7.92246],[111.56988,-7.92188],[111.57031,-7.92177],[111.57053,-7.92152],[111.57058,-7.92139],[111.57095,-7.92101],[111.57099,-7.92078],[111.57096,-7.9207],[111.57056,-7.92008],[111.57048,-7.91988],[111.57049,-7.91977],[111.5707,-7.91931],[111.57066,-7.91906],[111.57082,-7.91877],[111.57091,-7.91871],[111.57128,-7.91858],[111.57154,-7.91843],[111.57185,-7.91841],[111.57194,-7.91854],[111.57208,-7.91897],[111.57179,-7.91909],[111.57154,-7.91925],[111.57156,-7.91971],[111.57173,-7.92009],[111.57203,-7.92103],[111.57242,-7.9218],[111.57285,-7.92236],[111.57486,-7.92434]]]]}},{"type":"Feature","properties":{"deskripsi":"Breksi Andesit Dengan Sisipan Tuf Dibagian Bawah; Serta Tuf Dibagian Atas Dengan Sisipan Batugamping","pulau":"Jawa","litologi":"Batuan Padu","kelulusan":"Rendah","umur":"Tm","_cls":"Batuan Padu"},"geometry":{"type":"Polygon","coordinates":[[[111.59246,-7.93661],[111.59246,-7.93689],[111.59308,-7.93685],[111.59323,-7.93674],[111.59332,-7.93654],[111.59335,-7.93637],[111.59331,-7.93535],[111.59339,-7.93504],[111.59367,-7.93438],[111.594,-7.93409],[111.59483,-7.93395],[111.59496,-7.93389],[111.59511,-7.93359],[111.59554,-7.93337],[111.59619,-7.93334],[111.59715,-7.93344],[111.59731,-7.9334],[111.59762,-7.93323],[111.59793,-7.93316],[111.59823,-7.9332],[111.59859,-7.9334],[111.59867,-7.93351],[111.59899,-7.93421],[111.5992,-7.9346],[111.59935,-7.93474],[111.59958,-7.93484],[111.59982,-7.93488],[111.60003,-7.93485],[111.60045,-7.9346],[111.60158,-7.93417],[111.60199,-7.93408],[111.60226,-7.9341],[111.6024,-7.93408],[111.60256,-7.93415],[111.6027,-7.93431],[111.60321,-7.93541],[111.60339,-7.93573],[111.60357,-7.93592],[111.60383,-7.93606],[111.60406,-7.93612],[111.60418,-7.93611],[111.60458,-7.93591],[111.60482,-7.93573],[111.60583,-7.93593],[111.6059,-7.93599],[111.60618,-7.93582],[111.60624,-7.93571],[111.60642,-7.93582],[111.60675,-7.93611],[111.60728,-7.93632],[111.60754,-7.93633],[111.60858,-7.93626],[111.60899,-7.93723],[111.60948,-7.93815],[111.61022,-7.9392],[111.61062,-7.93995],[111.61144,-7.94103],[111.61176,-7.94157],[111.61206,-7.94218],[111.61233,-7.94284],[111.61259,-7.94368],[111.61305,-7.9457],[111.61315,-7.94646],[111.61323,-7.94678],[111.61332,-7.94703],[111.6135,-7.94727],[111.61353,-7.94739],[111.61345,-7.94765],[111.61311,-7.94818],[111.61259,-7.94917],[111.61188,-7.9502],[111.61118,-7.95101],[111.61088,-7.95105],[111.61065,-7.95114],[111.61046,-7.95131],[111.61022,-7.95163],[111.61018,-7.95174],[111.61018,-7.95189],[111.6103,-7.95223],[111.61048,-7.95244],[111.61078,-7.95262],[111.61009,-7.95387],[111.60979,-7.95383],[111.60944,-7.95384],[111.60894,-7.9539],[111.60852,-7.95399],[111.6063,-7.95482],[111.6045,-7.95564],[111.6041,-7.95575],[111.60308,-7.95597],[111.60275,-7.95599],[111.60199,-7.95592],[111.60102,-7.9558],[111.6005,-7.95569],[111.60005,-7.95574],[111.59976,-7.95586],[111.59949,-7.9561],[111.59926,-7.95641],[111.59906,-7.95685],[111.59897,-7.95719],[111.59894,-7.9576],[111.59897,-7.95808],[111.59905,-7.9585],[111.5996,-7.96055],[111.59988,-7.96108],[111.60022,-7.96152],[111.60044,-7.96176],[111.60073,-7.962],[111.60112,-7.96223],[111.60146,-7.96239],[111.60189,-7.96251],[111.6043,-7.96301],[111.60384,-7.96356],[111.6032,-7.96449],[111.60264,-7.96514],[111.60164,-7.96607],[111.60054,-7.96695],[111.60042,-7.96711],[111.6004,-7.96727],[111.60048,-7.9675],[111.60068,-7.96781],[111.60123,-7.96847],[111.60143,-7.96876],[111.60153,-7.969],[111.60169,-7.96964],[111.60181,-7.96981],[111.60199,-7.96994],[111.60201,-7.97003],[111.60196,-7.97014],[111.60173,-7.97039],[111.60111,-7.97128],[111.59988,-7.9729],[111.59892,-7.97422],[111.59822,-7.97495],[111.59804,-7.97527],[111.59802,-7.97544],[111.59804,-7.97561],[111.59812,-7.97574],[111.59841,-7.97606],[111.59858,-7.97651],[111.5988,-7.9777],[111.59893,-7.97891],[111.59889,-7.9796],[111.59872,-7.98041],[111.59857,-7.98161],[111.59839,-7.98228],[111.59753,-7.98475],[111.59709,-7.98569],[111.59632,-7.98702],[111.59536,-7.98842],[111.59421,-7.98992],[111.59363,-7.99058],[111.593,-7.99123],[111.59285,-7.99158],[111.59245,-7.99315],[111.59245,-7.99335],[111.59259,-7.99436],[111.59285,-7.99492],[111.59315,-7.99533],[111.59337,-7.99558],[111.59365,-7.99582],[111.59504,-7.99678],[111.59595,-7.9976],[111.59628,-7.99797],[111.59652,-7.99835],[111.59658,-7.99854],[111.59665,-7.99904],[111.59673,-7.99921],[111.59687,-7.99928],[111.59742,-7.99923],[111.59762,-7.99927],[111.59775,-7.99947],[111.59787,-7.99991],[111.59787,-8.00023],[111.59777,-8.00058],[111.59756,-8.00099],[111.59686,-8.00209],[111.59672,-8.00242],[111.59666,-8.00266],[111.59665,-8.00296],[111.59669,-8.00337],[111.59708,-8.00488],[111.59715,-8.0054],[111.5971,-8.00625],[111.5969,-8.00729],[111.59669,-8.00792],[111.59647,-8.00839],[111.59612,-8.00882],[111.59519,-8.00975],[111.59502,-8.01001],[111.59496,-8.01022],[111.59498,-8.01041],[111.5951,-8.0106],[111.59533,-8.0108],[111.59592,-8.01118],[111.59625,-8.01143],[111.59644,-8.01165],[111.59655,-8.01195],[111.59659,-8.01225],[111.59658,-8.01257],[111.59637,-8.01411],[111.59633,-8.01542],[111.59624,-8.01605],[111.59607,-8.01649],[111.59592,-8.0167],[111.59573,-8.01689],[111.59519,-8.01725],[111.59448,-8.01757],[111.59286,-8.01811],[111.59201,-8.01832],[111.59092,-8.01848],[111.58978,-8.01852],[111.59013,-8.01788],[111.59035,-8.01727],[111.59043,-8.0167],[111.59038,-8.01615],[111.59029,-8.01591],[111.59008,-8.01561],[111.5892,-8.0148],[111.58886,-8.01439],[111.58876,-8.01415],[111.58868,-8.01383],[111.58865,-8.01354],[111.58865,-8.01306],[111.58878,-8.01214],[111.58904,-8.01098],[111.58931,-8.01033],[111.59002,-8.00894],[111.59017,-8.00852],[111.59024,-8.00822],[111.59028,-8.00786],[111.59025,-8.00749],[111.59018,-8.00711],[111.58981,-8.00573],[111.58976,-8.00538],[111.58976,-8.00499],[111.58983,-8.00466],[111.58996,-8.00429],[111.59053,-8.00317],[111.59073,-8.00271],[111.59085,-8.00225],[111.59086,-8.00179],[111.5908,-8.00117],[111.59055,-7.99982],[111.59032,-7.9981],[111.59015,-7.99753],[111.58984,-7.99691],[111.58973,-7.99659],[111.58971,-7.99632],[111.58975,-7.9956],[111.58974,-7.99489],[111.58968,-7.99427],[111.58958,-7.99399],[111.58929,-7.99342],[111.58901,-7.99275],[111.58889,-7.99237],[111.58884,-7.99203],[111.58884,-7.9912],[111.5889,-7.99087],[111.58896,-7.99069],[111.58912,-7.99037],[111.58916,-7.99009],[111.58944,-7.9895],[111.58968,-7.98887],[111.58984,-7.98827],[111.58992,-7.98766],[111.59004,-7.98734],[111.59011,-7.98706],[111.59016,-7.98433],[111.59014,-7.98395],[111.59008,-7.98364],[111.58948,-7.98169],[111.58922,-7.98051],[111.58918,-7.97981],[111.58923,-7.9784],[111.58924,-7.9761],[111.58916,-7.97548],[111.58893,-7.97432],[111.58881,-7.97389],[111.58868,-7.97363],[111.58843,-7.97328],[111.58808,-7.97294],[111.58771,-7.97273],[111.58701,-7.97257],[111.58655,-7.97243],[111.58616,-7.97228],[111.58577,-7.97208],[111.58534,-7.97174],[111.58451,-7.9708],[111.58422,-7.97053],[111.58345,-7.96999],[111.58273,-7.96957],[111.58278,-7.96923],[111.58292,-7.96884],[111.58293,-7.96865],[111.58303,-7.96835],[111.58303,-7.96796],[111.58312,-7.96755],[111.58313,-7.96737],[111.58297,-7.96646],[111.58266,-7.9652],[111.58243,-7.96443],[111.58229,-7.96407],[111.58158,-7.96266],[111.58028,-7.96079],[111.57989,-7.96003],[111.5798,-7.95976],[111.57974,-7.95916],[111.57961,-7.95852],[111.57952,-7.95734],[111.57917,-7.95589],[111.57898,-7.95536],[111.57868,-7.95474],[111.57822,-7.95389],[111.57726,-7.95232],[111.57663,-7.95101],[111.5765,-7.95045],[111.57653,-7.9495],[111.57648,-7.9489],[111.57642,-7.94858],[111.5763,-7.94823],[111.57592,-7.94755],[111.57532,-7.94674],[111.57502,-7.94645],[111.57454,-7.94625],[111.57447,-7.94615],[111.57445,-7.946],[111.57462,-7.94525],[111.57463,-7.94427],[111.57471,-7.94345],[111.57472,-7.94276],[111.57483,-7.94167],[111.57491,-7.93972],[111.57502,-7.93865],[111.57496,-7.93767],[111.5749,-7.93722],[111.57479,-7.93684],[111.5748,-7.9367],[111.57495,-7.93655],[111.57516,-7.93645],[111.57551,-7.93636],[111.57576,-7.93617],[111.57584,-7.93605],[111.57592,-7.93583],[111.57591,-7.93551],[111.57597,-7.93533],[111.57608,-7.93515],[111.57627,-7.93499],[111.57642,-7.93497],[111.5767,-7.93505],[111.57731,-7.93535],[111.57747,-7.93539],[111.57765,-7.93536],[111.57801,-7.93511],[111.57811,-7.93495],[111.57831,-7.93428],[111.57882,-7.93387],[111.57903,-7.9336],[111.57921,-7.9332],[111.57934,-7.93276],[111.57972,-7.93204],[111.57996,-7.93175],[111.58031,-7.93148],[111.58053,-7.93142],[111.58081,-7.93144],[111.58107,-7.93153],[111.5813,-7.93169],[111.58143,-7.93184],[111.58157,-7.93214],[111.58173,-7.93275],[111.58188,-7.93298],[111.58203,-7.93312],[111.5829,-7.93361],[111.58449,-7.93431],[111.58497,-7.93458],[111.5852,-7.93477],[111.58547,-7.93511],[111.5863,-7.93646],[111.5863,-7.9368],[111.5862,-7.93719],[111.58627,-7.9375],[111.58632,-7.93754],[111.58654,-7.93757],[111.58689,-7.93782],[111.5872,-7.93799],[111.58777,-7.9381],[111.588,-7.93808],[111.58824,-7.938],[111.58868,-7.93764],[111.58897,-7.93727],[111.58912,-7.93716],[111.5895,-7.93723],[111.58983,-7.93743],[111.59018,-7.93745],[111.59119,-7.93709],[111.59207,-7.93691],[111.59246,-7.93661]],[[111.59531,-7.95991],[111.59571,-7.95984],[111.59607,-7.95974],[111.59634,-7.95953],[111.59668,-7.95935],[111.59681,-7.95922],[111.59689,-7.95892],[111.59691,-7.95834],[111.59677,-7.95797],[111.59657,-7.95776],[111.59639,-7.9577],[111.59601,-7.9577],[111.59549,-7.95782],[111.59497,-7.95799],[111.5946,-7.95816],[111.59428,-7.95836],[111.59385,-7.9587],[111.59365,-7.95893],[111.59356,-7.95921],[111.59356,-7.95947],[111.59363,-7.95964],[111.59377,-7.95977],[111.59391,-7.95984],[111.59431,-7.95991],[111.59531,-7.95991]]]}},{"type":"Feature","properties":{"deskripsi":"Batupasir Kuarsa, Batupasir Tufan, Batulanau, Batulempung, Napal, Dan Batugamping Napalan","pulau":"Jawa","litologi":"Batuan Padu","kelulusan":"Rendah","umur":"Tm","_cls":"Batuan Padu"},"geometry":{"type":"Polygon","coordinates":[[[111.58273,-7.96957],[111.58345,-7.96999],[111.58422,-7.97053],[111.58451,-7.9708],[111.58534,-7.97174],[111.58571,-7.97204],[111.58604,-7.97222],[111.58655,-7.97243],[111.58701,-7.97257],[111.58771,-7.97273],[111.58795,-7.97285],[111.5882,-7.97304],[111.58854,-7.97342],[111.58881,-7.97389],[111.58893,-7.97432],[111.58916,-7.97548],[111.58924,-7.97639],[111.58923,-7.9784],[111.58918,-7.97965],[111.5892,-7.98033],[111.58927,-7.9808],[111.58943,-7.98152],[111.58999,-7.98332],[111.59012,-7.98385],[111.59016,-7.98433],[111.59015,-7.98608],[111.59011,-7.98706],[111.59004,-7.98734],[111.58992,-7.98766],[111.58985,-7.9882],[111.58977,-7.98857],[111.58953,-7.98929],[111.58916,-7.99009],[111.58914,-7.99034],[111.58896,-7.99069],[111.58888,-7.99099],[111.58884,-7.9912],[111.58884,-7.99203],[111.58889,-7.99237],[111.58901,-7.99275],[111.58929,-7.99342],[111.58958,-7.99399],[111.5897,-7.99439],[111.58974,-7.99489],[111.58975,-7.9956],[111.58971,-7.99632],[111.58973,-7.99659],[111.58984,-7.99691],[111.59015,-7.99753],[111.59032,-7.9981],[111.59055,-7.99982],[111.59083,-8.00135],[111.59087,-8.00199],[111.59083,-8.00232],[111.59073,-8.00271],[111.59053,-8.00317],[111.58996,-8.00429],[111.58983,-8.00466],[111.58976,-8.00499],[111.58976,-8.00538],[111.58981,-8.00573],[111.59018,-8.00711],[111.59025,-8.00749],[111.59028,-8.00786],[111.59024,-8.00822],[111.59017,-8.00852],[111.59002,-8.00894],[111.58931,-8.01033],[111.58904,-8.01098],[111.58874,-8.01234],[111.58867,-8.01289],[111.58864,-8.01339],[111.58872,-8.01402],[111.5888,-8.01427],[111.5889,-8.01445],[111.5892,-8.0148],[111.59002,-8.01555],[111.59029,-8.01591],[111.59041,-8.01628],[111.59043,-8.01677],[111.59037,-8.0172],[111.59026,-8.01757],[111.59006,-8.01804],[111.58978,-8.01852],[111.58968,-8.01947],[111.58947,-8.02035],[111.58928,-8.02054],[111.58764,-8.02264],[111.58668,-8.02361],[111.58598,-8.02406],[111.58527,-8.02444],[111.58337,-8.02514],[111.58273,-8.02572],[111.58261,-8.0266],[111.58234,-8.02701],[111.58189,-8.02791],[111.58111,-8.02913],[111.58068,-8.03003],[111.58035,-8.03081],[111.58006,-8.03118],[111.58,-8.03118],[111.57969,-8.03113],[111.57948,-8.03104],[111.57927,-8.03085],[111.57908,-8.03058],[111.57888,-8.03016],[111.57875,-8.02973],[111.57865,-8.02929],[111.57862,-8.02881],[111.5787,-8.02837],[111.5791,-8.02736],[111.57923,-8.0268],[111.57923,-8.02621],[111.57909,-8.02482],[111.5791,-8.02444],[111.57915,-8.02419],[111.57924,-8.0239],[111.57944,-8.02346],[111.5804,-8.02174],[111.58051,-8.02138],[111.58049,-8.02111],[111.58037,-8.02099],[111.58019,-8.02094],[111.57986,-8.02094],[111.57861,-8.02105],[111.57831,-8.021],[111.57818,-8.02089],[111.57811,-8.02068],[111.57812,-8.02038],[111.57843,-8.01924],[111.57851,-8.01873],[111.57845,-8.01825],[111.57834,-8.01778],[111.57801,-8.01695],[111.57751,-8.01606],[111.57675,-8.01498],[111.57618,-8.01439],[111.57573,-8.01409],[111.57535,-8.01395],[111.575,-8.01389],[111.57368,-8.01377],[111.5733,-8.01368],[111.57278,-8.0135],[111.57121,-8.01279],[111.56983,-8.01232],[111.56937,-8.01212],[111.56915,-8.012],[111.56894,-8.01184],[111.56883,-8.01167],[111.5688,-8.01149],[111.56885,-8.01132],[111.56901,-8.01106],[111.57001,-8.01],[111.57023,-8.00971],[111.57038,-8.00943],[111.57045,-8.00917],[111.57048,-8.00887],[111.57038,-8.00754],[111.57042,-8.00711],[111.57047,-8.00693],[111.57059,-8.00672],[111.57077,-8.00652],[111.57099,-8.00635],[111.57135,-8.00616],[111.5718,-8.006],[111.57331,-8.00558],[111.57395,-8.00536],[111.57445,-8.00512],[111.57563,-8.00446],[111.5762,-8.00422],[111.5768,-8.00412],[111.57838,-8.00417],[111.57933,-8.00406],[111.57988,-8.00396],[111.58032,-8.00384],[111.58065,-8.00368],[111.58089,-8.00347],[111.58099,-8.00326],[111.58104,-8.00301],[111.58104,-8.0027],[111.58098,-8.00231],[111.58047,-8.0004],[111.5802,-7.99897],[111.57939,-7.99623],[111.57926,-7.99557],[111.57925,-7.995],[111.5793,-7.99476],[111.5794,-7.99456],[111.57953,-7.99441],[111.57966,-7.99432],[111.5799,-7.99423],[111.58054,-7.99425],[111.58074,-7.99417],[111.58089,-7.99395],[111.58113,-7.99372],[111.5814,-7.99337],[111.58183,-7.9929],[111.58203,-7.9925],[111.58206,-7.99233],[111.58205,-7.99217],[111.58197,-7.99192],[111.58186,-7.99172],[111.58149,-7.99138],[111.58135,-7.99111],[111.58113,-7.99093],[111.58086,-7.99031],[111.58075,-7.98979],[111.58069,-7.98972],[111.58052,-7.98961],[111.58056,-7.98923],[111.58066,-7.98887],[111.58063,-7.98871],[111.58056,-7.98856],[111.58041,-7.98839],[111.58016,-7.98826],[111.58,-7.98823],[111.57961,-7.98834],[111.57938,-7.98834],[111.57916,-7.98826],[111.579,-7.98812],[111.57894,-7.98795],[111.57895,-7.98627],[111.57861,-7.98591],[111.57835,-7.98575],[111.57811,-7.98554],[111.57775,-7.98513],[111.57765,-7.98512],[111.57756,-7.98507],[111.57754,-7.98434],[111.57735,-7.98417],[111.57697,-7.98402],[111.5768,-7.98391],[111.57653,-7.98361],[111.57639,-7.98333],[111.57633,-7.98301],[111.57639,-7.98282],[111.57661,-7.98257],[111.5772,-7.98215],[111.57732,-7.98193],[111.57735,-7.98173],[111.5773,-7.98163],[111.57699,-7.98121],[111.57675,-7.98093],[111.57657,-7.98058],[111.57655,-7.98029],[111.57664,-7.98006],[111.57665,-7.9798],[111.57674,-7.97962],[111.57675,-7.97949],[111.57665,-7.97911],[111.57664,-7.97875],[111.57645,-7.97828],[111.57643,-7.97797],[111.57616,-7.97757],[111.57601,-7.97706],[111.5755,-7.97642],[111.57525,-7.9758],[111.57531,-7.97557],[111.57545,-7.97542],[111.57562,-7.97541],[111.57601,-7.97546],[111.57619,-7.97543],[111.57632,-7.97537],[111.57639,-7.97527],[111.57644,-7.97507],[111.57645,-7.97495],[111.57641,-7.97484],[111.57631,-7.9747],[111.57616,-7.97458],[111.575,-7.97401],[111.57397,-7.97327],[111.57111,-7.97139],[111.57011,-7.97065],[111.56903,-7.96968],[111.56873,-7.96934],[111.56851,-7.969],[111.56826,-7.96849],[111.56806,-7.96796],[111.56797,-7.96762],[111.56794,-7.96735],[111.56795,-7.9669],[111.568,-7.96653],[111.56811,-7.96612],[111.56824,-7.96583],[111.56845,-7.96553],[111.56873,-7.96526],[111.56888,-7.96517],[111.56908,-7.96511],[111.56999,-7.96511],[111.57042,-7.96506],[111.57065,-7.96497],[111.57112,-7.9646],[111.57157,-7.96399],[111.57205,-7.96351],[111.57246,-7.9632],[111.57284,-7.96301],[111.57326,-7.96288],[111.57368,-7.96287],[111.57403,-7.96293],[111.57465,-7.96315],[111.5751,-7.96321],[111.57576,-7.963],[111.57599,-7.96289],[111.57682,-7.96228],[111.57713,-7.96212],[111.57751,-7.962],[111.57784,-7.96194],[111.57813,-7.96192],[111.5785,-7.96197],[111.57885,-7.96208],[111.57921,-7.96233],[111.57953,-7.96268],[111.57983,-7.96295],[111.57995,-7.96312],[111.58002,-7.96331],[111.58003,-7.96402],[111.58001,-7.96442],[111.57995,-7.96471],[111.57979,-7.96518],[111.57974,-7.96551],[111.57972,-7.96676],[111.57978,-7.96724],[111.57992,-7.96772],[111.58027,-7.96867],[111.58044,-7.96905],[111.58072,-7.96947],[111.58098,-7.96975],[111.58123,-7.96992],[111.5816,-7.97005],[111.58189,-7.97008],[111.58223,-7.97],[111.5825,-7.96983],[111.58273,-7.96957]]]}},{"type":"Feature","properties":{"deskripsi":"Perselingan Breksi Gunungapi, Lava, Dan Tuf","pulau":"Jawa","litologi":"Batuan Volkanik","kelulusan":"Sedang - Tinggi","umur":"To","_cls":"Batuan Volkanik"},"geometry":{"type":"MultiPolygon","coordinates":[[[[111.55434,-7.97198],[111.55479,-7.97241],[111.55527,-7.97275],[111.55558,-7.97303],[111.55594,-7.97347],[111.55622,-7.97415],[111.55637,-7.97437],[111.55668,-7.97465],[111.55722,-7.97502],[111.5574,-7.97521],[111.55756,-7.97551],[111.55767,-7.97587],[111.55762,-7.97651],[111.55766,-7.97662],[111.55774,-7.97671],[111.55786,-7.97681],[111.55799,-7.97687],[111.55808,-7.97685],[111.55844,-7.97663],[111.55868,-7.97667],[111.55883,-7.97676],[111.55893,-7.97695],[111.55898,-7.97717],[111.55896,-7.97787],[111.55903,-7.97803],[111.55911,-7.97809],[111.55947,-7.97808],[111.55967,-7.97797],[111.55983,-7.97793],[111.56005,-7.97792],[111.56024,-7.97796],[111.5605,-7.97809],[111.56112,-7.97874],[111.56126,-7.97878],[111.56144,-7.97876],[111.56182,-7.9786],[111.56224,-7.97823],[111.56262,-7.97781],[111.56307,-7.97711],[111.56341,-7.9767],[111.56386,-7.97629],[111.56448,-7.97588],[111.56473,-7.9758],[111.56576,-7.97576],[111.56637,-7.97591],[111.56665,-7.97604],[111.56695,-7.97623],[111.56736,-7.9766],[111.56765,-7.97703],[111.5678,-7.97743],[111.56791,-7.97834],[111.56798,-7.97862],[111.56826,-7.97909],[111.56863,-7.97949],[111.56893,-7.97969],[111.56936,-7.97985],[111.57072,-7.98018],[111.57191,-7.98028],[111.57215,-7.98037],[111.5724,-7.9805],[111.57289,-7.98085],[111.57332,-7.9812],[111.57395,-7.98182],[111.57446,-7.98239],[111.57503,-7.98313],[111.57559,-7.98408],[111.5761,-7.98476],[111.5763,-7.98489],[111.57716,-7.98523],[111.57741,-7.98536],[111.57761,-7.98529],[111.57775,-7.98513],[111.57819,-7.98561],[111.57865,-7.98594],[111.57877,-7.98611],[111.57893,-7.98624],[111.57896,-7.98632],[111.57894,-7.98795],[111.57897,-7.98808],[111.57911,-7.98823],[111.57928,-7.98832],[111.57958,-7.98834],[111.57993,-7.98824],[111.58005,-7.98823],[111.58032,-7.98833],[111.58052,-7.98851],[111.58061,-7.98866],[111.58066,-7.98884],[111.58056,-7.98923],[111.58052,-7.98961],[111.58069,-7.98972],[111.58075,-7.98979],[111.58086,-7.99031],[111.58113,-7.99093],[111.58135,-7.99111],[111.58149,-7.99138],[111.58186,-7.99172],[111.58203,-7.99209],[111.58206,-7.99225],[111.58205,-7.99243],[111.58186,-7.99286],[111.58116,-7.99369],[111.58089,-7.99395],[111.58076,-7.99415],[111.58057,-7.99425],[111.57993,-7.99423],[111.57966,-7.99432],[111.57953,-7.99441],[111.5794,-7.99456],[111.5793,-7.99476],[111.57925,-7.995],[111.57926,-7.99557],[111.57939,-7.99623],[111.5802,-7.99897],[111.58047,-8.0004],[111.58098,-8.00231],[111.58104,-8.0027],[111.58104,-8.00301],[111.58099,-8.00326],[111.58089,-8.00347],[111.58065,-8.00368],[111.58032,-8.00384],[111.57988,-8.00396],[111.57933,-8.00406],[111.57838,-8.00417],[111.5768,-8.00412],[111.5762,-8.00422],[111.57563,-8.00446],[111.57445,-8.00512],[111.57395,-8.00536],[111.57331,-8.00558],[111.5718,-8.006],[111.57135,-8.00616],[111.57099,-8.00635],[111.57077,-8.00652],[111.57059,-8.00672],[111.57047,-8.00693],[111.57042,-8.00711],[111.57038,-8.00754],[111.57048,-8.00887],[111.57045,-8.00917],[111.57038,-8.00943],[111.57023,-8.00971],[111.57001,-8.01],[111.56901,-8.01106],[111.56888,-8.01126],[111.56881,-8.01144],[111.56883,-8.01167],[111.56898,-8.01187],[111.56925,-8.01206],[111.5697,-8.01227],[111.57121,-8.01279],[111.57258,-8.01342],[111.57314,-8.01363],[111.57368,-8.01377],[111.575,-8.01389],[111.57535,-8.01395],[111.57573,-8.01409],[111.57618,-8.01439],[111.57675,-8.01498],[111.57751,-8.01606],[111.57801,-8.01695],[111.57834,-8.01778],[111.57845,-8.01825],[111.57851,-8.01873],[111.57843,-8.01924],[111.57812,-8.02038],[111.57811,-8.02068],[111.57818,-8.02089],[111.57831,-8.021],[111.57861,-8.02105],[111.57986,-8.02094],[111.58019,-8.02094],[111.5804,-8.02101],[111.58047,-8.02109],[111.58052,-8.02121],[111.58049,-8.02147],[111.58035,-8.02184],[111.57944,-8.02346],[111.57924,-8.0239],[111.57915,-8.02419],[111.5791,-8.02444],[111.57909,-8.02482],[111.57923,-8.02621],[111.57923,-8.0268],[111.5791,-8.02736],[111.5787,-8.02837],[111.57862,-8.02881],[111.57865,-8.02929],[111.57877,-8.02982],[111.57891,-8.03023],[111.57912,-8.03064],[111.57931,-8.0309],[111.57952,-8.03106],[111.57974,-8.03115],[111.58006,-8.03118],[111.57994,-8.03133],[111.57972,-8.03179],[111.57948,-8.03243],[111.57911,-8.0331],[111.57902,-8.03354],[111.57828,-8.03463],[111.57817,-8.03496],[111.57795,-8.03519],[111.57777,-8.03543],[111.57768,-8.03562],[111.57759,-8.03593],[111.57759,-8.0365],[111.57747,-8.0371],[111.57671,-8.03871],[111.57634,-8.03876],[111.57559,-8.03916],[111.57462,-8.03971],[111.57432,-8.04],[111.57412,-8.0405],[111.57409,-8.04211],[111.57375,-8.04283],[111.57366,-8.0431],[111.57359,-8.04369],[111.57384,-8.04466],[111.5735,-8.0463],[111.57352,-8.0468],[111.57345,-8.04763],[111.57339,-8.04782],[111.57327,-8.04795],[111.57268,-8.04823],[111.57189,-8.04837],[111.57092,-8.04834],[111.57026,-8.0484],[111.56979,-8.04867],[111.5696,-8.0487],[111.56911,-8.04872],[111.56851,-8.04892],[111.56828,-8.04891],[111.56761,-8.0488],[111.56716,-8.04869],[111.56577,-8.04796],[111.56542,-8.04795],[111.56486,-8.04799],[111.56468,-8.04806],[111.56463,-8.04815],[111.56457,-8.04852],[111.56426,-8.0492],[111.56408,-8.04944],[111.5637,-8.04957],[111.56308,-8.04968],[111.56286,-8.04967],[111.56263,-8.04957],[111.56239,-8.04932],[111.56164,-8.04916],[111.56147,-8.04904],[111.56098,-8.04889],[111.56052,-8.04931],[111.55964,-8.04938],[111.5594,-8.04944],[111.55869,-8.0497],[111.55746,-8.04988],[111.55738,-8.04978],[111.55685,-8.04979],[111.55671,-8.04998],[111.55664,-8.05],[111.5565,-8.04997],[111.55638,-8.04989],[111.55616,-8.0494],[111.55603,-8.04924],[111.55568,-8.04917],[111.55511,-8.04919],[111.55474,-8.04902],[111.55424,-8.04893],[111.55433,-8.04838],[111.55429,-8.04834],[111.55394,-8.04823],[111.55362,-8.04794],[111.55343,-8.04729],[111.5531,-8.04681],[111.55271,-8.04634],[111.5525,-8.04622],[111.55184,-8.04614],[111.55126,-8.04566],[111.55126,-8.0452],[111.55104,-8.04461],[111.55061,-8.04391],[111.55023,-8.0437],[111.54917,-8.04278],[111.54702,-8.04184],[111.54655,-8.04206],[111.54592,-8.04179],[111.54553,-8.0413],[111.5451,-8.04123],[111.54473,-8.04127],[111.5442,-8.04141],[111.54374,-8.04127],[111.54318,-8.04081],[111.5425,-8.04189],[111.54235,-8.04195],[111.5422,-8.04184],[111.54192,-8.04183],[111.54175,-8.04158],[111.54167,-8.04156],[111.54131,-8.04199],[111.54103,-8.04203],[111.54048,-8.04221],[111.54024,-8.04212],[111.5398,-8.04225],[111.5396,-8.04207],[111.53947,-8.04208],[111.53878,-8.0425],[111.53887,-8.04218],[111.53933,-8.04136],[111.53964,-8.04106],[111.54022,-8.04074],[111.54058,-8.04026],[111.54085,-8.03893],[111.5404,-8.03757],[111.53998,-8.03677],[111.53986,-8.0366],[111.53969,-8.03646],[111.53854,-8.03685],[111.53913,-8.03557],[111.53873,-8.03527],[111.53861,-8.03507],[111.53864,-8.03472],[111.53919,-8.03392],[111.53953,-8.03316],[111.53963,-8.03281],[111.53964,-8.03241],[111.53956,-8.03192],[111.5393,-8.03113],[111.53907,-8.0306],[111.53863,-8.02982],[111.53804,-8.02886],[111.5375,-8.02769],[111.53726,-8.02686],[111.53719,-8.02646],[111.53712,-8.02528],[111.53719,-8.02303],[111.53712,-8.02265],[111.53717,-8.0222],[111.53745,-8.02129],[111.53748,-8.02085],[111.5376,-8.02024],[111.53772,-8.01991],[111.53812,-8.01922],[111.53817,-8.01906],[111.53814,-8.01875],[111.53791,-8.01814],[111.53779,-8.01759],[111.53764,-8.01667],[111.53766,-8.01618],[111.53794,-8.01487],[111.53809,-8.01443],[111.53833,-8.01403],[111.53892,-8.01271],[111.53954,-8.01105],[111.53964,-8.01047],[111.53968,-8.01],[111.53986,-8.00946],[111.54013,-8.00903],[111.54017,-8.00881],[111.54001,-8.0072],[111.53996,-8.00702],[111.53983,-8.00681],[111.53973,-8.00653],[111.53933,-8.00614],[111.53917,-8.00589],[111.53912,-8.00566],[111.53897,-8.00556],[111.53876,-8.00549],[111.53861,-8.00556],[111.5382,-8.00554],[111.53555,-8.00518],[111.53537,-8.00506],[111.53477,-8.00409],[111.53429,-8.00116],[111.5341,-8.00025],[111.53381,-7.99967],[111.5341,-7.99892],[111.53405,-7.99882],[111.53386,-7.99866],[111.53355,-7.99851],[111.53342,-7.99841],[111.53335,-7.99807],[111.53323,-7.99699],[111.53358,-7.99685],[111.53398,-7.99688],[111.53484,-7.9972],[111.53524,-7.99743],[111.53551,-7.99771],[111.53582,-7.99812],[111.53621,-7.99878],[111.53669,-7.99978],[111.5369,-8.00009],[111.53721,-8.00044],[111.53782,-8.00097],[111.53918,-8.00191],[111.53972,-8.00232],[111.54088,-8.00345],[111.54137,-8.00381],[111.54193,-8.00409],[111.54241,-8.00428],[111.54284,-8.0044],[111.54334,-8.00445],[111.54364,-8.0044],[111.54394,-8.00425],[111.54427,-8.00399],[111.54453,-8.00371],[111.54488,-8.00322],[111.54513,-8.00271],[111.54522,-8.00228],[111.54521,-8.00211],[111.54514,-8.00193],[111.54496,-8.00166],[111.5447,-8.00141],[111.54348,-8.00048],[111.54292,-7.99997],[111.54197,-7.99865],[111.5417,-7.99815],[111.54158,-7.99777],[111.54153,-7.99741],[111.54156,-7.99705],[111.54177,-7.99649],[111.54214,-7.99571],[111.54224,-7.99542],[111.54225,-7.99517],[111.5422,-7.99434],[111.54227,-7.99404],[111.54247,-7.99376],[111.54272,-7.99354],[111.54299,-7.99347],[111.54337,-7.99348],[111.54376,-7.99356],[111.54432,-7.99381],[111.54512,-7.99435],[111.54542,-7.9945],[111.54596,-7.99464],[111.54644,-7.99462],[111.54671,-7.99454],[111.54697,-7.99435],[111.54721,-7.99407],[111.54741,-7.99369],[111.54765,-7.99348],[111.5481,-7.99328],[111.54875,-7.99326],[111.54919,-7.99314],[111.54941,-7.993],[111.5495,-7.99274],[111.54946,-7.99258],[111.54931,-7.99234],[111.54917,-7.99222],[111.5489,-7.99207],[111.54856,-7.99198],[111.54796,-7.992],[111.54776,-7.99197],[111.54741,-7.99184],[111.54717,-7.99169],[111.54702,-7.99148],[111.54637,-7.99029],[111.54612,-7.98993],[111.54583,-7.98966],[111.54519,-7.98926],[111.54435,-7.9886],[111.54414,-7.98837],[111.54398,-7.98813],[111.54382,-7.98783],[111.54371,-7.98752],[111.54362,-7.98714],[111.5436,-7.98683],[111.54363,-7.98653],[111.54372,-7.98622],[111.5439,-7.98597],[111.54448,-7.98551],[111.54464,-7.98531],[111.54472,-7.98511],[111.5448,-7.98454],[111.54494,-7.98422],[111.5451,-7.984],[111.54546,-7.98375],[111.54582,-7.98365],[111.5463,-7.98365],[111.54679,-7.98377],[111.54706,-7.98375],[111.54727,-7.98371],[111.54748,-7.98362],[111.54759,-7.98353],[111.54769,-7.9834],[111.54776,-7.98321],[111.54779,-7.98296],[111.54776,-7.98279],[111.54768,-7.98259],[111.54752,-7.98233],[111.54735,-7.98216],[111.54676,-7.98176],[111.54621,-7.98132],[111.54594,-7.98105],[111.54578,-7.98081],[111.54564,-7.98053],[111.54558,-7.98032],[111.54555,-7.98005],[111.54559,-7.97972],[111.54578,-7.97935],[111.54613,-7.97898],[111.54654,-7.97864],[111.54755,-7.97807],[111.54829,-7.97752],[111.54873,-7.97711],[111.54921,-7.9765],[111.5493,-7.97619],[111.54924,-7.97537],[111.54914,-7.97512],[111.5488,-7.9748],[111.54869,-7.97466],[111.54865,-7.97441],[111.5487,-7.97404],[111.54878,-7.97377],[111.54889,-7.97358],[111.54946,-7.973],[111.54974,-7.97258],[111.54986,-7.97231],[111.54989,-7.972],[111.54994,-7.9718],[111.55004,-7.97159],[111.5502,-7.9714],[111.55075,-7.97104],[111.55118,-7.97087],[111.55156,-7.97086],[111.55227,-7.97094],[111.5527,-7.97103],[111.55345,-7.97137],[111.55397,-7.97167],[111.55434,-7.97198]],[[111.55281,-7.97311],[111.55304,-7.97314],[111.55315,-7.97309],[111.55333,-7.97291],[111.55338,-7.97281],[111.55336,-7.9724],[111.55317,-7.97211],[111.55307,-7.97209],[111.55292,-7.97211],[111.55278,-7.97222],[111.55257,-7.97274],[111.55259,-7.97285],[111.55271,-7.97303],[111.55281,-7.97311]],[[111.56474,-7.98133],[111.56497,-7.98132],[111.56525,-7.98118],[111.56546,-7.98097],[111.56558,-7.98074],[111.56575,-7.98031],[111.56577,-7.98017],[111.56562,-7.97976],[111.56546,-7.97947],[111.56516,-7.97944],[111.56497,-7.97953],[111.56432,-7.98012],[111.56414,-7.9804],[111.56404,-7.98088],[111.56408,-7.98111],[111.56416,-7.98119],[111.5643,-7.98125],[111.56474,-7.98133]],[[111.56412,-7.98334],[111.56396,-7.98405],[111.56396,-7.98446],[111.56403,-7.9849],[111.56417,-7.98524],[111.56438,-7.98549],[111.56461,-7.98563],[111.56492,-7.98563],[111.56527,-7.9855],[111.56543,-7.98528],[111.56549,-7.98503],[111.56547,-7.98459],[111.56537,-7.98439],[111.56536,-7.98408],[111.56526,-7.98387],[111.56492,-7.98344],[111.56466,-7.98324],[111.5645,-7.98317],[111.5643,-7.98318],[111.56417,-7.98324],[111.56412,-7.98334]],[[111.56432,-7.98801],[111.56428,-7.98827],[111.5643,-7.98848],[111.56483,-7.99026],[111.56496,-7.99048],[111.56518,-7.99066],[111.56531,-7.9907],[111.5655,-7.99066],[111.56567,-7.99053],[111.56585,-7.99031],[111.56594,-7.99014],[111.56599,-7.98993],[111.56599,-7.98947],[111.56588,-7.98892],[111.56588,-7.98839],[111.56584,-7.9882],[111.56567,-7.98792],[111.56546,-7.98767],[111.56532,-7.98756],[111.56513,-7.9875],[111.56488,-7.9875],[111.56461,-7.98762],[111.56443,-7.98779],[111.56432,-7.98801]],[[111.54836,-7.98804],[111.54815,-7.98807],[111.54771,-7.98826],[111.54749,-7.98838],[111.54732,-7.98854],[111.54716,-7.98873],[111.54701,-7.98905],[111.54701,-7.9892],[111.5471,-7.98935],[111.54737,-7.98951],[111.54787,-7.98952],[111.54832,-7.9894],[111.54871,-7.98917],[111.54882,-7.98903],[111.54889,-7.98881],[111.54889,-7.98856],[111.54885,-7.98837],[111.5488,-7.98822],[111.54873,-7.98818],[111.54855,-7.98808],[111.54836,-7.98804]],[[111.56581,-7.97676],[111.5656,-7.97678],[111.56534,-7.97697],[111.56506,-7.97733],[111.56489,-7.97766],[111.56486,-7.97795],[111.56494,-7.9782],[111.56508,-7.97838],[111.56527,-7.97848],[111.56553,-7.9785],[111.56577,-7.97843],[111.56597,-7.97825],[111.5661,-7.97804],[111.56616,-7.9777],[111.56617,-7.97708],[111.56611,-7.97695],[111.566,-7.97682],[111.56581,-7.97676]]],[[[111.61395,-7.93727],[111.61461,-7.93746],[111.61487,-7.93748],[111.61525,-7.93745],[111.61579,-7.93723],[111.61622,-7.93684],[111.61658,-7.93671],[111.61734,-7.93659],[111.61753,-7.93659],[111.61782,-7.93685],[111.61797,-7.93704],[111.61827,-7.93729],[111.61841,-7.93737],[111.61905,-7.93739],[111.6193,-7.93746],[111.61979,-7.9379],[111.6199,-7.93806],[111.62006,-7.93815],[111.62062,-7.93802],[111.62074,-7.93807],[111.62086,-7.93838],[111.62102,-7.93854],[111.62126,-7.93858],[111.62155,-7.93857],[111.62201,-7.93842],[111.62215,-7.93843],[111.62258,-7.93864],[111.62263,-7.93867],[111.62266,-7.93878],[111.62259,-7.93898],[111.62258,-7.9393],[111.62266,-7.9395],[111.62273,-7.93957],[111.62295,-7.93969],[111.62326,-7.93983],[111.62385,-7.93998],[111.62392,-7.94007],[111.62392,-7.94019],[111.62402,-7.94048],[111.62433,-7.94056],[111.62451,-7.94057],[111.62464,-7.94051],[111.62476,-7.94041],[111.62486,-7.94042],[111.62493,-7.94044],[111.62499,-7.94051],[111.62514,-7.94053],[111.62531,-7.94068],[111.62536,-7.94083],[111.62536,-7.94097],[111.62554,-7.94106],[111.62563,-7.94125],[111.62565,-7.94144],[111.62554,-7.94155],[111.62555,-7.94174],[111.62562,-7.94181],[111.62565,-7.9421],[111.62575,-7.94237],[111.62584,-7.94241],[111.62586,-7.94248],[111.62592,-7.9425],[111.62596,-7.94257],[111.626,-7.94271],[111.62599,-7.94287],[111.62589,-7.94297],[111.62587,-7.94304],[111.62566,-7.94337],[111.62562,-7.94339],[111.62543,-7.94334],[111.62532,-7.94338],[111.62533,-7.94366],[111.6253,-7.94373],[111.62523,-7.94382],[111.62493,-7.94389],[111.62494,-7.94399],[111.62503,-7.94409],[111.62492,-7.94418],[111.62471,-7.94418],[111.62457,-7.9442],[111.6245,-7.94424],[111.62447,-7.94434],[111.62447,-7.9447],[111.62429,-7.94486],[111.62419,-7.94502],[111.62423,-7.94513],[111.62441,-7.94542],[111.62459,-7.94551],[111.62476,-7.94549],[111.62482,-7.94552],[111.62485,-7.94569],[111.62478,-7.94589],[111.62486,-7.94603],[111.625,-7.94617],[111.625,-7.94653],[111.62483,-7.94674],[111.62486,-7.94684],[111.62506,-7.947],[111.62512,-7.94719],[111.62487,-7.94775],[111.62485,-7.94789],[111.62496,-7.94824],[111.62493,-7.94831],[111.62498,-7.94842],[111.62511,-7.94841],[111.62519,-7.94852],[111.62525,-7.94853],[111.62532,-7.94861],[111.62529,-7.9487],[111.62517,-7.94893],[111.62518,-7.94908],[111.62527,-7.94914],[111.62574,-7.94926],[111.62586,-7.94954],[111.62612,-7.94965],[111.62615,-7.94971],[111.6261,-7.95016],[111.62594,-7.9502],[111.62574,-7.95002],[111.62563,-7.94998],[111.62554,-7.95],[111.62554,-7.95027],[111.62549,-7.95041],[111.62574,-7.95062],[111.62576,-7.9507],[111.62574,-7.95079],[111.62563,-7.95086],[111.62553,-7.95087],[111.6254,-7.95106],[111.62546,-7.95114],[111.62581,-7.95131],[111.62597,-7.95135],[111.62617,-7.95132],[111.62625,-7.95134],[111.62632,-7.9514],[111.62642,-7.95167],[111.62628,-7.9519],[111.62633,-7.95195],[111.62632,-7.95233],[111.62606,-7.95253],[111.62607,-7.95279],[111.62612,-7.95298],[111.62607,-7.95325],[111.62581,-7.9535],[111.62572,-7.95381],[111.62574,-7.95394],[111.62586,-7.95411],[111.6258,-7.95437],[111.62585,-7.95448],[111.62588,-7.95494],[111.62583,-7.955],[111.62589,-7.95521],[111.62605,-7.95521],[111.62614,-7.95525],[111.62618,-7.95528],[111.62619,-7.95535],[111.62636,-7.95544],[111.62642,-7.95556],[111.62643,-7.95581],[111.62656,-7.956],[111.62659,-7.95612],[111.6269,-7.95618],[111.62736,-7.95657],[111.62753,-7.95685],[111.62754,-7.95768],[111.6278,-7.95767],[111.62797,-7.95793],[111.62816,-7.95854],[111.62823,-7.95861],[111.62838,-7.95856],[111.62851,-7.95857],[111.62877,-7.95841],[111.62896,-7.95842],[111.62929,-7.9586],[111.62938,-7.95872],[111.62963,-7.95803],[111.62977,-7.95815],[111.63005,-7.95817],[111.63006,-7.95794],[111.62999,-7.95783],[111.63003,-7.95772],[111.63051,-7.95775],[111.63081,-7.9577],[111.63119,-7.95774],[111.63129,-7.9578],[111.63145,-7.95775],[111.63161,-7.95781],[111.63165,-7.95819],[111.63183,-7.95815],[111.63202,-7.95822],[111.6326,-7.95814],[111.63273,-7.95807],[111.63281,-7.95795],[111.63279,-7.95784],[111.63297,-7.95769],[111.63346,-7.95707],[111.63364,-7.95697],[111.63396,-7.95689],[111.63413,-7.95676],[111.63468,-7.95624],[111.63481,-7.95605],[111.63495,-7.95592],[111.63511,-7.95588],[111.63581,-7.95587],[111.63604,-7.95596],[111.63673,-7.95634],[111.63753,-7.95685],[111.63824,-7.95697],[111.63841,-7.95696],[111.63856,-7.9569],[111.6389,-7.95696],[111.63873,-7.95743],[111.63871,-7.95778],[111.63883,-7.95831],[111.63881,-7.95861],[111.63901,-7.95874],[111.6392,-7.95905],[111.63932,-7.95916],[111.63935,-7.9593],[111.63951,-7.95944],[111.63951,-7.95967],[111.63956,-7.95975],[111.63966,-7.9598],[111.64007,-7.95987],[111.64035,-7.96009],[111.64072,-7.96018],[111.64094,-7.96026],[111.64123,-7.96073],[111.64131,-7.96081],[111.64142,-7.96081],[111.64148,-7.96077],[111.64162,-7.96054],[111.64169,-7.96052],[111.64182,-7.96057],[111.64202,-7.96077],[111.64248,-7.96101],[111.6426,-7.961],[111.64275,-7.96086],[111.64282,-7.96085],[111.64295,-7.96093],[111.64308,-7.96091],[111.64314,-7.96087],[111.64321,-7.96071],[111.64321,-7.96017],[111.64328,-7.96011],[111.64348,-7.96014],[111.64405,-7.96043],[111.64422,-7.96046],[111.64434,-7.96042],[111.64441,-7.96026],[111.64448,-7.96023],[111.64459,-7.96026],[111.64831,-7.96014],[111.64837,-7.96037],[111.64878,-7.96081],[111.64977,-7.96131],[111.64986,-7.96141],[111.64986,-7.9615],[111.65026,-7.96185],[111.65076,-7.96194],[111.65099,-7.96202],[111.6514,-7.96229],[111.65149,-7.9624],[111.65175,-7.96315],[111.65216,-7.9637],[111.65237,-7.96389],[111.65285,-7.96397],[111.65302,-7.96405],[111.65319,-7.96427],[111.65317,-7.96437],[111.65367,-7.96454],[111.65436,-7.96505],[111.65487,-7.96526],[111.65582,-7.96572],[111.65692,-7.96611],[111.65777,-7.96667],[111.65849,-7.96735],[111.65902,-7.96777],[111.66052,-7.96757],[111.66187,-7.96716],[111.66262,-7.96713],[111.66343,-7.96758],[111.66349,-7.96774],[111.6635,-7.96813],[111.66333,-7.96884],[111.66299,-7.96982],[111.6626,-7.97052],[111.66251,-7.97061],[111.6624,-7.97089],[111.66223,-7.97107],[111.66171,-7.97122],[111.66163,-7.97129],[111.66172,-7.97189],[111.66154,-7.97224],[111.66151,-7.97323],[111.66158,-7.97344],[111.66192,-7.97383],[111.66225,-7.97403],[111.66223,-7.97414],[111.66209,-7.9743],[111.66164,-7.97459],[111.66161,-7.97479],[111.6615,-7.97491],[111.66119,-7.97504],[111.66109,-7.97533],[111.661,-7.97545],[111.66083,-7.97553],[111.66007,-7.97543],[111.65961,-7.97555],[111.65934,-7.97559],[111.65906,-7.97536],[111.65841,-7.97532],[111.65783,-7.97537],[111.65738,-7.97554],[111.65704,-7.97558],[111.65641,-7.97579],[111.65626,-7.97593],[111.65613,-7.97621],[111.65598,-7.9767],[111.65574,-7.97731],[111.65565,-7.9778],[111.65536,-7.97848],[111.6553,-7.97871],[111.65529,-7.97886],[111.65535,-7.97939],[111.65535,-7.97972],[111.65527,-7.98003],[111.6551,-7.98043],[111.65499,-7.98059],[111.65388,-7.9814],[111.65372,-7.98154],[111.65369,-7.98162],[111.65376,-7.98223],[111.65338,-7.98336],[111.65335,-7.98357],[111.65342,-7.98378],[111.65351,-7.98448],[111.65367,-7.98499],[111.65371,-7.98551],[111.65369,-7.98584],[111.65358,-7.98614],[111.65367,-7.98644],[111.65382,-7.98659],[111.65407,-7.98675],[111.65443,-7.98727],[111.65503,-7.988],[111.65496,-7.98807],[111.65516,-7.98829],[111.65579,-7.9888],[111.65637,-7.98956],[111.65686,-7.98998],[111.6564,-7.99023],[111.65558,-7.99081],[111.65586,-7.99147],[111.65606,-7.99212],[111.65626,-7.99358],[111.65621,-7.99485],[111.65631,-7.99635],[111.65598,-7.99768],[111.65553,-7.99912],[111.65504,-7.99982],[111.65456,-8.00042],[111.65447,-8.00061],[111.65435,-8.00108],[111.65436,-8.0016],[111.65446,-8.00192],[111.6546,-8.00219],[111.65508,-8.00284],[111.65534,-8.00327],[111.6556,-8.00388],[111.65574,-8.00436],[111.65575,-8.00455],[111.65566,-8.00502],[111.65559,-8.00585],[111.65571,-8.00644],[111.65554,-8.00683],[111.65562,-8.00722],[111.65562,-8.00761],[111.65592,-8.0084],[111.65589,-8.00881],[111.65566,-8.00936],[111.65561,-8.00931],[111.65565,-8.01131],[111.65532,-8.01204],[111.65497,-8.01353],[111.65496,-8.01426],[111.65505,-8.01507],[111.655,-8.01551],[111.65452,-8.01637],[111.65384,-8.01705],[111.65373,-8.01726],[111.65379,-8.01819],[111.65356,-8.01856],[111.65332,-8.01885],[111.65332,-8.01898],[111.65358,-8.01946],[111.65336,-8.02019],[111.65273,-8.02023],[111.65128,-8.02022],[111.65081,-8.02029],[111.6505,-8.02039],[111.65021,-8.02055],[111.64999,-8.02075],[111.64979,-8.021],[111.64933,-8.02173],[111.64923,-8.02174],[111.64901,-8.02184],[111.6489,-8.02194],[111.64816,-8.0209],[111.64828,-8.02006],[111.64827,-8.01931],[111.64806,-8.01876],[111.64775,-8.01826],[111.64742,-8.01787],[111.64718,-8.01729],[111.64708,-8.0166],[111.64695,-8.01605],[111.64686,-8.01546],[111.64686,-8.01488],[111.64722,-8.01295],[111.64725,-8.01255],[111.64754,-8.01217],[111.6477,-8.01174],[111.6477,-8.01104],[111.64781,-8.01059],[111.64784,-8.01007],[111.64799,-8.00953],[111.64799,-8.00914],[111.64834,-8.00867],[111.64827,-8.00817],[111.64847,-8.00743],[111.64835,-8.00695],[111.64836,-8.00633],[111.64824,-8.00577],[111.64789,-8.00517],[111.64771,-8.00378],[111.64684,-8.00343],[111.64619,-8.00329],[111.64544,-8.00319],[111.64521,-8.00375],[111.64487,-8.00433],[111.64455,-8.00468],[111.64429,-8.00485],[111.64372,-8.00504],[111.643,-8.00521],[111.6426,-8.00526],[111.64242,-8.00536],[111.64147,-8.00526],[111.64145,-8.00535],[111.64135,-8.00524],[111.64121,-8.00523],[111.63929,-8.00326],[111.63799,-8.00249],[111.63723,-8.00208],[111.63611,-8.00215],[111.63528,-8.00258],[111.6343,-8.00326],[111.63376,-8.00353],[111.63334,-8.00395],[111.63304,-8.00462],[111.63254,-8.00479],[111.63177,-8.00668],[111.63108,-8.00754],[111.6306,-8.00764],[111.62988,-8.00789],[111.62932,-8.00859],[111.62859,-8.00917],[111.62763,-8.00965],[111.62685,-8.01014],[111.62592,-8.01092],[111.62588,-8.01089],[111.62508,-8.00919],[111.62484,-8.00859],[111.62457,-8.00846],[111.62436,-8.00828],[111.62422,-8.00738],[111.62404,-8.00704],[111.62376,-8.00693],[111.62318,-8.0065],[111.62286,-8.00674],[111.62252,-8.00688],[111.62178,-8.00699],[111.62132,-8.00748],[111.6194,-8.00823],[111.61858,-8.00849],[111.61818,-8.00896],[111.61744,-8.0094],[111.61705,-8.0095],[111.61552,-8.00961],[111.61515,-8.00979],[111.61494,-8.01006],[111.61437,-8.01069],[111.61355,-8.01114],[111.61296,-8.0116],[111.61252,-8.01169],[111.61177,-8.01167],[111.61138,-8.01196],[111.61082,-8.01259],[111.61006,-8.01324],[111.6097,-8.01408],[111.60861,-8.01508],[111.60801,-8.0155],[111.60736,-8.01556],[111.60662,-8.01588],[111.60637,-8.01607],[111.60642,-8.01638],[111.60652,-8.01648],[111.6067,-8.01655],[111.60689,-8.01666],[111.60704,-8.01687],[111.60713,-8.01742],[111.60726,-8.0178],[111.60753,-8.01805],[111.60778,-8.01816],[111.60746,-8.01857],[111.60704,-8.0189],[111.60665,-8.01909],[111.60627,-8.01935],[111.60596,-8.01944],[111.60575,-8.01944],[111.60531,-8.01929],[111.60489,-8.01921],[111.60449,-8.01906],[111.60387,-8.01868],[111.60346,-8.01859],[111.60286,-8.01859],[111.60201,-8.01829],[111.60185,-8.01826],[111.60156,-8.01827],[111.60096,-8.01834],[111.6005,-8.01829],[111.6003,-8.01824],[111.59969,-8.01827],[111.59918,-8.01847],[111.59838,-8.0184],[111.59786,-8.0185],[111.59732,-8.01869],[111.59713,-8.01871],[111.59702,-8.01867],[111.59646,-8.01795],[111.59625,-8.01754],[111.59562,-8.01789],[111.59524,-8.01833],[111.59514,-8.01842],[111.59498,-8.01847],[111.59423,-8.01851],[111.5924,-8.01895],[111.59046,-8.01938],[111.58947,-8.02035],[111.58968,-8.01947],[111.58978,-8.01852],[111.59092,-8.01848],[111.59201,-8.01832],[111.59307,-8.01805],[111.59468,-8.01749],[111.59534,-8.01717],[111.59583,-8.0168],[111.59611,-8.01641],[111.59626,-8.01595],[111.59633,-8.01542],[111.59637,-8.01411],[111.59658,-8.01257],[111.59659,-8.01225],[111.59655,-8.01195],[111.59644,-8.01165],[111.59625,-8.01143],[111.59592,-8.01118],[111.59533,-8.0108],[111.5951,-8.0106],[111.59498,-8.01041],[111.59496,-8.01022],[111.59502,-8.01001],[111.59519,-8.00975],[111.59612,-8.00882],[111.59647,-8.00839],[111.59669,-8.00792],[111.5969,-8.00729],[111.5971,-8.00625],[111.59715,-8.0054],[111.59708,-8.00488],[111.59669,-8.00337],[111.59665,-8.00296],[111.59666,-8.00266],[111.59672,-8.00242],[111.59686,-8.00209],[111.59756,-8.00099],[111.59777,-8.00058],[111.59787,-8.00023],[111.59787,-7.99991],[111.59775,-7.99947],[111.59762,-7.99927],[111.59742,-7.99923],[111.59687,-7.99928],[111.59673,-7.99921],[111.59665,-7.99904],[111.59658,-7.99854],[111.59652,-7.99835],[111.59628,-7.99797],[111.59595,-7.9976],[111.59504,-7.99678],[111.59365,-7.99582],[111.59337,-7.99558],[111.59315,-7.99533],[111.59285,-7.99492],[111.59263,-7.99446],[111.59255,-7.99416],[111.59254,-7.99385],[111.59244,-7.99322],[111.5927,-7.9921],[111.59287,-7.9915],[111.593,-7.99123],[111.59363,-7.99058],[111.59421,-7.98992],[111.59536,-7.98842],[111.59632,-7.98702],[111.59709,-7.98569],[111.59753,-7.98475],[111.59839,-7.98228],[111.59857,-7.98161],[111.59872,-7.98041],[111.59889,-7.9796],[111.59893,-7.97891],[111.5988,-7.9777],[111.59858,-7.97651],[111.59841,-7.97606],[111.59812,-7.97574],[111.59804,-7.97561],[111.59802,-7.97544],[111.59804,-7.97527],[111.59822,-7.97495],[111.59892,-7.97422],[111.59988,-7.9729],[111.60111,-7.97128],[111.60173,-7.97039],[111.60196,-7.97014],[111.60201,-7.97003],[111.60199,-7.96994],[111.60181,-7.96981],[111.60169,-7.96964],[111.60153,-7.969],[111.60143,-7.96876],[111.60123,-7.96847],[111.60068,-7.96781],[111.60048,-7.9675],[111.6004,-7.96727],[111.60043,-7.96708],[111.60054,-7.96695],[111.60148,-7.96621],[111.60224,-7.96554],[111.60288,-7.96488],[111.60331,-7.96436],[111.60384,-7.96356],[111.6043,-7.96301],[111.6048,-7.96144],[111.60522,-7.96051],[111.60556,-7.96001],[111.60573,-7.95986],[111.6059,-7.95978],[111.60607,-7.95976],[111.60627,-7.95982],[111.60646,-7.95997],[111.60664,-7.96019],[111.60692,-7.96073],[111.60733,-7.96206],[111.60749,-7.96246],[111.60786,-7.96296],[111.60856,-7.96371],[111.60919,-7.9642],[111.6098,-7.96453],[111.61052,-7.96474],[111.61099,-7.9648],[111.61133,-7.9648],[111.61231,-7.96474],[111.61301,-7.96453],[111.61414,-7.96405],[111.61654,-7.96275],[111.61772,-7.96229],[111.61819,-7.96217],[111.61945,-7.96203],[111.6199,-7.9619],[111.62036,-7.9617],[111.62107,-7.96125],[111.62148,-7.96086],[111.62165,-7.96055],[111.62206,-7.95949],[111.6221,-7.95928],[111.6221,-7.959],[111.62208,-7.95837],[111.62202,-7.95813],[111.62188,-7.95787],[111.62171,-7.95766],[111.62139,-7.95738],[111.62112,-7.95722],[111.62078,-7.9571],[111.62043,-7.9571],[111.61986,-7.9572],[111.61918,-7.95747],[111.61885,-7.95756],[111.61838,-7.95757],[111.61786,-7.95748],[111.61758,-7.95738],[111.61725,-7.9572],[111.61688,-7.95692],[111.61653,-7.9566],[111.61634,-7.95638],[111.61615,-7.95609],[111.61599,-7.95575],[111.61588,-7.95538],[111.61562,-7.95496],[111.61528,-7.95462],[111.6148,-7.95432],[111.61442,-7.95417],[111.61407,-7.95411],[111.6136,-7.95411],[111.61268,-7.95419],[111.61219,-7.9542],[111.6113,-7.9541],[111.61009,-7.95387],[111.61078,-7.95262],[111.61118,-7.95101],[111.61175,-7.95037],[111.61237,-7.94952],[111.6128,-7.94881],[111.61311,-7.94818],[111.61345,-7.94765],[111.61353,-7.94739],[111.6135,-7.94727],[111.61332,-7.94703],[111.61323,-7.94678],[111.61315,-7.94646],[111.61305,-7.9457],[111.61259,-7.94368],[111.61233,-7.94284],[111.61206,-7.94218],[111.61176,-7.94157],[111.61144,-7.94103],[111.61062,-7.93995],[111.61022,-7.9392],[111.60948,-7.93815],[111.60899,-7.93723],[111.60858,-7.93626],[111.60912,-7.93645],[111.60974,-7.93705],[111.60986,-7.93709],[111.61001,-7.9371],[111.61027,-7.93702],[111.61052,-7.93686],[111.61061,-7.93674],[111.61087,-7.93626],[111.61109,-7.93606],[111.61115,-7.93644],[111.61125,-7.93681],[111.61118,-7.93712],[111.61119,-7.93722],[111.61132,-7.93728],[111.61153,-7.93719],[111.6117,-7.93705],[111.61187,-7.93676],[111.612,-7.93649],[111.61199,-7.93636],[111.61207,-7.93603],[111.61219,-7.93573],[111.61247,-7.93582],[111.61267,-7.93595],[111.61337,-7.93688],[111.61367,-7.93713],[111.61395,-7.93727]],[[111.64617,-7.9637],[111.64636,-7.96368],[111.6466,-7.96355],[111.64677,-7.96335],[111.64686,-7.96315],[111.64686,-7.96297],[111.64677,-7.96272],[111.64664,-7.96258],[111.6465,-7.96251],[111.64622,-7.9625],[111.64599,-7.96259],[111.64587,-7.96273],[111.64577,-7.96297],[111.64576,-7.96353],[111.64596,-7.96365],[111.64617,-7.9637]],[[111.6283,-7.9648],[111.62814,-7.96491],[111.62791,-7.96518],[111.62786,-7.96536],[111.62788,-7.96561],[111.62793,-7.96587],[111.628,-7.96599],[111.62824,-7.96611],[111.62846,-7.96613],[111.62858,-7.96611],[111.62885,-7.96585],[111.62903,-7.96556],[111.62908,-7.9653],[111.62896,-7.96498],[111.62878,-7.96482],[111.62853,-7.96475],[111.6283,-7.9648]],[[111.6491,-7.96613],[111.64906,-7.96642],[111.64908,-7.96668],[111.6492,-7.96693],[111.64939,-7.96711],[111.64956,-7.96713],[111.64986,-7.96702],[111.65011,-7.96686],[111.65023,-7.9667],[111.65027,-7.96649],[111.6502,-7.96631],[111.65004,-7.96611],[111.64983,-7.96597],[111.64961,-7.96588],[111.64942,-7.96587],[111.64919,-7.96598],[111.6491,-7.96613]],[[111.62539,-7.96615],[111.62562,-7.96605],[111.62569,-7.96596],[111.62569,-7.96546],[111.62561,-7.9653],[111.62543,-7.96517],[111.62521,-7.96511],[111.62483,-7.96514],[111.62461,-7.96524],[111.62456,-7.96532],[111.62456,-7.96548],[111.62462,-7.9659],[111.62468,-7.96603],[111.62504,-7.96621],[111.62516,-7.96621],[111.62539,-7.96615]],[[111.62302,-7.96513],[111.62285,-7.96502],[111.62259,-7.96499],[111.62231,-7.96505],[111.62209,-7.96517],[111.62201,-7.96526],[111.62197,-7.96538],[111.62197,-7.96586],[111.62202,-7.96598],[111.62224,-7.96612],[111.62253,-7.96618],[111.62283,-7.96613],[111.62305,-7.96601],[111.62318,-7.96584],[111.62323,-7.96563],[111.62318,-7.96538],[111.62302,-7.96513]],[[111.61723,-7.97306],[111.61689,-7.9733],[111.61604,-7.97379],[111.61534,-7.97416],[111.61483,-7.97436],[111.61465,-7.97447],[111.61438,-7.97482],[111.61413,-7.9754],[111.61405,-7.97632],[111.61409,-7.97664],[111.61421,-7.97684],[111.61491,-7.97753],[111.615,-7.97767],[111.61504,-7.9778],[111.61505,-7.97803],[111.61495,-7.9796],[111.61498,-7.97998],[111.61509,-7.98036],[111.61579,-7.98174],[111.61607,-7.98212],[111.6164,-7.98243],[111.6167,-7.98262],[111.61741,-7.98292],[111.61811,-7.9833],[111.6187,-7.9838],[111.6193,-7.98446],[111.6199,-7.98489],[111.62028,-7.98506],[111.62211,-7.98573],[111.6234,-7.9861],[111.6242,-7.98618],[111.62471,-7.98612],[111.6253,-7.98593],[111.62564,-7.9859],[111.62604,-7.9857],[111.62636,-7.98543],[111.62732,-7.98441],[111.62762,-7.9842],[111.62872,-7.98358],[111.62921,-7.98311],[111.62979,-7.98232],[111.63025,-7.98153],[111.6303,-7.98137],[111.63029,-7.98113],[111.63034,-7.98081],[111.63047,-7.98047],[111.63058,-7.98034],[111.63095,-7.98012],[111.63129,-7.97986],[111.63164,-7.97953],[111.63187,-7.97922],[111.63226,-7.97857],[111.63249,-7.97809],[111.63256,-7.97772],[111.63261,-7.97718],[111.63255,-7.97622],[111.63219,-7.97477],[111.63203,-7.97392],[111.63187,-7.97345],[111.63172,-7.97315],[111.63157,-7.97295],[111.63128,-7.97267],[111.63079,-7.97229],[111.63019,-7.9719],[111.62961,-7.97141],[111.62931,-7.97108],[111.62861,-7.97019],[111.62843,-7.97001],[111.62799,-7.96973],[111.62754,-7.96953],[111.62713,-7.96943],[111.62494,-7.96916],[111.62473,-7.96908],[111.62421,-7.96879],[111.62369,-7.96864],[111.62301,-7.96858],[111.62252,-7.96857],[111.62213,-7.96863],[111.62154,-7.96879],[111.61992,-7.9694],[111.61954,-7.96963],[111.61919,-7.96995],[111.61877,-7.97039],[111.61858,-7.97067],[111.61849,-7.97085],[111.61833,-7.97135],[111.61803,-7.97205],[111.6179,-7.97229],[111.61757,-7.97273],[111.61723,-7.97306]],[[111.60271,-7.9731],[111.60235,-7.97311],[111.60215,-7.97317],[111.60189,-7.97337],[111.60171,-7.97361],[111.60155,-7.9739],[111.60151,-7.97408],[111.60161,-7.9743],[111.60181,-7.97449],[111.60195,-7.97455],[111.60214,-7.97458],[111.60281,-7.97455],[111.60352,-7.97428],[111.60372,-7.97408],[111.6038,-7.97388],[111.6038,-7.97374],[111.60369,-7.97352],[111.60356,-7.97336],[111.6034,-7.97324],[111.60319,-7.97316],[111.60271,-7.9731]],[[111.62366,-7.99676],[111.62419,-7.99675],[111.62469,-7.99671],[111.62555,-7.99651],[111.62649,-7.99617],[111.62745,-7.99568],[111.62786,-7.99535],[111.62821,-7.99492],[111.62841,-7.99434],[111.62849,-7.99377],[111.62872,-7.9934],[111.62894,-7.9932],[111.62913,-7.99308],[111.62941,-7.99304],[111.62951,-7.99296],[111.6298,-7.99296],[111.62996,-7.9929],[111.63017,-7.9927],[111.63021,-7.99259],[111.63022,-7.99245],[111.63015,-7.99184],[111.63005,-7.99163],[111.6299,-7.99141],[111.62967,-7.99121],[111.62879,-7.99075],[111.6286,-7.99058],[111.62855,-7.99043],[111.62849,-7.99004],[111.62848,-7.98952],[111.62843,-7.98926],[111.62821,-7.98891],[111.62782,-7.98855],[111.62737,-7.98827],[111.6266,-7.98797],[111.62487,-7.98752],[111.62453,-7.98738],[111.62375,-7.98697],[111.62337,-7.98687],[111.6231,-7.98685],[111.62272,-7.98692],[111.6224,-7.98709],[111.62212,-7.98739],[111.62189,-7.98783],[111.62152,-7.98914],[111.62148,-7.9898],[111.62118,-7.99148],[111.62034,-7.99413],[111.62023,-7.99464],[111.6202,-7.99509],[111.62029,-7.99545],[111.62051,-7.99581],[111.62073,-7.99602],[111.62116,-7.99628],[111.62151,-7.99642],[111.62197,-7.99654],[111.623,-7.99671],[111.62366,-7.99676]],[[111.6391,-7.99075],[111.63932,-7.99072],[111.63951,-7.99066],[111.6399,-7.99044],[111.64004,-7.99031],[111.64011,-7.99012],[111.64009,-7.98931],[111.63994,-7.98868],[111.6398,-7.98848],[111.63963,-7.98837],[111.6394,-7.98827],[111.63908,-7.9882],[111.63885,-7.9882],[111.63865,-7.98825],[111.63838,-7.9884],[111.63813,-7.98865],[111.63799,-7.98883],[111.63789,-7.98924],[111.63787,-7.99003],[111.6379,-7.99015],[111.63798,-7.99027],[111.63829,-7.99049],[111.63866,-7.99065],[111.6391,-7.99075]],[[111.6438,-7.99458],[111.64307,-7.99485],[111.6429,-7.99489],[111.64277,-7.99487],[111.64203,-7.99463],[111.64147,-7.99462],[111.64124,-7.99469],[111.641,-7.99489],[111.64068,-7.99535],[111.64053,-7.99567],[111.6405,-7.99586],[111.6405,-7.9964],[111.64054,-7.9969],[111.64062,-7.99724],[111.64081,-7.99762],[111.64102,-7.99785],[111.64118,-7.99795],[111.6413,-7.99797],[111.6417,-7.99776],[111.64264,-7.99738],[111.64358,-7.99681],[111.64384,-7.99661],[111.64409,-7.99636],[111.6445,-7.99578],[111.64459,-7.99555],[111.6446,-7.99538],[111.64447,-7.99502],[111.64426,-7.99471],[111.64406,-7.99458],[111.6438,-7.99458]],[[111.64661,-7.99796],[111.64669,-7.99812],[111.64682,-7.99828],[111.64724,-7.99862],[111.6478,-7.99884],[111.64832,-7.99893],[111.64915,-7.99886],[111.64961,-7.9987],[111.6498,-7.99859],[111.6499,-7.99849],[111.65,-7.99833],[111.65003,-7.99816],[111.65001,-7.99789],[111.64993,-7.99769],[111.64962,-7.99731],[111.64937,-7.99708],[111.64909,-7.99688],[111.64872,-7.9967],[111.64838,-7.99659],[111.64809,-7.99656],[111.6478,-7.99657],[111.64755,-7.99664],[111.64725,-7.99679],[111.64698,-7.99699],[111.64677,-7.99724],[111.64662,-7.99752],[111.64659,-7.99783],[111.64661,-7.99796]]]]}},{"type":"Feature","properties":{"deskripsi":"Batugamping Terumbu, Kalkarenit, Dan Kalkarenit Tufan","pulau":"Jawa","litologi":"Batugamping","kelulusan":"Sedang - Tinggi","umur":"Tm","_cls":"Batugamping"},"geometry":{"type":"Polygon","coordinates":[[[111.63919,-7.99074],[111.6389,-7.99072],[111.63841,-7.99055],[111.63803,-7.99031],[111.63792,-7.99019],[111.63787,-7.99007],[111.63789,-7.98924],[111.63799,-7.98883],[111.63813,-7.98865],[111.63838,-7.9884],[111.63865,-7.98825],[111.63885,-7.9882],[111.63908,-7.9882],[111.6394,-7.98827],[111.63963,-7.98837],[111.6398,-7.98848],[111.63994,-7.98868],[111.64009,-7.98931],[111.64011,-7.99012],[111.64005,-7.99028],[111.6399,-7.99044],[111.63957,-7.99063],[111.63939,-7.99071],[111.63919,-7.99074]]]}},{"type":"Feature","properties":{"deskripsi":"Batugamping Terumbu, Kalkarenit, Dan Kalkarenit Tufan","pulau":"Jawa","litologi":"Batugamping","kelulusan":"Sedang - Tinggi","umur":"Tm","_cls":"Batugamping"},"geometry":{"type":"Polygon","coordinates":[[[111.54799,-7.9895],[111.54746,-7.98953],[111.54731,-7.98949],[111.54715,-7.98939],[111.54701,-7.98922],[111.547,-7.98913],[111.54703,-7.98901],[111.54727,-7.98858],[111.54744,-7.98842],[111.54759,-7.98832],[111.54823,-7.98804],[111.54849,-7.98806],[111.5488,-7.98822],[111.54888,-7.98846],[111.5489,-7.98868],[111.54886,-7.98893],[111.54876,-7.98912],[111.5486,-7.98926],[111.54827,-7.98942],[111.54799,-7.9895]]]}},{"type":"Feature","properties":{"deskripsi":"Batugamping Terumbu, Kalkarenit, Dan Kalkarenit Tufan","pulau":"Jawa","litologi":"Batugamping","kelulusan":"Sedang - Tinggi","umur":"Tm","_cls":"Batugamping"},"geometry":{"type":"Polygon","coordinates":[[[111.59531,-7.95991],[111.59431,-7.95991],[111.59391,-7.95984],[111.59377,-7.95977],[111.59363,-7.95964],[111.59356,-7.95947],[111.59356,-7.95921],[111.59365,-7.95893],[111.59385,-7.9587],[111.59428,-7.95836],[111.5946,-7.95816],[111.59497,-7.95799],[111.59549,-7.95782],[111.59601,-7.9577],[111.59639,-7.9577],[111.59657,-7.95776],[111.59677,-7.95797],[111.59691,-7.95834],[111.59689,-7.95892],[111.59681,-7.95922],[111.59668,-7.95935],[111.59634,-7.95953],[111.59607,-7.95974],[111.59571,-7.95984],[111.59531,-7.95991]]]}},{"type":"Feature","properties":{"deskripsi":"Batugamping Terumbu, Kalkarenit, Dan Kalkarenit Tufan","pulau":"Jawa","litologi":"Batugamping","kelulusan":"Sedang - Tinggi","umur":"Tm","_cls":"Batugamping"},"geometry":{"type":"Polygon","coordinates":[[[111.60979,-7.95383],[111.6113,-7.9541],[111.61219,-7.9542],[111.61268,-7.95419],[111.6136,-7.95411],[111.61407,-7.95411],[111.61442,-7.95417],[111.6148,-7.95432],[111.61528,-7.95462],[111.61562,-7.95496],[111.61588,-7.95538],[111.61599,-7.95575],[111.61615,-7.95609],[111.61634,-7.95638],[111.61653,-7.9566],[111.61717,-7.95714],[111.6175,-7.95734],[111.61777,-7.95745],[111.61828,-7.95756],[111.61885,-7.95756],[111.61918,-7.95747],[111.61993,-7.95717],[111.62051,-7.95709],[111.62086,-7.95712],[111.62121,-7.95727],[111.62154,-7.9575],[111.6218,-7.95776],[111.62199,-7.95807],[111.62208,-7.95837],[111.6221,-7.95914],[111.62208,-7.9594],[111.62157,-7.96072],[111.62134,-7.96102],[111.62107,-7.96125],[111.62058,-7.96158],[111.62002,-7.96186],[111.61933,-7.96205],[111.61819,-7.96217],[111.61772,-7.96229],[111.61654,-7.96275],[111.61414,-7.96405],[111.61301,-7.96453],[111.61231,-7.96474],[111.61133,-7.9648],[111.61099,-7.9648],[111.61052,-7.96474],[111.6098,-7.96453],[111.60919,-7.9642],[111.6088,-7.96392],[111.60847,-7.96363],[111.60786,-7.96296],[111.60754,-7.96254],[111.60737,-7.96219],[111.60695,-7.96083],[111.60684,-7.96055],[111.60649,-7.96001],[111.60633,-7.95986],[111.60617,-7.95977],[111.60597,-7.95976],[111.60573,-7.95986],[111.6055,-7.96009],[111.60529,-7.96039],[111.60508,-7.96078],[111.6048,-7.96144],[111.6043,-7.96301],[111.60189,-7.96251],[111.6014,-7.96236],[111.60096,-7.96214],[111.6006,-7.9619],[111.60029,-7.96161],[111.6,-7.96125],[111.59973,-7.96081],[111.59954,-7.96037],[111.59902,-7.95837],[111.59894,-7.95775],[111.59897,-7.95719],[111.59911,-7.95672],[111.59937,-7.95625],[111.59968,-7.95592],[111.60005,-7.95574],[111.60041,-7.95568],[111.60102,-7.9558],[111.60199,-7.95592],[111.60282,-7.95599],[111.60317,-7.95596],[111.6045,-7.95564],[111.6063,-7.95482],[111.60852,-7.95399],[111.60894,-7.9539],[111.60944,-7.95384],[111.60979,-7.95383]]]}},{"type":"Feature","properties":{"deskripsi":"Lanau, Pasir, Lempung, Lumpur, Dan Kerikil","pulau":"Jawa","litologi":"Endapan Lepas","kelulusan":"Rendah - Sedang","umur":"Q","_cls":"Endapan Lepas"},"geometry":{"type":"Polygon","coordinates":[[[111.64933,-8.02173],[111.64979,-8.021],[111.64999,-8.02075],[111.65021,-8.02055],[111.6505,-8.02039],[111.65081,-8.02029],[111.65128,-8.02022],[111.65273,-8.02023],[111.65336,-8.02019],[111.6533,-8.02048],[111.65319,-8.02058],[111.65294,-8.02067],[111.65165,-8.0214],[111.65142,-8.02146],[111.65096,-8.0214],[111.65086,-8.02148],[111.65079,-8.02162],[111.65074,-8.02203],[111.65064,-8.02214],[111.64983,-8.02207],[111.64933,-8.02173]]]}},{"type":"Feature","properties":{"deskripsi":"Lanau, Pasir, Lempung, Lumpur, Dan Kerikil","pulau":"Jawa","litologi":"Endapan Lepas","kelulusan":"Rendah - Sedang","umur":"Q","_cls":"Endapan Lepas"},"geometry":{"type":"MultiPolygon","coordinates":[[[[111.52129,-7.96315],[111.52245,-7.9633],[111.52346,-7.96335],[111.52501,-7.96351],[111.52578,-7.96365],[111.527,-7.96378],[111.52722,-7.96388],[111.52728,-7.96428],[111.52739,-7.96434],[111.52763,-7.96457],[111.52782,-7.96463],[111.52829,-7.96459],[111.52842,-7.96464],[111.52861,-7.96482],[111.52881,-7.96481],[111.52903,-7.96485],[111.52913,-7.96481],[111.52926,-7.96454],[111.52939,-7.96451],[111.5296,-7.9647],[111.52967,-7.96491],[111.52978,-7.96493],[111.53009,-7.9649],[111.53027,-7.96518],[111.53042,-7.96531],[111.53059,-7.96529],[111.53058,-7.96503],[111.5307,-7.96497],[111.53077,-7.96489],[111.53082,-7.9664],[111.53089,-7.96641],[111.5309,-7.96636],[111.53125,-7.96641],[111.53185,-7.96644],[111.53192,-7.96659],[111.53192,-7.96678],[111.5328,-7.96687],[111.53281,-7.96681],[111.53345,-7.96681],[111.53354,-7.96684],[111.53363,-7.96693],[111.53378,-7.96688],[111.53401,-7.96685],[111.53408,-7.96678],[111.53586,-7.96685],[111.53597,-7.9672],[111.53608,-7.96894],[111.53625,-7.96879],[111.53635,-7.96866],[111.53656,-7.96869],[111.5367,-7.96874],[111.53684,-7.96896],[111.53716,-7.96922],[111.5372,-7.96958],[111.53732,-7.9698],[111.53769,-7.97013],[111.538,-7.97071],[111.53797,-7.97095],[111.5378,-7.97161],[111.5379,-7.97242],[111.53791,-7.97313],[111.53786,-7.97328],[111.53768,-7.97348],[111.53734,-7.97377],[111.537,-7.97389],[111.53632,-7.97386],[111.53541,-7.97362],[111.53505,-7.97357],[111.53408,-7.97375],[111.53379,-7.97385],[111.53348,-7.974],[111.53307,-7.97427],[111.53295,-7.97444],[111.53275,-7.97483],[111.53252,-7.97512],[111.53224,-7.97538],[111.53196,-7.97551],[111.53113,-7.97561],[111.52994,-7.97558],[111.52942,-7.97559],[111.52953,-7.97087],[111.52851,-7.97083],[111.52803,-7.97087],[111.52307,-7.97103],[111.523,-7.97043],[111.52301,-7.97019],[111.52296,-7.96966],[111.52291,-7.96807],[111.52182,-7.96818],[111.52158,-7.96831],[111.52148,-7.96669],[111.52144,-7.96664],[111.52134,-7.96662],[111.52131,-7.96658],[111.52127,-7.96611],[111.51877,-7.96601],[111.5188,-7.96352],[111.52011,-7.96337],[111.52025,-7.96334],[111.52053,-7.9632],[111.52129,-7.96315]]],[[[111.53235,-7.94643],[111.5337,-7.94633],[111.53402,-7.94638],[111.53435,-7.94653],[111.53478,-7.94682],[111.5351,-7.94715],[111.53525,-7.9474],[111.53539,-7.94796],[111.53548,-7.94818],[111.5357,-7.94846],[111.53603,-7.94875],[111.53631,-7.9489],[111.53695,-7.94911],[111.5372,-7.94926],[111.53749,-7.94931],[111.53798,-7.94932],[111.53836,-7.94943],[111.53857,-7.94955],[111.53888,-7.94985],[111.53915,-7.95002],[111.53954,-7.95021],[111.54017,-7.9504],[111.54049,-7.95058],[111.54061,-7.95067],[111.54085,-7.95098],[111.54088,-7.95104],[111.54087,-7.95117],[111.5407,-7.95155],[111.54067,-7.95173],[111.54068,-7.95185],[111.54078,-7.95209],[111.5408,-7.95255],[111.54073,-7.95278],[111.54061,-7.95294],[111.53991,-7.95346],[111.53968,-7.95392],[111.53947,-7.95424],[111.53906,-7.95475],[111.5388,-7.95501],[111.5388,-7.95491],[111.53851,-7.95485],[111.53863,-7.95462],[111.53868,-7.95445],[111.53867,-7.95415],[111.53859,-7.95393],[111.53846,-7.95384],[111.53803,-7.95373],[111.53799,-7.95367],[111.53794,-7.95345],[111.53781,-7.95332],[111.53763,-7.95325],[111.53739,-7.95322],[111.5364,-7.95322],[111.53579,-7.95315],[111.53542,-7.95317],[111.53501,-7.95324],[111.53344,-7.95369],[111.53285,-7.95401],[111.53164,-7.95485],[111.53161,-7.95402],[111.53147,-7.95333],[111.53147,-7.95269],[111.53126,-7.95226],[111.53126,-7.95195],[111.53132,-7.95187],[111.53156,-7.95174],[111.53144,-7.9511],[111.5318,-7.95102],[111.5321,-7.95078],[111.53222,-7.95073],[111.53198,-7.95013],[111.53178,-7.94975],[111.53105,-7.9502],[111.53078,-7.94975],[111.53042,-7.94932],[111.53099,-7.94912],[111.53101,-7.94909],[111.53012,-7.94628],[111.52929,-7.94394],[111.52946,-7.94382],[111.52977,-7.94367],[111.53009,-7.94357],[111.53032,-7.9434],[111.53074,-7.94321],[111.5308,-7.94317],[111.53077,-7.94303],[111.53139,-7.94287],[111.53161,-7.94295],[111.53138,-7.94331],[111.53119,-7.94407],[111.53113,-7.94513],[111.53115,-7.94553],[111.5313,-7.94596],[111.53146,-7.94614],[111.53194,-7.94636],[111.53235,-7.94643]]]]}}]}