{"type":"FeatureCollection","features":[{"type":"Feature","properties":{"REMARK":"Hutan Rimba"},"geometry":{"type":"Polygon","coordinates":[[[111.65692,-7.96611],[111.65777,-7.96667],[111.65799,-7.96688],[111.65793,-7.96706],[111.65817,-7.96726],[111.65843,-7.96762],[111.65851,-7.96769],[111.6588,-7.96775],[111.65898,-7.96773],[111.65902,-7.96777],[111.66052,-7.96757],[111.66187,-7.96716],[111.66262,-7.96713],[111.66323,-7.96749],[111.66349,-7.96782],[111.6635,-7.96813],[111.66333,-7.96884],[111.66309,-7.96884],[111.66268,-7.9691],[111.66235,-7.97008],[111.66227,-7.97024],[111.66213,-7.97034],[111.66191,-7.97035],[111.66166,-7.97028],[111.6615,-7.97018],[111.66122,-7.96977],[111.66112,-7.96971],[111.661,-7.96971],[111.6609,-7.9698],[111.66073,-7.9705],[111.66066,-7.97059],[111.66049,-7.97059],[111.6595,-7.97001],[111.6594,-7.97],[111.65928,-7.97005],[111.65923,-7.97016],[111.6595,-7.97101],[111.65952,-7.97115],[111.65948,-7.97129],[111.65904,-7.97164],[111.65859,-7.97174],[111.65835,-7.97205],[111.65831,-7.97236],[111.65835,-7.97296],[111.65833,-7.97338],[111.65838,-7.97366],[111.65848,-7.97385],[111.65888,-7.97422],[111.65905,-7.97479],[111.65907,-7.97535],[111.65841,-7.97532],[111.65783,-7.97537],[111.65732,-7.97556],[111.65704,-7.97558],[111.6567,-7.97568],[111.65641,-7.97579],[111.65626,-7.97593],[111.65613,-7.97621],[111.65598,-7.9767],[111.6558,-7.97711],[111.65569,-7.97753],[111.65565,-7.9778],[111.65545,-7.97824],[111.6553,-7.97871],[111.65535,-7.97939],[111.65535,-7.97972],[111.65527,-7.98003],[111.6551,-7.98043],[111.65499,-7.98059],[111.65388,-7.9814],[111.65372,-7.98154],[111.65369,-7.98162],[111.65376,-7.98223],[111.65338,-7.98336],[111.65335,-7.98357],[111.65342,-7.98378],[111.65351,-7.98448],[111.65367,-7.98499],[111.65371,-7.98551],[111.65369,-7.98584],[111.65358,-7.98614],[111.65327,-7.98587],[111.65304,-7.98572],[111.65189,-7.98533],[111.65106,-7.98491],[111.65104,-7.9852],[111.65097,-7.98546],[111.6508,-7.98586],[111.65074,-7.98614],[111.65074,-7.98626],[111.65111,-7.98657],[111.65129,-7.98669],[111.65203,-7.98703],[111.6517,-7.98726],[111.65154,-7.98731],[111.65129,-7.98733],[111.65006,-7.9873],[111.64973,-7.98726],[111.64938,-7.98729],[111.6488,-7.98711],[111.64889,-7.98703],[111.64897,-7.98685],[111.64894,-7.98675],[111.64875,-7.98656],[111.64835,-7.98645],[111.64816,-7.98634],[111.64805,-7.98621],[111.64803,-7.98571],[111.64794,-7.9854],[111.64781,-7.98516],[111.64763,-7.98493],[111.64747,-7.98484],[111.64722,-7.98483],[111.64596,-7.98499],[111.64577,-7.98493],[111.64542,-7.98472],[111.64519,-7.98452],[111.64564,-7.98298],[111.64581,-7.98221],[111.64578,-7.98183],[111.64569,-7.98178],[111.64545,-7.98156],[111.64541,-7.98141],[111.64544,-7.98118],[111.64561,-7.98087],[111.6459,-7.98049],[111.64653,-7.97951],[111.6468,-7.9791],[111.64706,-7.97879],[111.64731,-7.97863],[111.64791,-7.97852],[111.64811,-7.97836],[111.64837,-7.97804],[111.64868,-7.97733],[111.64896,-7.97683],[111.64981,-7.97596],[111.65024,-7.97558],[111.6506,-7.97517],[111.65073,-7.97495],[111.65089,-7.97443],[111.65186,-7.9744],[111.65205,-7.97434],[111.65218,-7.97411],[111.65227,-7.97375],[111.65248,-7.97326],[111.65327,-7.9723],[111.65339,-7.9721],[111.65355,-7.97232],[111.65356,-7.97285],[111.65369,-7.97296],[111.65411,-7.9731],[111.65442,-7.97325],[111.65458,-7.97337],[111.65469,-7.97351],[111.65473,-7.97365],[111.65471,-7.97416],[111.65473,-7.97438],[111.65479,-7.97458],[111.65488,-7.97475],[111.65495,-7.97481],[111.6551,-7.97484],[111.65539,-7.97473],[111.65543,-7.97397],[111.65552,-7.97356],[111.65619,-7.97291],[111.65637,-7.97285],[111.65676,-7.973],[111.65673,-7.97328],[111.65691,-7.97445],[111.65706,-7.97436],[111.65711,-7.97387],[111.65714,-7.97326],[111.65722,-7.97266],[111.65737,-7.97212],[111.65786,-7.97104],[111.65794,-7.97073],[111.65796,-7.97019],[111.65788,-7.96976],[111.6577,-7.96982],[111.65735,-7.9702],[111.65724,-7.97027],[111.6568,-7.9702],[111.65657,-7.9704],[111.65631,-7.97055],[111.65622,-7.97057],[111.65602,-7.97046],[111.65591,-7.97037],[111.65589,-7.97027],[111.65625,-7.96978],[111.65629,-7.96965],[111.65627,-7.96943],[111.65621,-7.96936],[111.65535,-7.96922],[111.65572,-7.9685],[111.65612,-7.96791],[111.65694,-7.96747],[111.65717,-7.96714],[111.65691,-7.96702],[111.65668,-7.96684],[111.65645,-7.96657],[111.65629,-7.96644],[111.65575,-7.96622],[111.65561,-7.96652],[111.65539,-7.96674],[111.65517,-7.9669],[111.65502,-7.96693],[111.65495,-7.96691],[111.65493,-7.96676],[111.65495,-7.96659],[111.65491,-7.96645],[111.65481,-7.96632],[111.6547,-7.96629],[111.6541,-7.96649],[111.654,-7.96647],[111.65369,-7.96609],[111.65355,-7.96578],[111.65354,-7.96513],[111.65349,-7.96448],[111.65367,-7.96454],[111.65436,-7.96505],[111.65487,-7.96526],[111.65582,-7.96572],[111.65692,-7.96611]]]}},{"type":"Feature","properties":{"REMARK":"Hutan Rimba"},"geometry":{"type":"MultiPolygon","coordinates":[[[[111.64931,-8.01399],[111.64958,-8.01396],[111.65024,-8.01377],[111.65132,-8.01341],[111.6521,-8.01328],[111.6522,-8.01332],[111.65231,-8.0135],[111.65235,-8.01363],[111.65239,-8.01406],[111.65236,-8.0149],[111.65222,-8.01616],[111.65208,-8.0166],[111.65188,-8.01692],[111.65053,-8.01807],[111.65032,-8.01815],[111.64958,-8.01819],[111.6491,-8.01804],[111.64829,-8.01734],[111.64789,-8.01705],[111.64767,-8.01693],[111.64745,-8.0169],[111.64726,-8.0169],[111.64714,-8.01696],[111.64708,-8.0166],[111.64695,-8.01605],[111.64686,-8.01546],[111.64686,-8.01488],[111.64694,-8.01436],[111.64722,-8.01295],[111.64725,-8.01255],[111.64754,-8.01217],[111.6477,-8.01174],[111.6477,-8.01104],[111.64781,-8.01059],[111.64784,-8.01007],[111.64799,-8.00953],[111.64799,-8.00914],[111.64834,-8.00867],[111.64827,-8.00817],[111.6483,-8.00806],[111.6484,-8.00868],[111.64838,-8.00888],[111.64808,-8.00934],[111.64805,-8.00946],[111.64812,-8.00965],[111.64787,-8.01142],[111.64788,-8.01173],[111.6478,-8.01239],[111.64779,-8.01267],[111.64793,-8.01288],[111.64815,-8.01309],[111.64841,-8.01326],[111.64869,-8.01356],[111.64915,-8.01391],[111.64931,-8.01399]]],[[[111.6439,-8.00498],[111.64402,-8.00494],[111.64429,-8.00485],[111.64445,-8.00474],[111.64429,-8.00485],[111.6439,-8.00498]]],[[[111.64487,-8.00433],[111.6447,-8.00452],[111.64487,-8.00433],[111.64487,-8.00433]]],[[[111.64521,-8.00375],[111.64521,-8.00376],[111.64521,-8.00374],[111.64521,-8.00375]]],[[[111.64523,-8.00371],[111.64522,-8.00372],[111.6453,-8.00354],[111.64523,-8.00371]]],[[[111.64968,-8.00169],[111.64963,-8.00192],[111.64977,-8.00192],[111.64971,-8.00202],[111.64963,-8.0023],[111.64962,-8.00267],[111.6497,-8.00307],[111.64983,-8.00317],[111.65004,-8.00322],[111.65035,-8.00322],[111.65082,-8.00313],[111.65095,-8.00352],[111.65144,-8.00427],[111.65131,-8.00418],[111.65059,-8.00392],[111.65027,-8.00384],[111.6503,-8.00393],[111.65022,-8.00417],[111.65013,-8.00429],[111.64995,-8.00437],[111.64923,-8.0045],[111.64858,-8.00499],[111.64843,-8.00517],[111.64815,-8.00563],[111.64789,-8.00517],[111.64771,-8.00378],[111.64684,-8.00343],[111.64619,-8.00329],[111.64544,-8.00319],[111.64547,-8.0031],[111.64547,-8.00291],[111.64522,-8.00236],[111.64519,-8.00218],[111.64525,-8.00197],[111.64543,-8.00177],[111.64607,-8.00134],[111.64635,-8.0012],[111.64673,-8.00111],[111.64691,-8.00096],[111.64694,-8.00087],[111.64687,-8.00071],[111.64632,-8.00008],[111.64615,-7.99979],[111.64605,-7.99942],[111.64605,-7.99909],[111.6461,-7.99866],[111.64625,-7.99836],[111.64672,-7.99775],[111.64683,-7.99747],[111.64689,-7.99713],[111.64718,-7.99698],[111.64784,-7.99655],[111.64847,-7.99607],[111.64867,-7.99597],[111.64896,-7.99593],[111.64936,-7.99597],[111.64974,-7.99607],[111.65038,-7.99643],[111.6505,-7.99659],[111.65103,-7.9971],[111.65111,-7.99726],[111.65115,-7.99747],[111.65106,-7.99796],[111.65091,-7.99827],[111.65049,-7.99897],[111.6501,-7.99972],[111.64968,-8.00111],[111.64968,-8.00169]]]]}},{"type":"Feature","properties":{"REMARK":"Hutan Rimba"},"geometry":{"type":"MultiPolygon","coordinates":[[[[111.65532,-8.01204],[111.65565,-8.01131],[111.65565,-8.01113],[111.65565,-8.01131],[111.65532,-8.01204]]],[[[111.6557,-8.00475],[111.65559,-8.00585],[111.65571,-8.00644],[111.65554,-8.00683],[111.65562,-8.00722],[111.65562,-8.00761],[111.65592,-8.0084],[111.65589,-8.00881],[111.65566,-8.00936],[111.65561,-8.00931],[111.65562,-8.00973],[111.65561,-8.00931],[111.65545,-8.00903],[111.65538,-8.00874],[111.6552,-8.00856],[111.65504,-8.00835],[111.65485,-8.00782],[111.65425,-8.00758],[111.65403,-8.00743],[111.65396,-8.00733],[111.65454,-8.00583],[111.65465,-8.00537],[111.65468,-8.00512],[111.65463,-8.00388],[111.65454,-8.00347],[111.65429,-8.00295],[111.6541,-8.00239],[111.65392,-8.0022],[111.65348,-8.00197],[111.65352,-8.00185],[111.65353,-8.00125],[111.65364,-8.00108],[111.65376,-8.00079],[111.65403,-7.99966],[111.65418,-7.9993],[111.65435,-7.99909],[111.65487,-7.99884],[111.65499,-7.99828],[111.65513,-7.99811],[111.65573,-7.99777],[111.65599,-7.99767],[111.65553,-7.99912],[111.65504,-7.99982],[111.65456,-8.00042],[111.65447,-8.00061],[111.65435,-8.00108],[111.65436,-8.0016],[111.6545,-8.00201],[111.6547,-8.00234],[111.65508,-8.00284],[111.65534,-8.00327],[111.6556,-8.00388],[111.65574,-8.00436],[111.65575,-8.00455],[111.6557,-8.00475]]]]}}]}