{"type":"FeatureCollection","features":[{"type":"Feature","properties":{"namobj":"SUTT 70 kV Trenggalek - Ponorogo","pjgjar":34.34,"regpln":"Jawa-Bali"},"geometry":{"type":"MultiLineString","coordinates":[[[111.59871,-8.01842],[111.5971,-8.01792],[111.5951,-8.0166],[111.5932,-8.01557],[111.59258,-8.01409],[111.59196,-8.0119],[111.5912,-8.01031],[111.59076,-8.00878],[111.59002,-8.0072],[111.58903,-8.0043],[111.58768,-8.00102],[111.58698,-7.99863],[111.58548,-7.9943],[111.58373,-7.98867],[111.58285,-7.98608],[111.582,-7.98313],[111.5791,-7.97372],[111.57713,-7.97187],[111.56833,-7.96383],[111.56615,-7.9618],[111.56417,-7.96007],[111.56182,-7.9582],[111.55962,-7.95565],[111.55782,-7.95418],[111.55343,-7.95013],[111.55162,-7.9488],[111.54973,-7.94662],[111.5479,-7.94538],[111.54355,-7.94091],[111.54144,-7.93896],[111.53993,-7.93688],[111.53888,-7.93555]],[[111.60747,-8.01856],[111.60563,-8.01815],[111.60329,-8.01859]]]}}]}