{"type":"FeatureCollection","features":[{"type":"Feature","properties":{"REMARK":"Jembatan","FGSJMB":1,"MATJMB":1},"geometry":{"type":"Point","coordinates":[111.62579,-7.95468]}},{"type":"Feature","properties":{"REMARK":"Jembatan","FGSJMB":1,"MATJMB":1},"geometry":{"type":"Point","coordinates":[111.64193,-7.96082]}},{"type":"Feature","properties":{"REMARK":"Jembatan","FGSJMB":1,"MATJMB":1},"geometry":{"type":"Point","coordinates":[111.64281,-7.96087]}},{"type":"Feature","properties":{"REMARK":"Jembatan","FGSJMB":1,"MATJMB":1},"geometry":{"type":"Point","coordinates":[111.64521,-7.96128]}},{"type":"Feature","properties":{"REMARK":"Jembatan","FGSJMB":1,"MATJMB":1},"geometry":{"type":"Point","coordinates":[111.62504,-7.96915]}},{"type":"Feature","properties":{"REMARK":"Jembatan","FGSJMB":1,"MATJMB":1},"geometry":{"type":"Point","coordinates":[111.63353,-7.96976]}},{"type":"Feature","properties":{"REMARK":"Jembatan","FGSJMB":1,"MATJMB":1},"geometry":{"type":"Point","coordinates":[111.65147,-7.9702]}},{"type":"Feature","properties":{"REMARK":"Jembatan","FGSJMB":1,"MATJMB":1},"geometry":{"type":"Point","coordinates":[111.65218,-7.97026]}},{"type":"Feature","properties":{"REMARK":"Jembatan","FGSJMB":1,"MATJMB":1},"geometry":{"type":"Point","coordinates":[111.65635,-7.97053]}},{"type":"Feature","properties":{"REMARK":"Jembatan","FGSJMB":1,"MATJMB":1},"geometry":{"type":"Point","coordinates":[111.64249,-7.97116]}},{"type":"Feature","properties":{"REMARK":"Jembatan","FGSJMB":1,"MATJMB":1},"geometry":{"type":"Point","coordinates":[111.64777,-7.97227]}},{"type":"Feature","properties":{"REMARK":"Jembatan","FGSJMB":1,"MATJMB":1},"geometry":{"type":"Point","coordinates":[111.65925,-7.97551]}},{"type":"Feature","properties":{"REMARK":"Jembatan","FGSJMB":1,"MATJMB":1},"geometry":{"type":"Point","coordinates":[111.64549,-7.97564]}},{"type":"Feature","properties":{"REMARK":"Jembatan","FGSJMB":1,"MATJMB":1},"geometry":{"type":"Point","coordinates":[111.62923,-7.98086]}},{"type":"Feature","properties":{"REMARK":"Jembatan","FGSJMB":1,"MATJMB":1},"geometry":{"type":"Point","coordinates":[111.626,-7.98112]}},{"type":"Feature","properties":{"REMARK":"Jembatan","FGSJMB":1,"MATJMB":1},"geometry":{"type":"Point","coordinates":[111.62989,-7.98422]}},{"type":"Feature","properties":{"REMARK":"Jembatan","FGSJMB":1,"MATJMB":1},"geometry":{"type":"Point","coordinates":[111.63054,-7.98512]}},{"type":"Feature","properties":{"REMARK":"Jembatan","FGSJMB":1,"MATJMB":1},"geometry":{"type":"Point","coordinates":[111.62517,-7.98528]}},{"type":"Feature","properties":{"REMARK":"Jembatan","FGSJMB":1,"MATJMB":1},"geometry":{"type":"Point","coordinates":[111.63215,-7.98554]}},{"type":"Feature","properties":{"REMARK":"Jembatan","FGSJMB":1,"MATJMB":1},"geometry":{"type":"Point","coordinates":[111.63201,-7.98557]}},{"type":"Feature","properties":{"REMARK":"Jembatan","FGSJMB":1,"MATJMB":1},"geometry":{"type":"Point","coordinates":[111.64169,-7.98578]}},{"type":"Feature","properties":{"REMARK":"Jembatan","FGSJMB":1,"MATJMB":1},"geometry":{"type":"Point","coordinates":[111.64282,-7.98824]}},{"type":"Feature","properties":{"REMARK":"Jembatan","FGSJMB":1,"MATJMB":1},"geometry":{"type":"Point","coordinates":[111.65292,-7.992]}},{"type":"Feature","properties":{"REMARK":"Jembatan","FGSJMB":1,"MATJMB":1},"geometry":{"type":"Point","coordinates":[111.6444,-7.99433]}},{"type":"Feature","properties":{"REMARK":"Jembatan","FGSJMB":1,"MATJMB":1},"geometry":{"type":"Point","coordinates":[111.63043,-7.99445]}},{"type":"Feature","properties":{"REMARK":"Jembatan","FGSJMB":1,"MATJMB":1},"geometry":{"type":"Point","coordinates":[111.65344,-7.99487]}},{"type":"Feature","properties":{"REMARK":"Jembatan","FGSJMB":1,"MATJMB":1},"geometry":{"type":"Point","coordinates":[111.55213,-7.93376]}},{"type":"Feature","properties":{"REMARK":"Jembatan","FGSJMB":1,"MATJMB":1},"geometry":{"type":"Point","coordinates":[111.5575,-7.93408]}},{"type":"Feature","properties":{"REMARK":"Jembatan","FGSJMB":1,"MATJMB":1},"geometry":{"type":"Point","coordinates":[111.58566,-7.9354]}},{"type":"Feature","properties":{"REMARK":"Jembatan","FGSJMB":1,"MATJMB":1},"geometry":{"type":"Point","coordinates":[111.58073,-7.93591]}},{"type":"Feature","properties":{"REMARK":"Jembatan","FGSJMB":1,"MATJMB":1},"geometry":{"type":"Point","coordinates":[111.5404,-7.93598]}},{"type":"Feature","properties":{"REMARK":"Jembatan","FGSJMB":1,"MATJMB":1},"geometry":{"type":"Point","coordinates":[111.58558,-7.93675]}},{"type":"Feature","properties":{"REMARK":"Jembatan","FGSJMB":1,"MATJMB":1},"geometry":{"type":"Point","coordinates":[111.58712,-7.93748]}},{"type":"Feature","properties":{"REMARK":"Jembatan","FGSJMB":1,"MATJMB":1},"geometry":{"type":"Point","coordinates":[111.57204,-7.93815]}},{"type":"Feature","properties":{"REMARK":"Jembatan","FGSJMB":1,"MATJMB":1},"geometry":{"type":"Point","coordinates":[111.57744,-7.93819]}},{"type":"Feature","properties":{"REMARK":"Jembatan","FGSJMB":1,"MATJMB":1},"geometry":{"type":"Point","coordinates":[111.53319,-7.94355]}},{"type":"Feature","properties":{"REMARK":"Jembatan","FGSJMB":1,"MATJMB":1},"geometry":{"type":"Point","coordinates":[111.61958,-7.94701]}},{"type":"Feature","properties":{"REMARK":"Jembatan","FGSJMB":1,"MATJMB":1},"geometry":{"type":"Point","coordinates":[111.61582,-7.94753]}},{"type":"Feature","properties":{"REMARK":"Jembatan","FGSJMB":1,"MATJMB":1},"geometry":{"type":"Point","coordinates":[111.60905,-7.94802]}},{"type":"Feature","properties":{"REMARK":"Jembatan","FGSJMB":1,"MATJMB":1},"geometry":{"type":"Point","coordinates":[111.62479,-7.94828]}},{"type":"Feature","properties":{"REMARK":"Jembatan","FGSJMB":1,"MATJMB":1},"geometry":{"type":"Point","coordinates":[111.53857,-7.94894]}},{"type":"Feature","properties":{"REMARK":"Jembatan","FGSJMB":1,"MATJMB":1},"geometry":{"type":"Point","coordinates":[111.62454,-7.94883]}},{"type":"Feature","properties":{"REMARK":"Jembatan","FGSJMB":1,"MATJMB":1},"geometry":{"type":"Point","coordinates":[111.53837,-7.94906]}},{"type":"Feature","properties":{"REMARK":"Jembatan","FGSJMB":1,"MATJMB":1},"geometry":{"type":"Point","coordinates":[111.54244,-7.9491]}},{"type":"Feature","properties":{"REMARK":"Jembatan","FGSJMB":1,"MATJMB":1},"geometry":{"type":"Point","coordinates":[111.53872,-7.94931]}},{"type":"Feature","properties":{"REMARK":"Jembatan","FGSJMB":1,"MATJMB":1},"geometry":{"type":"Point","coordinates":[111.53102,-7.95013]}},{"type":"Feature","properties":{"REMARK":"Jembatan","FGSJMB":1,"MATJMB":1},"geometry":{"type":"Point","coordinates":[111.55017,-7.95022]}},{"type":"Feature","properties":{"REMARK":"Jembatan","FGSJMB":1,"MATJMB":1},"geometry":{"type":"Point","coordinates":[111.60923,-7.95091]}},{"type":"Feature","properties":{"REMARK":"Jembatan","FGSJMB":1,"MATJMB":1},"geometry":{"type":"Point","coordinates":[111.62121,-7.95168]}},{"type":"Feature","properties":{"REMARK":"Jembatan","FGSJMB":1,"MATJMB":1},"geometry":{"type":"Point","coordinates":[111.62204,-7.95345]}},{"type":"Feature","properties":{"REMARK":"Jembatan","FGSJMB":1,"MATJMB":1},"geometry":{"type":"Point","coordinates":[111.56311,-7.95358]}},{"type":"Feature","properties":{"REMARK":"Jembatan","FGSJMB":1,"MATJMB":1},"geometry":{"type":"Point","coordinates":[111.60852,-7.95448]}},{"type":"Feature","properties":{"REMARK":"Jembatan","FGSJMB":1,"MATJMB":1},"geometry":{"type":"Point","coordinates":[111.62102,-7.95571]}},{"type":"Feature","properties":{"REMARK":"Jembatan","FGSJMB":1,"MATJMB":1},"geometry":{"type":"Point","coordinates":[111.61469,-7.95739]}},{"type":"Feature","properties":{"REMARK":"Jembatan","FGSJMB":1,"MATJMB":1},"geometry":{"type":"Point","coordinates":[111.55691,-7.9577]}},{"type":"Feature","properties":{"REMARK":"Jembatan","FGSJMB":1,"MATJMB":1},"geometry":{"type":"Point","coordinates":[111.6093,-7.95764]}},{"type":"Feature","properties":{"REMARK":"Jembatan","FGSJMB":1,"MATJMB":1},"geometry":{"type":"Point","coordinates":[111.61986,-7.95775]}},{"type":"Feature","properties":{"REMARK":"Jembatan","FGSJMB":1,"MATJMB":1},"geometry":{"type":"Point","coordinates":[111.56523,-7.95805]}},{"type":"Feature","properties":{"REMARK":"Jembatan","FGSJMB":1,"MATJMB":1},"geometry":{"type":"Point","coordinates":[111.62454,-7.95835]}},{"type":"Feature","properties":{"REMARK":"Jembatan","FGSJMB":1,"MATJMB":1},"geometry":{"type":"Point","coordinates":[111.55025,-7.95894]}},{"type":"Feature","properties":{"REMARK":"Jembatan","FGSJMB":1,"MATJMB":1},"geometry":{"type":"Point","coordinates":[111.5741,-7.96036]}},{"type":"Feature","properties":{"REMARK":"Jembatan","FGSJMB":1,"MATJMB":1},"geometry":{"type":"Point","coordinates":[111.6078,-7.9606]}},{"type":"Feature","properties":{"REMARK":"Jembatan","FGSJMB":1,"MATJMB":1},"geometry":{"type":"Point","coordinates":[111.54258,-7.96319]}},{"type":"Feature","properties":{"REMARK":"Jembatan","FGSJMB":1,"MATJMB":1},"geometry":{"type":"Point","coordinates":[111.61527,-7.96333]}},{"type":"Feature","properties":{"REMARK":"Jembatan","FGSJMB":1,"MATJMB":1},"geometry":{"type":"Point","coordinates":[111.55857,-7.96344]}},{"type":"Feature","properties":{"REMARK":"Jembatan","FGSJMB":1,"MATJMB":1},"geometry":{"type":"Point","coordinates":[111.59944,-7.96533]}},{"type":"Feature","properties":{"REMARK":"Jembatan","FGSJMB":1,"MATJMB":1},"geometry":{"type":"Point","coordinates":[111.59858,-7.96572]}},{"type":"Feature","properties":{"REMARK":"Jembatan","FGSJMB":1,"MATJMB":1},"geometry":{"type":"Point","coordinates":[111.54986,-7.96631]}},{"type":"Feature","properties":{"REMARK":"Jembatan","FGSJMB":1,"MATJMB":1},"geometry":{"type":"Point","coordinates":[111.62436,-7.96711]}},{"type":"Feature","properties":{"REMARK":"Jembatan","FGSJMB":1,"MATJMB":1},"geometry":{"type":"Point","coordinates":[111.59694,-7.96732]}},{"type":"Feature","properties":{"REMARK":"Jembatan","FGSJMB":1,"MATJMB":1},"geometry":{"type":"Point","coordinates":[111.52944,-7.96755]}},{"type":"Feature","properties":{"REMARK":"Jembatan","FGSJMB":1,"MATJMB":1},"geometry":{"type":"Point","coordinates":[111.5328,-7.96815]}},{"type":"Feature","properties":{"REMARK":"Jembatan","FGSJMB":1,"MATJMB":1},"geometry":{"type":"Point","coordinates":[111.55752,-7.9687]}},{"type":"Feature","properties":{"REMARK":"Jembatan","FGSJMB":1,"MATJMB":1},"geometry":{"type":"Point","coordinates":[111.53605,-7.96892]}},{"type":"Feature","properties":{"REMARK":"Jembatan","FGSJMB":1,"MATJMB":1},"geometry":{"type":"Point","coordinates":[111.59164,-7.96943]}},{"type":"Feature","properties":{"REMARK":"Jembatan","FGSJMB":1,"MATJMB":1},"geometry":{"type":"Point","coordinates":[111.60893,-7.96968]}},{"type":"Feature","properties":{"REMARK":"Jembatan","FGSJMB":1,"MATJMB":1},"geometry":{"type":"Point","coordinates":[111.56161,-7.96988]}},{"type":"Feature","properties":{"REMARK":"Jembatan","FGSJMB":1,"MATJMB":1},"geometry":{"type":"Point","coordinates":[111.56287,-7.96995]}},{"type":"Feature","properties":{"REMARK":"Jembatan","FGSJMB":1,"MATJMB":1},"geometry":{"type":"Point","coordinates":[111.54274,-7.97028]}},{"type":"Feature","properties":{"REMARK":"Jembatan","FGSJMB":1,"MATJMB":1},"geometry":{"type":"Point","coordinates":[111.55728,-7.97075]}},{"type":"Feature","properties":{"REMARK":"Jembatan","FGSJMB":1,"MATJMB":1},"geometry":{"type":"Point","coordinates":[111.57422,-7.97123]}},{"type":"Feature","properties":{"REMARK":"Jembatan","FGSJMB":1,"MATJMB":1},"geometry":{"type":"Point","coordinates":[111.56536,-7.9714]}},{"type":"Feature","properties":{"REMARK":"Jembatan","FGSJMB":1,"MATJMB":1},"geometry":{"type":"Point","coordinates":[111.56132,-7.97157]}},{"type":"Feature","properties":{"REMARK":"Jembatan","FGSJMB":1,"MATJMB":1},"geometry":{"type":"Point","coordinates":[111.58349,-7.97244]}},{"type":"Feature","properties":{"REMARK":"Jembatan","FGSJMB":1,"MATJMB":1},"geometry":{"type":"Point","coordinates":[111.61204,-7.97337]}},{"type":"Feature","properties":{"REMARK":"Jembatan","FGSJMB":1,"MATJMB":1},"geometry":{"type":"Point","coordinates":[111.53087,-7.9741]}},{"type":"Feature","properties":{"REMARK":"Jembatan","FGSJMB":1,"MATJMB":1},"geometry":{"type":"Point","coordinates":[111.58046,-7.97456]}},{"type":"Feature","properties":{"REMARK":"Jembatan","FGSJMB":1,"MATJMB":1},"geometry":{"type":"Point","coordinates":[111.62475,-7.97463]}},{"type":"Feature","properties":{"REMARK":"Jembatan","FGSJMB":1,"MATJMB":1},"geometry":{"type":"Point","coordinates":[111.58423,-7.97564]}},{"type":"Feature","properties":{"REMARK":"Jembatan","FGSJMB":1,"MATJMB":1},"geometry":{"type":"Point","coordinates":[111.59274,-7.97663]}},{"type":"Feature","properties":{"REMARK":"Jembatan","FGSJMB":1,"MATJMB":1},"geometry":{"type":"Point","coordinates":[111.54705,-7.97704]}},{"type":"Feature","properties":{"REMARK":"Jembatan","FGSJMB":1,"MATJMB":1},"geometry":{"type":"Point","coordinates":[111.53226,-7.97776]}},{"type":"Feature","properties":{"REMARK":"Jembatan","FGSJMB":1,"MATJMB":1},"geometry":{"type":"Point","coordinates":[111.5331,-7.97791]}},{"type":"Feature","properties":{"REMARK":"Jembatan","FGSJMB":1,"MATJMB":1},"geometry":{"type":"Point","coordinates":[111.57603,-7.9781]}},{"type":"Feature","properties":{"REMARK":"Jembatan","FGSJMB":1,"MATJMB":1},"geometry":{"type":"Point","coordinates":[111.57792,-7.9794]}},{"type":"Feature","properties":{"REMARK":"Jembatan","FGSJMB":1,"MATJMB":1},"geometry":{"type":"Point","coordinates":[111.5895,-7.97964]}},{"type":"Feature","properties":{"REMARK":"Jembatan","FGSJMB":1,"MATJMB":1},"geometry":{"type":"Point","coordinates":[111.5789,-7.97966]}},{"type":"Feature","properties":{"REMARK":"Jembatan","FGSJMB":1,"MATJMB":1},"geometry":{"type":"Point","coordinates":[111.58024,-7.98054]}},{"type":"Feature","properties":{"REMARK":"Jembatan","FGSJMB":1,"MATJMB":1},"geometry":{"type":"Point","coordinates":[111.62499,-7.98056]}},{"type":"Feature","properties":{"REMARK":"Jembatan","FGSJMB":1,"MATJMB":1},"geometry":{"type":"Point","coordinates":[111.61771,-7.9812]}},{"type":"Feature","properties":{"REMARK":"Jembatan","FGSJMB":1,"MATJMB":1},"geometry":{"type":"Point","coordinates":[111.53676,-7.98137]}},{"type":"Feature","properties":{"REMARK":"Jembatan","FGSJMB":1,"MATJMB":1},"geometry":{"type":"Point","coordinates":[111.62377,-7.98181]}},{"type":"Feature","properties":{"REMARK":"Jembatan","FGSJMB":1,"MATJMB":1},"geometry":{"type":"Point","coordinates":[111.57406,-7.98205]}},{"type":"Feature","properties":{"REMARK":"Jembatan","FGSJMB":1,"MATJMB":1},"geometry":{"type":"Point","coordinates":[111.60384,-7.98251]}},{"type":"Feature","properties":{"REMARK":"Jembatan","FGSJMB":1,"MATJMB":1},"geometry":{"type":"Point","coordinates":[111.60865,-7.98256]}},{"type":"Feature","properties":{"REMARK":"Jembatan","FGSJMB":1,"MATJMB":1},"geometry":{"type":"Point","coordinates":[111.60983,-7.98266]}},{"type":"Feature","properties":{"REMARK":"Jembatan","FGSJMB":1,"MATJMB":1},"geometry":{"type":"Point","coordinates":[111.57406,-7.98338]}},{"type":"Feature","properties":{"REMARK":"Jembatan","FGSJMB":1,"MATJMB":1},"geometry":{"type":"Point","coordinates":[111.58547,-7.98426]}},{"type":"Feature","properties":{"REMARK":"Jembatan","FGSJMB":1,"MATJMB":1},"geometry":{"type":"Point","coordinates":[111.53915,-7.98437]}},{"type":"Feature","properties":{"REMARK":"Jembatan","FGSJMB":1,"MATJMB":1},"geometry":{"type":"Point","coordinates":[111.54291,-7.98455]}},{"type":"Feature","properties":{"REMARK":"Jembatan","FGSJMB":1,"MATJMB":1},"geometry":{"type":"Point","coordinates":[111.54455,-7.98509]}},{"type":"Feature","properties":{"REMARK":"Jembatan","FGSJMB":1,"MATJMB":1},"geometry":{"type":"Point","coordinates":[111.5851,-7.98565]}},{"type":"Feature","properties":{"REMARK":"Jembatan","FGSJMB":1,"MATJMB":1},"geometry":{"type":"Point","coordinates":[111.54289,-7.98586]}},{"type":"Feature","properties":{"REMARK":"Jembatan","FGSJMB":1,"MATJMB":1},"geometry":{"type":"Point","coordinates":[111.57798,-7.98594]}},{"type":"Feature","properties":{"REMARK":"Jembatan","FGSJMB":1,"MATJMB":1},"geometry":{"type":"Point","coordinates":[111.58909,-7.98638]}},{"type":"Feature","properties":{"REMARK":"Jembatan","FGSJMB":1,"MATJMB":1},"geometry":{"type":"Point","coordinates":[111.54153,-7.98683]}},{"type":"Feature","properties":{"REMARK":"Jembatan","FGSJMB":1,"MATJMB":1},"geometry":{"type":"Point","coordinates":[111.5796,-7.98769]}},{"type":"Feature","properties":{"REMARK":"Jembatan","FGSJMB":1,"MATJMB":1},"geometry":{"type":"Point","coordinates":[111.57405,-7.98771]}},{"type":"Feature","properties":{"REMARK":"Jembatan","FGSJMB":1,"MATJMB":1},"geometry":{"type":"Point","coordinates":[111.5795,-7.98772]}},{"type":"Feature","properties":{"REMARK":"Jembatan","FGSJMB":1,"MATJMB":1},"geometry":{"type":"Point","coordinates":[111.58834,-7.98824]}},{"type":"Feature","properties":{"REMARK":"Jembatan","FGSJMB":1,"MATJMB":1},"geometry":{"type":"Point","coordinates":[111.54409,-7.98837]}},{"type":"Feature","properties":{"REMARK":"Jembatan","FGSJMB":1,"MATJMB":1},"geometry":{"type":"Point","coordinates":[111.57955,-7.98852]}},{"type":"Feature","properties":{"REMARK":"Jembatan","FGSJMB":1,"MATJMB":1},"geometry":{"type":"Point","coordinates":[111.57955,-7.98867]}},{"type":"Feature","properties":{"REMARK":"Jembatan","FGSJMB":1,"MATJMB":1},"geometry":{"type":"Point","coordinates":[111.53928,-7.9892]}},{"type":"Feature","properties":{"REMARK":"Jembatan","FGSJMB":1,"MATJMB":1},"geometry":{"type":"Point","coordinates":[111.57491,-7.98933]}},{"type":"Feature","properties":{"REMARK":"Jembatan","FGSJMB":1,"MATJMB":1},"geometry":{"type":"Point","coordinates":[111.60124,-7.98949]}},{"type":"Feature","properties":{"REMARK":"Jembatan","FGSJMB":1,"MATJMB":1},"geometry":{"type":"Point","coordinates":[111.61445,-7.98955]}},{"type":"Feature","properties":{"REMARK":"Jembatan","FGSJMB":1,"MATJMB":1},"geometry":{"type":"Point","coordinates":[111.60021,-7.98966]}},{"type":"Feature","properties":{"REMARK":"Jembatan","FGSJMB":1,"MATJMB":1},"geometry":{"type":"Point","coordinates":[111.54223,-7.99144]}},{"type":"Feature","properties":{"REMARK":"Jembatan","FGSJMB":1,"MATJMB":1},"geometry":{"type":"Point","coordinates":[111.59558,-7.9919]}},{"type":"Feature","properties":{"REMARK":"Jembatan","FGSJMB":1,"MATJMB":1},"geometry":{"type":"Point","coordinates":[111.61446,-7.99202]}},{"type":"Feature","properties":{"REMARK":"Jembatan","FGSJMB":1,"MATJMB":1},"geometry":{"type":"Point","coordinates":[111.60677,-7.99233]}},{"type":"Feature","properties":{"REMARK":"Jembatan","FGSJMB":1,"MATJMB":1},"geometry":{"type":"Point","coordinates":[111.60739,-7.99258]}},{"type":"Feature","properties":{"REMARK":"Jembatan","FGSJMB":1,"MATJMB":1},"geometry":{"type":"Point","coordinates":[111.61506,-7.99307]}},{"type":"Feature","properties":{"REMARK":"Jembatan","FGSJMB":1,"MATJMB":1},"geometry":{"type":"Point","coordinates":[111.60734,-7.9933]}},{"type":"Feature","properties":{"REMARK":"Jembatan","FGSJMB":1,"MATJMB":1},"geometry":{"type":"Point","coordinates":[111.57771,-7.99436]}},{"type":"Feature","properties":{"REMARK":"Jembatan","FGSJMB":1,"MATJMB":1},"geometry":{"type":"Point","coordinates":[111.61076,-7.99441]}},{"type":"Feature","properties":{"REMARK":"Jembatan","FGSJMB":1,"MATJMB":1},"geometry":{"type":"Point","coordinates":[111.60744,-7.99516]}},{"type":"Feature","properties":{"REMARK":"Jembatan","FGSJMB":1,"MATJMB":1},"geometry":{"type":"Point","coordinates":[111.57807,-7.99546]}},{"type":"Feature","properties":{"REMARK":"Jembatan","FGSJMB":1,"MATJMB":1},"geometry":{"type":"Point","coordinates":[111.53791,-7.99581]}},{"type":"Feature","properties":{"REMARK":"Jembatan","FGSJMB":1,"MATJMB":1},"geometry":{"type":"Point","coordinates":[111.58531,-7.9958]}},{"type":"Feature","properties":{"REMARK":"Jembatan","FGSJMB":1,"MATJMB":1},"geometry":{"type":"Point","coordinates":[111.54102,-7.99648]}},{"type":"Feature","properties":{"REMARK":"Jembatan","FGSJMB":1,"MATJMB":1},"geometry":{"type":"Point","coordinates":[111.58639,-7.99755]}},{"type":"Feature","properties":{"REMARK":"Jembatan","FGSJMB":1,"MATJMB":1},"geometry":{"type":"Point","coordinates":[111.58224,-7.99803]}},{"type":"Feature","properties":{"REMARK":"Jembatan","FGSJMB":1,"MATJMB":1},"geometry":{"type":"Point","coordinates":[111.58324,-7.9981]}},{"type":"Feature","properties":{"REMARK":"Jembatan","FGSJMB":1,"MATJMB":1},"geometry":{"type":"Point","coordinates":[111.60647,-7.99847]}},{"type":"Feature","properties":{"REMARK":"Jembatan","FGSJMB":1,"MATJMB":1},"geometry":{"type":"Point","coordinates":[111.53764,-7.99999]}},{"type":"Feature","properties":{"REMARK":"Jembatan","FGSJMB":1,"MATJMB":1},"geometry":{"type":"Point","coordinates":[111.57815,-7.99994]}},{"type":"Feature","properties":{"REMARK":"Jembatan","FGSJMB":1,"MATJMB":1},"geometry":{"type":"Point","coordinates":[111.65173,-8.00477]}},{"type":"Feature","properties":{"REMARK":"Jembatan","FGSJMB":1,"MATJMB":1},"geometry":{"type":"Point","coordinates":[111.65184,-8.00669]}},{"type":"Feature","properties":{"REMARK":"Jembatan","FGSJMB":1,"MATJMB":1},"geometry":{"type":"Point","coordinates":[111.60595,-8.00019]}},{"type":"Feature","properties":{"REMARK":"Jembatan","FGSJMB":1,"MATJMB":1},"geometry":{"type":"Point","coordinates":[111.55832,-8.0011]}},{"type":"Feature","properties":{"REMARK":"Jembatan","FGSJMB":1,"MATJMB":1},"geometry":{"type":"Point","coordinates":[111.57901,-8.00302]}},{"type":"Feature","properties":{"REMARK":"Jembatan","FGSJMB":1,"MATJMB":1},"geometry":{"type":"Point","coordinates":[111.59963,-8.00372]}},{"type":"Feature","properties":{"REMARK":"Jembatan","FGSJMB":1,"MATJMB":1},"geometry":{"type":"Point","coordinates":[111.58081,-8.00454]}},{"type":"Feature","properties":{"REMARK":"Jembatan","FGSJMB":1,"MATJMB":1},"geometry":{"type":"Point","coordinates":[111.58049,-8.00456]}},{"type":"Feature","properties":{"REMARK":"Jembatan","FGSJMB":1,"MATJMB":1},"geometry":{"type":"Point","coordinates":[111.62275,-8.00486]}},{"type":"Feature","properties":{"REMARK":"Jembatan","FGSJMB":1,"MATJMB":1},"geometry":{"type":"Point","coordinates":[111.57227,-8.00525]}},{"type":"Feature","properties":{"REMARK":"Jembatan","FGSJMB":1,"MATJMB":1},"geometry":{"type":"Point","coordinates":[111.62345,-8.00537]}},{"type":"Feature","properties":{"REMARK":"Jembatan","FGSJMB":1,"MATJMB":1},"geometry":{"type":"Point","coordinates":[111.5709,-8.00553]}},{"type":"Feature","properties":{"REMARK":"Jembatan","FGSJMB":1,"MATJMB":1},"geometry":{"type":"Point","coordinates":[111.5794,-8.00558]}},{"type":"Feature","properties":{"REMARK":"Jembatan","FGSJMB":1,"MATJMB":1},"geometry":{"type":"Point","coordinates":[111.60547,-8.00576]}},{"type":"Feature","properties":{"REMARK":"Jembatan","FGSJMB":1,"MATJMB":1},"geometry":{"type":"Point","coordinates":[111.5702,-8.00595]}},{"type":"Feature","properties":{"REMARK":"Jembatan","FGSJMB":1,"MATJMB":1},"geometry":{"type":"Point","coordinates":[111.60951,-8.00701]}},{"type":"Feature","properties":{"REMARK":"Jembatan","FGSJMB":1,"MATJMB":1},"geometry":{"type":"Point","coordinates":[111.62434,-8.00812]}},{"type":"Feature","properties":{"REMARK":"Jembatan","FGSJMB":1,"MATJMB":1},"geometry":{"type":"Point","coordinates":[111.57998,-8.00872]}},{"type":"Feature","properties":{"REMARK":"Jembatan","FGSJMB":1,"MATJMB":1},"geometry":{"type":"Point","coordinates":[111.6033,-8.00899]}},{"type":"Feature","properties":{"REMARK":"Jembatan","FGSJMB":1,"MATJMB":1},"geometry":{"type":"Point","coordinates":[111.56894,-8.00974]}},{"type":"Feature","properties":{"REMARK":"Jembatan","FGSJMB":1,"MATJMB":1},"geometry":{"type":"Point","coordinates":[111.56323,-8.01022]}},{"type":"Feature","properties":{"REMARK":"Jembatan","FGSJMB":1,"MATJMB":1},"geometry":{"type":"Point","coordinates":[111.60297,-8.01046]}},{"type":"Feature","properties":{"REMARK":"Jembatan","FGSJMB":1,"MATJMB":1},"geometry":{"type":"Point","coordinates":[111.56348,-8.01151]}},{"type":"Feature","properties":{"REMARK":"Jembatan","FGSJMB":1,"MATJMB":1},"geometry":{"type":"Point","coordinates":[111.60329,-8.01156]}},{"type":"Feature","properties":{"REMARK":"Jembatan","FGSJMB":1,"MATJMB":1},"geometry":{"type":"Point","coordinates":[111.60295,-8.01349]}},{"type":"Feature","properties":{"REMARK":"Jembatan","FGSJMB":1,"MATJMB":1},"geometry":{"type":"Point","coordinates":[111.56471,-8.01418]}},{"type":"Feature","properties":{"REMARK":"Jembatan","FGSJMB":1,"MATJMB":1},"geometry":{"type":"Point","coordinates":[111.57147,-8.01464]}},{"type":"Feature","properties":{"REMARK":"Jembatan","FGSJMB":1,"MATJMB":1},"geometry":{"type":"Point","coordinates":[111.56583,-8.01475]}},{"type":"Feature","properties":{"REMARK":"Jembatan","FGSJMB":1,"MATJMB":1},"geometry":{"type":"Point","coordinates":[111.56568,-8.01485]}},{"type":"Feature","properties":{"REMARK":"Jembatan","FGSJMB":1,"MATJMB":1},"geometry":{"type":"Point","coordinates":[111.54838,-8.01798]}},{"type":"Feature","properties":{"REMARK":"Jembatan","FGSJMB":1,"MATJMB":1},"geometry":{"type":"Point","coordinates":[111.55695,-8.02321]}},{"type":"Feature","properties":{"REMARK":"Jembatan","FGSJMB":1,"MATJMB":1},"geometry":{"type":"Point","coordinates":[111.56561,-8.02471]}},{"type":"Feature","properties":{"REMARK":"Jembatan","FGSJMB":1,"MATJMB":1},"geometry":{"type":"Point","coordinates":[111.56363,-8.02549]}},{"type":"Feature","properties":{"REMARK":"Jembatan","FGSJMB":1,"MATJMB":1},"geometry":{"type":"Point","coordinates":[111.55726,-8.0265]}},{"type":"Feature","properties":{"REMARK":"Jembatan","FGSJMB":1,"MATJMB":1},"geometry":{"type":"Point","coordinates":[111.55726,-8.0265]}},{"type":"Feature","properties":{"REMARK":"Jembatan","FGSJMB":1,"MATJMB":1},"geometry":{"type":"Point","coordinates":[111.55676,-8.02844]}},{"type":"Feature","properties":{"REMARK":"Jembatan","FGSJMB":1,"MATJMB":1},"geometry":{"type":"Point","coordinates":[111.55359,-8.02852]}},{"type":"Feature","properties":{"REMARK":"Jembatan","FGSJMB":1,"MATJMB":1},"geometry":{"type":"Point","coordinates":[111.5566,-8.02863]}},{"type":"Feature","properties":{"REMARK":"Jembatan","FGSJMB":1,"MATJMB":1},"geometry":{"type":"Point","coordinates":[111.56265,-8.02975]}},{"type":"Feature","properties":{"REMARK":"Jembatan","FGSJMB":1,"MATJMB":1},"geometry":{"type":"Point","coordinates":[111.56947,-8.03139]}},{"type":"Feature","properties":{"REMARK":"Jembatan","FGSJMB":1,"MATJMB":1},"geometry":{"type":"Point","coordinates":[111.57561,-8.03207]}},{"type":"Feature","properties":{"REMARK":"Jembatan","FGSJMB":1,"MATJMB":1},"geometry":{"type":"Point","coordinates":[111.57282,-8.0322]}},{"type":"Feature","properties":{"REMARK":"Jembatan","FGSJMB":1,"MATJMB":1},"geometry":{"type":"Point","coordinates":[111.56651,-8.03329]}},{"type":"Feature","properties":{"REMARK":"Jembatan","FGSJMB":1,"MATJMB":1},"geometry":{"type":"Point","coordinates":[111.55891,-8.03453]}},{"type":"Feature","properties":{"REMARK":"Jembatan","FGSJMB":1,"MATJMB":1},"geometry":{"type":"Point","coordinates":[111.5679,-8.03458]}},{"type":"Feature","properties":{"REMARK":"Jembatan","FGSJMB":1,"MATJMB":1},"geometry":{"type":"Point","coordinates":[111.57759,-8.03593]}},{"type":"Feature","properties":{"REMARK":"Jembatan","FGSJMB":1,"MATJMB":1},"geometry":{"type":"Point","coordinates":[111.56043,-8.03604]}},{"type":"Feature","properties":{"REMARK":"Jembatan","FGSJMB":1,"MATJMB":1},"geometry":{"type":"Point","coordinates":[111.54606,-8.0386]}},{"type":"Feature","properties":{"REMARK":"Jembatan","FGSJMB":1,"MATJMB":1},"geometry":{"type":"Point","coordinates":[111.57185,-8.03943]}},{"type":"Feature","properties":{"REMARK":"Jembatan","FGSJMB":1,"MATJMB":1},"geometry":{"type":"Point","coordinates":[111.54292,-8.04118]}},{"type":"Feature","properties":{"REMARK":"Jembatan","FGSJMB":1,"MATJMB":1},"geometry":{"type":"Point","coordinates":[111.56268,-8.04361]}}]}