{"type":"FeatureCollection","features":[{"type":"Feature","properties":{"namobj":"KBAK_Ponorogo","skkbak":"Permen ESDM No. 17 Tahun 2012","datstr":"2018-05-04","klskbak":2,"remark":"Level 2, delineasi KBAK hasil penyelidikan","_cls":"KBAK_Ponorogo"},"geometry":{"type":"Polygon","coordinates":[[[111.63892,-7.99077],[111.63844,-7.99097],[111.63799,-7.99091],[111.63745,-7.99072],[111.63715,-7.99037],[111.63705,-7.98986],[111.63715,-7.9894],[111.63725,-7.98906],[111.63767,-7.98855],[111.63803,-7.98844],[111.63848,-7.98847],[111.63913,-7.98881],[111.63924,-7.9891],[111.63929,-7.98954],[111.63928,-7.99043],[111.63892,-7.99077]]]}},{"type":"Feature","properties":{"namobj":"KBAK_Ponorogo","skkbak":"Permen ESDM No. 17 Tahun 2012","datstr":"2018-05-04","klskbak":1,"remark":"Level 1, delineasi sebaran batugamping","_cls":"KBAK_Ponorogo"},"geometry":{"type":"Polygon","coordinates":[[[111.54767,-7.98944],[111.54683,-7.98971],[111.54644,-7.98967],[111.5461,-7.98937],[111.54617,-7.98903],[111.54653,-7.98864],[111.54697,-7.98837],[111.5474,-7.98822],[111.54786,-7.98841],[111.548,-7.9888],[111.54785,-7.98925],[111.54767,-7.98944]]]}},{"type":"Feature","properties":{"namobj":"KBAK_Ponorogo","skkbak":"Permen ESDM No. 17 Tahun 2012","datstr":"2018-05-04","klskbak":1,"remark":"Level 1, delineasi sebaran batugamping","_cls":"KBAK_Ponorogo"},"geometry":{"type":"Polygon","coordinates":[[[111.59445,-7.9602],[111.59353,-7.9602],[111.59307,-7.96013],[111.5928,-7.9599],[111.59277,-7.95933],[111.59338,-7.95871],[111.59495,-7.95806],[111.59538,-7.95799],[111.59572,-7.95802],[111.5961,-7.9586],[111.59614,-7.95902],[111.59602,-7.95951],[111.59525,-7.96001],[111.59488,-7.96013],[111.59445,-7.9602]]]}},{"type":"Feature","properties":{"namobj":"KBAK_Ponorogo","skkbak":"Permen ESDM No. 17 Tahun 2012","datstr":"2018-05-04","klskbak":1,"remark":"Level 1, delineasi sebaran batugamping","_cls":"KBAK_Ponorogo"},"geometry":{"type":"Polygon","coordinates":[[[111.61507,-7.9557],[111.61553,-7.95662],[111.61607,-7.95723],[111.61684,-7.95769],[111.61764,-7.95788],[111.61799,-7.95788],[111.61933,-7.95746],[111.61998,-7.95742],[111.62067,-7.95776],[111.6211,-7.95818],[111.62125,-7.95868],[111.62126,-7.95971],[111.62115,-7.96025],[111.62069,-7.96116],[111.61988,-7.96182],[111.61896,-7.96224],[111.61793,-7.96243],[111.61739,-7.96247],[111.61643,-7.96278],[111.61266,-7.96463],[111.61158,-7.96501],[111.61071,-7.96509],[111.61025,-7.96509],[111.60902,-7.96482],[111.60802,-7.96421],[111.60729,-7.96352],[111.60667,-7.96275],[111.60636,-7.96195],[111.60602,-7.96076],[111.60567,-7.9603],[111.60349,-7.96329],[111.60206,-7.96299],[111.60037,-7.96257],[111.59983,-7.96219],[111.59921,-7.96154],[111.5988,-7.96084],[111.59857,-7.9601],[111.59841,-7.9593],[111.59821,-7.95856],[111.59821,-7.95737],[111.59837,-7.95684],[111.59898,-7.95615],[111.59966,-7.95599],[111.60012,-7.95609],[111.60148,-7.95625],[111.60224,-7.95629],[111.60275,-7.95619],[111.60375,-7.95591],[111.60589,-7.95498],[111.60645,-7.9548],[111.60777,-7.95429],[111.60854,-7.95417],[111.60898,-7.95415],[111.60926,-7.95417],[111.61027,-7.95438],[111.61134,-7.95451],[111.6138,-7.95455],[111.61449,-7.95493],[111.61507,-7.9557]]]}}]}