{"type":"FeatureCollection","features":[{"type":"Feature","properties":{"KODE":2,"KELAS":2,"NAMA":"Konsentrasi Sedang","LUAS_HA":20.152,"ARAHAN":"Calon pusat lingkungan; koridor campuran","_cls":"Konsentrasi Sedang"},"geometry":{"type":"Polygon","coordinates":[[[111.55429,-7.93099],[111.55348,-7.93089],[111.55274,-7.93046],[111.55228,-7.92981],[111.55215,-7.92933],[111.55205,-7.92878],[111.55142,-7.92887],[111.55133,-7.92978],[111.551,-7.92967],[111.55094,-7.92861],[111.55114,-7.92859],[111.55147,-7.92875],[111.55166,-7.92878],[111.55177,-7.92862],[111.55178,-7.92845],[111.55173,-7.92839],[111.55165,-7.92835],[111.55143,-7.92803],[111.55161,-7.92787],[111.55192,-7.92792],[111.55197,-7.92789],[111.55204,-7.9279],[111.55206,-7.92763],[111.55214,-7.92742],[111.55214,-7.92726],[111.55202,-7.92706],[111.55191,-7.92701],[111.55182,-7.92692],[111.55179,-7.92685],[111.55179,-7.92661],[111.5523,-7.92619],[111.55334,-7.92637],[111.55375,-7.9263],[111.55433,-7.92613],[111.55464,-7.92611],[111.55488,-7.92625],[111.55496,-7.92635],[111.55498,-7.9267],[111.55496,-7.92706],[111.55549,-7.9274],[111.55593,-7.92811],[111.5561,-7.92891],[111.55589,-7.92984],[111.55535,-7.93052],[111.55488,-7.93078],[111.55433,-7.93095],[111.55429,-7.93099]]]}},{"type":"Feature","properties":{"KODE":2,"KELAS":2,"NAMA":"Konsentrasi Sedang","LUAS_HA":0.016,"ARAHAN":"Calon pusat lingkungan; koridor campuran","_cls":"Konsentrasi Sedang"},"geometry":{"type":"Polygon","coordinates":[[[111.53443,-7.93699],[111.53451,-7.93694],[111.53464,-7.93693],[111.53473,-7.93699],[111.53443,-7.93699]]]}},{"type":"Feature","properties":{"KODE":3,"KELAS":3,"NAMA":"Konsentrasi Tinggi","LUAS_HA":1.579,"ARAHAN":"Calon pusat WP/sub-WP; zona K/C/SPU skala WP","_cls":"Konsentrasi Tinggi"},"geometry":{"type":"Polygon","coordinates":[[[111.53778,-7.93789],[111.53679,-7.93785],[111.53697,-7.93744],[111.53744,-7.9369],[111.5382,-7.93658],[111.53929,-7.93669],[111.53958,-7.93694],[111.53782,-7.93703],[111.53778,-7.93789]]]}},{"type":"Feature","properties":{"KODE":2,"KELAS":2,"NAMA":"Konsentrasi Sedang","LUAS_HA":41.43,"ARAHAN":"Calon pusat lingkungan; koridor campuran","_cls":"Konsentrasi Sedang"},"geometry":{"type":"Polygon","coordinates":[[[111.53863,-7.94191],[111.53783,-7.94174],[111.53774,-7.94155],[111.53677,-7.94145],[111.53596,-7.94087],[111.53533,-7.9401],[111.53508,-7.93951],[111.53487,-7.93885],[111.53411,-7.93875],[111.5342,-7.93794],[111.53486,-7.93785],[111.53501,-7.93741],[111.5351,-7.93747],[111.5352,-7.93743],[111.53537,-7.93727],[111.53541,-7.93718],[111.53548,-7.93716],[111.53556,-7.93716],[111.53577,-7.93742],[111.53599,-7.93756],[111.53618,-7.93759],[111.53637,-7.93753],[111.5365,-7.93743],[111.53655,-7.93731],[111.53666,-7.93692],[111.53672,-7.93683],[111.5368,-7.9368],[111.53704,-7.93692],[111.53715,-7.93692],[111.53733,-7.93673],[111.53744,-7.93649],[111.53763,-7.93633],[111.53766,-7.93622],[111.5377,-7.9362],[111.53803,-7.93625],[111.53823,-7.93607],[111.53841,-7.93601],[111.53864,-7.93575],[111.53891,-7.93553],[111.53917,-7.93563],[111.53928,-7.93574],[111.53938,-7.93594],[111.53969,-7.93635],[111.53975,-7.9364],[111.53983,-7.9364],[111.53999,-7.93618],[111.53993,-7.93598],[111.53996,-7.93589],[111.54013,-7.93586],[111.54024,-7.93567],[111.54035,-7.9358],[111.54054,-7.93582],[111.54073,-7.93581],[111.54086,-7.93574],[111.5409,-7.93567],[111.54092,-7.93532],[111.5409,-7.93515],[111.54096,-7.93502],[111.54111,-7.93495],[111.54129,-7.93504],[111.54149,-7.93502],[111.54153,-7.93513],[111.54163,-7.93528],[111.5417,-7.93528],[111.54195,-7.93507],[111.54198,-7.93498],[111.54191,-7.9347],[111.54195,-7.93442],[111.54206,-7.9343],[111.54236,-7.93431],[111.54227,-7.93603],[111.54136,-7.93612],[111.54189,-7.93698],[111.54218,-7.93794],[111.54208,-7.93929],[111.54178,-7.93992],[111.5414,-7.94052],[111.54048,-7.94133],[111.5401,-7.94146],[111.53874,-7.94155],[111.53863,-7.94191]],[[111.53778,-7.93789],[111.53782,-7.93703],[111.53958,-7.93694],[111.53929,-7.93669],[111.5382,-7.93658],[111.53744,-7.9369],[111.53697,-7.93744],[111.53679,-7.93785],[111.53778,-7.93789]]]}},{"type":"Feature","properties":{"KODE":3,"KELAS":3,"NAMA":"Konsentrasi Tinggi","LUAS_HA":2.189,"ARAHAN":"Calon pusat WP/sub-WP; zona K/C/SPU skala WP","_cls":"Konsentrasi Tinggi"},"geometry":{"type":"Polygon","coordinates":[[[111.54224,-7.94919],[111.54096,-7.94913],[111.54082,-7.94875],[111.54098,-7.94823],[111.54138,-7.9477],[111.54147,-7.94779],[111.54234,-7.94788],[111.54229,-7.94914],[111.54224,-7.94919]]]}},{"type":"Feature","properties":{"KODE":2,"KELAS":2,"NAMA":"Konsentrasi Sedang","LUAS_HA":25.947,"ARAHAN":"Calon pusat lingkungan; koridor campuran","_cls":"Konsentrasi Sedang"},"geometry":{"type":"Polygon","coordinates":[[[111.5622,-7.94962],[111.56225,-7.94957],[111.56226,-7.94877],[111.56308,-7.94867],[111.56354,-7.94819],[111.56392,-7.94761],[111.56426,-7.94692],[111.56444,-7.94635],[111.56469,-7.94533],[111.56587,-7.94396],[111.56596,-7.94153],[111.56505,-7.94143],[111.56496,-7.94061],[111.5631,-7.94057],[111.56315,-7.94044],[111.56323,-7.9397],[111.56379,-7.93963],[111.56442,-7.93921],[111.56528,-7.93904],[111.56599,-7.93918],[111.56657,-7.93951],[111.56712,-7.94013],[111.56733,-7.94078],[111.5674,-7.94143],[111.56777,-7.94153],[111.56769,-7.94505],[111.56596,-7.94513],[111.56588,-7.94777],[111.56505,-7.94784],[111.56498,-7.94867],[111.56415,-7.94875],[111.56407,-7.94958],[111.5622,-7.94962]]]}},{"type":"Feature","properties":{"KODE":3,"KELAS":3,"NAMA":"Konsentrasi Tinggi","LUAS_HA":53.021,"ARAHAN":"Calon pusat WP/sub-WP; zona K/C/SPU skala WP","_cls":"Konsentrasi Tinggi"},"geometry":{"type":"Polygon","coordinates":[[[111.56301,-7.94057],[111.56496,-7.94061],[111.56505,-7.94143],[111.56596,-7.94153],[111.56587,-7.94396],[111.56469,-7.94533],[111.56444,-7.94635],[111.56426,-7.94692],[111.56392,-7.94761],[111.56354,-7.94819],[111.56308,-7.94867],[111.56226,-7.94877],[111.56225,-7.94957],[111.5622,-7.94962],[111.56143,-7.94957],[111.56134,-7.94876],[111.55962,-7.94867],[111.55952,-7.94965],[111.55771,-7.94958],[111.55714,-7.95002],[111.55625,-7.95012],[111.55627,-7.94981],[111.55672,-7.94967],[111.5573,-7.9492],[111.55744,-7.94878],[111.55689,-7.94868],[111.5568,-7.9471],[111.55758,-7.94724],[111.55817,-7.94769],[111.55837,-7.9483],[111.55966,-7.9478],[111.56016,-7.94718],[111.55941,-7.9465],[111.5588,-7.94541],[111.5587,-7.94533],[111.55871,-7.94515],[111.55998,-7.94505],[111.56022,-7.94428],[111.56043,-7.94389],[111.56052,-7.94266],[111.56118,-7.94227],[111.56188,-7.94179],[111.56301,-7.94057]]]}},{"type":"Feature","properties":{"KODE":2,"KELAS":2,"NAMA":"Konsentrasi Sedang","LUAS_HA":55.158,"ARAHAN":"Calon pusat lingkungan; koridor campuran","_cls":"Konsentrasi Sedang"},"geometry":{"type":"Polygon","coordinates":[[[111.56301,-7.94057],[111.56188,-7.94179],[111.56118,-7.94227],[111.56052,-7.94266],[111.56043,-7.94389],[111.56022,-7.94428],[111.55998,-7.94505],[111.55871,-7.94515],[111.5587,-7.94533],[111.5588,-7.94541],[111.55941,-7.9465],[111.56016,-7.94718],[111.55966,-7.9478],[111.55837,-7.9483],[111.55817,-7.94769],[111.55758,-7.94724],[111.5568,-7.9471],[111.55689,-7.94868],[111.55744,-7.94878],[111.5573,-7.9492],[111.55672,-7.94967],[111.55627,-7.94981],[111.55625,-7.95012],[111.55714,-7.95002],[111.55771,-7.94958],[111.55952,-7.94965],[111.55962,-7.94867],[111.56134,-7.94876],[111.56143,-7.94957],[111.56202,-7.94962],[111.56192,-7.94974],[111.56143,-7.95002],[111.56135,-7.95048],[111.56056,-7.95057],[111.56043,-7.95027],[111.55962,-7.95012],[111.55953,-7.95139],[111.5578,-7.95147],[111.55772,-7.95229],[111.55592,-7.95238],[111.55581,-7.95189],[111.55507,-7.95167],[111.55418,-7.95134],[111.55409,-7.95021],[111.55367,-7.94971],[111.55326,-7.94959],[111.55314,-7.94837],[111.55319,-7.94777],[111.55345,-7.94714],[111.55408,-7.94642],[111.55417,-7.94605],[111.55499,-7.94597],[111.55507,-7.94515],[111.5568,-7.94506],[111.55689,-7.94424],[111.55907,-7.94415],[111.55952,-7.94343],[111.5596,-7.94152],[111.56043,-7.94144],[111.56051,-7.94062],[111.56133,-7.94053],[111.56142,-7.93971],[111.56223,-7.93963],[111.56232,-7.94053],[111.56301,-7.94057]]]}},{"type":"Feature","properties":{"KODE":3,"KELAS":3,"NAMA":"Konsentrasi Tinggi","LUAS_HA":32.631,"ARAHAN":"Calon pusat WP/sub-WP; zona K/C/SPU skala WP","_cls":"Konsentrasi Tinggi"},"geometry":{"type":"Polygon","coordinates":[[[111.53599,-7.95508],[111.53595,-7.95503],[111.53561,-7.95488],[111.53507,-7.95419],[111.53471,-7.95335],[111.5345,-7.9526],[111.53426,-7.95151],[111.53504,-7.95142],[111.53512,-7.9506],[111.53544,-7.9505],[111.53581,-7.94992],[111.53633,-7.94963],[111.53693,-7.9494],[111.53685,-7.94879],[111.53594,-7.9487],[111.53713,-7.94836],[111.53775,-7.94824],[111.53784,-7.94854],[111.53844,-7.94891],[111.53867,-7.94918],[111.5397,-7.94909],[111.53984,-7.94924],[111.54029,-7.94938],[111.54038,-7.94997],[111.5408,-7.95006],[111.54093,-7.9506],[111.54145,-7.9509],[111.54082,-7.95118],[111.54007,-7.95172],[111.53917,-7.95286],[111.53833,-7.95382],[111.53752,-7.95449],[111.53696,-7.95481],[111.53635,-7.95503],[111.53599,-7.95508]]]}},{"type":"Feature","properties":{"KODE":2,"KELAS":2,"NAMA":"Konsentrasi Sedang","LUAS_HA":73.765,"ARAHAN":"Calon pusat lingkungan; koridor campuran","_cls":"Konsentrasi Sedang"},"geometry":{"type":"Polygon","coordinates":[[[111.53599,-7.95508],[111.53635,-7.95503],[111.53696,-7.95481],[111.53752,-7.95449],[111.53833,-7.95382],[111.53917,-7.95286],[111.54007,-7.95172],[111.54082,-7.95118],[111.54145,-7.9509],[111.54093,-7.9506],[111.5408,-7.95006],[111.54038,-7.94997],[111.54029,-7.94938],[111.53984,-7.94924],[111.5397,-7.94909],[111.53867,-7.94918],[111.53844,-7.94891],[111.53784,-7.94854],[111.53775,-7.94824],[111.53713,-7.94836],[111.53594,-7.9487],[111.53685,-7.94879],[111.53693,-7.9494],[111.53633,-7.94963],[111.53581,-7.94992],[111.53544,-7.9505],[111.53512,-7.9506],[111.53504,-7.95142],[111.53426,-7.95151],[111.5345,-7.9526],[111.53471,-7.95335],[111.53507,-7.95419],[111.53561,-7.95488],[111.53595,-7.95503],[111.53599,-7.95508],[111.53422,-7.95512],[111.53412,-7.95603],[111.53338,-7.95594],[111.53341,-7.95513],[111.53331,-7.95504],[111.53322,-7.95422],[111.53232,-7.95413],[111.5324,-7.95151],[111.53322,-7.95142],[111.53331,-7.9506],[111.53413,-7.95052],[111.53421,-7.94789],[111.53594,-7.9478],[111.53603,-7.94689],[111.53757,-7.94698],[111.53768,-7.94743],[111.53775,-7.94734],[111.53784,-7.94698],[111.53839,-7.94689],[111.53865,-7.9466],[111.53877,-7.94698],[111.54,-7.94688],[111.54047,-7.94645],[111.54056,-7.94528],[111.54183,-7.94499],[111.5441,-7.94489],[111.54419,-7.94508],[111.54501,-7.94516],[111.5451,-7.94688],[111.54528,-7.94733],[111.54537,-7.94779],[111.54601,-7.94789],[111.54592,-7.94869],[111.54501,-7.9488],[111.5451,-7.9505],[111.54601,-7.9506],[111.54592,-7.9514],[111.5451,-7.95149],[111.54501,-7.95168],[111.54447,-7.95168],[111.54448,-7.95141],[111.54235,-7.9515],[111.54148,-7.95201],[111.54139,-7.95231],[111.54057,-7.9524],[111.54048,-7.95377],[111.54012,-7.95413],[111.53966,-7.95421],[111.53958,-7.95503],[111.53881,-7.95506],[111.5388,-7.95491],[111.53816,-7.95476],[111.53758,-7.95472],[111.53759,-7.9551],[111.53685,-7.95514],[111.53689,-7.95544],[111.53684,-7.95573],[111.53671,-7.95578],[111.53642,-7.95579],[111.53642,-7.95586],[111.53604,-7.956],[111.53599,-7.95508]],[[111.54224,-7.94919],[111.54229,-7.94914],[111.54234,-7.94788],[111.54147,-7.94779],[111.54138,-7.9477],[111.54098,-7.94823],[111.54082,-7.94875],[111.54096,-7.94913],[111.54224,-7.94919]]]}},{"type":"Feature","properties":{"KODE":2,"KELAS":2,"NAMA":"Konsentrasi Sedang","LUAS_HA":37.708,"ARAHAN":"Calon pusat lingkungan; koridor campuran","_cls":"Konsentrasi Sedang"},"geometry":{"type":"Polygon","coordinates":[[[111.54825,-7.96022],[111.54694,-7.96017],[111.54628,-7.95987],[111.54572,-7.95938],[111.54534,-7.95873],[111.54404,-7.95864],[111.5439,-7.95784],[111.54412,-7.95774],[111.5442,-7.95511],[111.54502,-7.95502],[111.54511,-7.95412],[111.54909,-7.9542],[111.54964,-7.95502],[111.5498,-7.95516],[111.55046,-7.95628],[111.55055,-7.95772],[111.54983,-7.95782],[111.54973,-7.95886],[111.54925,-7.95961],[111.54878,-7.95995],[111.54829,-7.96017],[111.54825,-7.96022]]]}},{"type":"Feature","properties":{"KODE":2,"KELAS":2,"NAMA":"Konsentrasi Sedang","LUAS_HA":26.836,"ARAHAN":"Calon pusat lingkungan; koridor campuran","_cls":"Konsentrasi Sedang"},"geometry":{"type":"Polygon","coordinates":[[[111.63209,-7.96408],[111.63106,-7.96404],[111.6303,-7.96381],[111.62942,-7.96306],[111.62898,-7.96208],[111.62891,-7.96121],[111.62918,-7.96032],[111.62954,-7.95974],[111.63027,-7.95911],[111.63115,-7.95879],[111.6323,-7.95888],[111.63303,-7.9592],[111.63353,-7.95963],[111.63396,-7.96024],[111.6342,-7.96087],[111.63426,-7.96169],[111.63399,-7.96259],[111.63363,-7.96318],[111.63286,-7.96381],[111.63213,-7.96403],[111.63209,-7.96408]]]}},{"type":"Feature","properties":{"KODE":3,"KELAS":3,"NAMA":"Konsentrasi Tinggi","LUAS_HA":17.304,"ARAHAN":"Calon pusat WP/sub-WP; zona K/C/SPU skala WP","_cls":"Konsentrasi Tinggi"},"geometry":{"type":"Polygon","coordinates":[[[111.61685,-7.96573],[111.61671,-7.96561],[111.6168,-7.96487],[111.61739,-7.96284],[111.61821,-7.96195],[111.61954,-7.96125],[111.62034,-7.96134],[111.62042,-7.96215],[111.62133,-7.96225],[111.62124,-7.96404],[111.62038,-7.96498],[111.61959,-7.96539],[111.61907,-7.9655],[111.61696,-7.96561],[111.61685,-7.96573]]]}},{"type":"Feature","properties":{"KODE":2,"KELAS":2,"NAMA":"Konsentrasi Sedang","LUAS_HA":1.094,"ARAHAN":"Calon pusat lingkungan; koridor campuran","_cls":"Konsentrasi Sedang"},"geometry":{"type":"Polygon","coordinates":[[[111.53081,-7.96594],[111.52961,-7.9659],[111.5297,-7.965],[111.53016,-7.96508],[111.53034,-7.96525],[111.5305,-7.96532],[111.53052,-7.96529],[111.53059,-7.96529],[111.53058,-7.96512],[111.53064,-7.965],[111.53073,-7.96511],[111.53081,-7.96594]]]}},{"type":"Feature","properties":{"KODE":2,"KELAS":2,"NAMA":"Konsentrasi Sedang","LUAS_HA":0.589,"ARAHAN":"Calon pusat lingkungan; koridor campuran","_cls":"Konsentrasi Sedang"},"geometry":{"type":"Polygon","coordinates":[[[111.5321,-7.96684],[111.53053,-7.96681],[111.53101,-7.96638],[111.53185,-7.96644],[111.53192,-7.9666],[111.53192,-7.96678],[111.53208,-7.9668],[111.5321,-7.96684]]]}},{"type":"Feature","properties":{"KODE":2,"KELAS":2,"NAMA":"Konsentrasi Sedang","LUAS_HA":83.775,"ARAHAN":"Calon pusat lingkungan; koridor campuran","_cls":"Konsentrasi Sedang"},"geometry":{"type":"Polygon","coordinates":[[[111.61703,-7.96853],[111.61499,-7.96849],[111.61489,-7.9677],[111.61408,-7.96759],[111.61399,-7.96732],[111.61363,-7.96673],[111.61363,-7.96587],[111.61226,-7.96578],[111.61218,-7.96497],[111.61159,-7.96487],[111.61135,-7.96443],[111.61127,-7.96406],[111.61075,-7.9639],[111.61036,-7.96365],[111.61045,-7.96316],[111.61132,-7.96307],[111.61135,-7.96216],[111.61109,-7.96166],[111.61106,-7.96113],[111.61124,-7.96057],[111.6116,-7.96001],[111.61249,-7.95954],[111.61341,-7.95951],[111.61404,-7.9597],[111.6145,-7.96012],[111.61479,-7.96067],[111.61479,-7.96134],[111.61489,-7.96126],[111.61498,-7.96044],[111.6167,-7.96035],[111.61679,-7.9598],[111.6176,-7.95983],[111.61773,-7.95944],[111.61852,-7.95953],[111.61862,-7.96043],[111.61897,-7.96035],[111.62001,-7.95998],[111.62092,-7.9601],[111.62168,-7.96046],[111.62242,-7.96125],[111.62255,-7.96097],[111.62335,-7.96107],[111.62369,-7.96237],[111.62358,-7.96352],[111.62315,-7.9645],[111.62306,-7.96486],[111.62271,-7.96503],[111.62224,-7.96558],[111.62216,-7.96577],[111.62166,-7.966],[111.62134,-7.9663],[111.62125,-7.96767],[111.62043,-7.96758],[111.62033,-7.96668],[111.61862,-7.96677],[111.61853,-7.96791],[111.61709,-7.96847],[111.61703,-7.96853]],[[111.61685,-7.96573],[111.61696,-7.96561],[111.61907,-7.9655],[111.61959,-7.96539],[111.62038,-7.96498],[111.62124,-7.96404],[111.62133,-7.96225],[111.62042,-7.96215],[111.62034,-7.96134],[111.61954,-7.96125],[111.61821,-7.96195],[111.61739,-7.96284],[111.6168,-7.96487],[111.61671,-7.96561],[111.61685,-7.96573]]]}},{"type":"Feature","properties":{"KODE":3,"KELAS":3,"NAMA":"Konsentrasi Tinggi","LUAS_HA":7.27,"ARAHAN":"Calon pusat WP/sub-WP; zona K/C/SPU skala WP","_cls":"Konsentrasi Tinggi"},"geometry":{"type":"Polygon","coordinates":[[[111.55969,-7.97042],[111.5588,-7.97036],[111.55774,-7.97004],[111.55783,-7.96866],[111.55873,-7.96857],[111.55865,-7.96775],[111.55774,-7.96766],[111.55786,-7.96741],[111.55877,-7.96722],[111.55933,-7.96736],[111.5597,-7.9677],[111.56007,-7.96853],[111.56037,-7.96934],[111.56039,-7.96979],[111.56014,-7.97019],[111.55973,-7.97038],[111.55969,-7.97042]]]}},{"type":"Feature","properties":{"KODE":1,"KELAS":1,"NAMA":"Konsentrasi Rendah","LUAS_HA":3,"ARAHAN":"Kawasan permukiman/perdesaan","_cls":"Konsentrasi Rendah"},"geometry":{"type":"Polygon","coordinates":[[[111.56414,-7.97223],[111.56414,-7.96951],[111.56504,-7.96951],[111.56505,-7.97223],[111.56414,-7.97223]]]}},{"type":"Feature","properties":{"KODE":2,"KELAS":2,"NAMA":"Konsentrasi Sedang","LUAS_HA":15.281,"ARAHAN":"Calon pusat lingkungan; koridor campuran","_cls":"Konsentrasi Sedang"},"geometry":{"type":"Polygon","coordinates":[[[111.54953,-7.9727],[111.54844,-7.97265],[111.54758,-7.97209],[111.54713,-7.97125],[111.54708,-7.97013],[111.54746,-7.96934],[111.54814,-7.96881],[111.549,-7.96859],[111.54981,-7.96883],[111.55037,-7.9692],[111.55074,-7.96973],[111.55103,-7.97053],[111.5509,-7.97147],[111.55051,-7.97209],[111.55009,-7.97241],[111.54958,-7.97265],[111.54953,-7.9727]]]}},{"type":"Feature","properties":{"KODE":2,"KELAS":2,"NAMA":"Konsentrasi Sedang","LUAS_HA":69.826,"ARAHAN":"Calon pusat lingkungan; koridor campuran","_cls":"Konsentrasi Sedang"},"geometry":{"type":"Polygon","coordinates":[[[111.56504,-7.96951],[111.56414,-7.96951],[111.56414,-7.97223],[111.56228,-7.97218],[111.56195,-7.9723],[111.56056,-7.97227],[111.56047,-7.97309],[111.55988,-7.97318],[111.55847,-7.97228],[111.55693,-7.97219],[111.55684,-7.97182],[111.55602,-7.97143],[111.55593,-7.97002],[111.55571,-7.9696],[111.55511,-7.96948],[111.55502,-7.96869],[111.55538,-7.96858],[111.55547,-7.96803],[111.55556,-7.96766],[111.55592,-7.96713],[111.55601,-7.96599],[111.55572,-7.96586],[111.55683,-7.96497],[111.55692,-7.96414],[111.55957,-7.96405],[111.55942,-7.96347],[111.55965,-7.96304],[111.5604,-7.96305],[111.56101,-7.96351],[111.56119,-7.96389],[111.56118,-7.96452],[111.56055,-7.96468],[111.56046,-7.96494],[111.56136,-7.96504],[111.56146,-7.96676],[111.56226,-7.96685],[111.56236,-7.96594],[111.56386,-7.96585],[111.56342,-7.96683],[111.56318,-7.96764],[111.56409,-7.96775],[111.56418,-7.96811],[111.56428,-7.96811],[111.56445,-7.96775],[111.56499,-7.96766],[111.56504,-7.96951]],[[111.55969,-7.97042],[111.55973,-7.97038],[111.56014,-7.97019],[111.56039,-7.96979],[111.56037,-7.96934],[111.56007,-7.96853],[111.5597,-7.9677],[111.55933,-7.96736],[111.55877,-7.96722],[111.55786,-7.96741],[111.55774,-7.96766],[111.55865,-7.96775],[111.55873,-7.96857],[111.55783,-7.96866],[111.55774,-7.97004],[111.5588,-7.97036],[111.55969,-7.97042]]]}},{"type":"Feature","properties":{"KODE":1,"KELAS":1,"NAMA":"Konsentrasi Rendah","LUAS_HA":0.437,"ARAHAN":"Kawasan permukiman/perdesaan","_cls":"Konsentrasi Rendah"},"geometry":{"type":"Polygon","coordinates":[[[111.56687,-7.97403],[111.5669,-7.9731],[111.56708,-7.97319],[111.56735,-7.97373],[111.56759,-7.974],[111.56687,-7.97403]]]}},{"type":"Feature","properties":{"KODE":2,"KELAS":2,"NAMA":"Konsentrasi Sedang","LUAS_HA":1,"ARAHAN":"Calon pusat lingkungan; koridor campuran","_cls":"Konsentrasi Sedang"},"geometry":{"type":"Polygon","coordinates":[[[111.546,-7.97587],[111.546,-7.97497],[111.5469,-7.97496],[111.54691,-7.97587],[111.546,-7.97587]]]}},{"type":"Feature","properties":{"KODE":3,"KELAS":3,"NAMA":"Konsentrasi Tinggi","LUAS_HA":1.532,"ARAHAN":"Calon pusat WP/sub-WP; zona K/C/SPU skala WP","_cls":"Konsentrasi Tinggi"},"geometry":{"type":"Polygon","coordinates":[[[111.58837,-7.974],[111.5885,-7.97436],[111.58838,-7.9754],[111.58775,-7.97649],[111.58778,-7.97405],[111.58837,-7.974]]]}},{"type":"Feature","properties":{"KODE":2,"KELAS":2,"NAMA":"Konsentrasi Sedang","LUAS_HA":63.852,"ARAHAN":"Calon pusat lingkungan; koridor campuran","_cls":"Konsentrasi Sedang"},"geometry":{"type":"Polygon","coordinates":[[[111.64399,-7.97663],[111.64313,-7.97659],[111.64304,-7.97577],[111.64222,-7.97569],[111.64213,-7.97424],[111.64195,-7.97441],[111.64172,-7.97501],[111.64043,-7.97401],[111.63981,-7.97379],[111.63907,-7.97392],[111.63874,-7.97477],[111.63894,-7.97551],[111.63815,-7.97471],[111.63796,-7.9742],[111.6379,-7.97325],[111.63811,-7.97257],[111.63874,-7.97186],[111.6397,-7.97133],[111.64048,-7.97041],[111.64106,-7.9695],[111.64135,-7.96887],[111.64204,-7.96809],[111.64267,-7.96775],[111.64343,-7.96755],[111.6444,-7.96765],[111.64499,-7.96792],[111.6461,-7.96872],[111.64693,-7.96946],[111.64772,-7.97057],[111.64837,-7.97177],[111.64845,-7.97309],[111.64827,-7.97349],[111.64769,-7.97367],[111.64733,-7.97387],[111.64639,-7.97369],[111.64624,-7.97353],[111.64556,-7.97349],[111.64521,-7.97397],[111.64467,-7.97414],[111.64453,-7.97459],[111.64418,-7.9745],[111.64403,-7.97404],[111.64399,-7.97663]]]}},{"type":"Feature","properties":{"KODE":3,"KELAS":3,"NAMA":"Konsentrasi Tinggi","LUAS_HA":0.353,"ARAHAN":"Calon pusat WP/sub-WP; zona K/C/SPU skala WP","_cls":"Konsentrasi Tinggi"},"geometry":{"type":"Polygon","coordinates":[[[111.58692,-7.97744],[111.58679,-7.97732],[111.58689,-7.97668],[111.58752,-7.97676],[111.58692,-7.97744]]]}},{"type":"Feature","properties":{"KODE":3,"KELAS":3,"NAMA":"Konsentrasi Tinggi","LUAS_HA":15.076,"ARAHAN":"Calon pusat WP/sub-WP; zona K/C/SPU skala WP","_cls":"Konsentrasi Tinggi"},"geometry":{"type":"Polygon","coordinates":[[[111.58411,-7.97763],[111.58324,-7.97759],[111.58315,-7.97668],[111.58234,-7.97677],[111.58225,-7.97715],[111.58183,-7.97712],[111.58135,-7.97729],[111.58143,-7.97523],[111.58198,-7.97515],[111.58225,-7.97505],[111.58234,-7.97586],[111.58324,-7.97577],[111.58316,-7.97496],[111.58251,-7.97487],[111.58307,-7.97442],[111.58406,-7.9735],[111.58415,-7.97496],[111.58443,-7.97487],[111.585,-7.9742],[111.58563,-7.97397],[111.58598,-7.97394],[111.58643,-7.97408],[111.58676,-7.97436],[111.58696,-7.97491],[111.58684,-7.97579],[111.5862,-7.97653],[111.58531,-7.97685],[111.58457,-7.97656],[111.58433,-7.97614],[111.58422,-7.97578],[111.58415,-7.97586],[111.58411,-7.97763]]]}},{"type":"Feature","properties":{"KODE":1,"KELAS":1,"NAMA":"Konsentrasi Rendah","LUAS_HA":0.105,"ARAHAN":"Kawasan permukiman/perdesaan","_cls":"Konsentrasi Rendah"},"geometry":{"type":"Polygon","coordinates":[[[111.62313,-7.97938],[111.62316,-7.97881],[111.62342,-7.97888],[111.62319,-7.97935],[111.62313,-7.97938]]]}},{"type":"Feature","properties":{"KODE":2,"KELAS":2,"NAMA":"Konsentrasi Sedang","LUAS_HA":13.814,"ARAHAN":"Calon pusat lingkungan; koridor campuran","_cls":"Konsentrasi Sedang"},"geometry":{"type":"Polygon","coordinates":[[[111.61859,-7.98101],[111.61818,-7.98097],[111.61794,-7.98059],[111.61741,-7.98062],[111.61692,-7.98047],[111.6169,-7.98016],[111.61693,-7.97966],[111.61689,-7.97902],[111.61722,-7.97851],[111.61764,-7.97804],[111.61856,-7.97754],[111.61992,-7.97746],[111.62094,-7.97792],[111.62171,-7.97881],[111.62174,-7.97923],[111.62137,-7.97944],[111.621,-7.97941],[111.62083,-7.97978],[111.62064,-7.97988],[111.62041,-7.97987],[111.61999,-7.98016],[111.61976,-7.98015],[111.61905,-7.98037],[111.61859,-7.98101]]]}},{"type":"Feature","properties":{"KODE":3,"KELAS":3,"NAMA":"Konsentrasi Tinggi","LUAS_HA":39.139,"ARAHAN":"Calon pusat WP/sub-WP; zona K/C/SPU skala WP","_cls":"Konsentrasi Tinggi"},"geometry":{"type":"Polygon","coordinates":[[[111.62712,-7.98109],[111.62629,-7.98102],[111.62554,-7.98059],[111.62513,-7.97984],[111.62495,-7.97907],[111.62417,-7.97889],[111.62453,-7.97718],[111.62486,-7.9763],[111.62557,-7.9753],[111.62662,-7.97456],[111.62793,-7.97417],[111.62879,-7.97435],[111.62979,-7.97498],[111.6303,-7.97571],[111.63068,-7.97663],[111.63077,-7.97799],[111.63051,-7.97894],[111.6297,-7.97905],[111.6293,-7.97961],[111.62877,-7.9802],[111.62807,-7.98074],[111.62717,-7.98104],[111.62712,-7.98109]]]}},{"type":"Feature","properties":{"KODE":2,"KELAS":2,"NAMA":"Konsentrasi Sedang","LUAS_HA":2,"ARAHAN":"Calon pusat lingkungan; koridor campuran","_cls":"Konsentrasi Sedang"},"geometry":{"type":"Polygon","coordinates":[[[111.58502,-7.98215],[111.58412,-7.98215],[111.58411,-7.98034],[111.58502,-7.98034],[111.58502,-7.98215]]]}},{"type":"Feature","properties":{"KODE":2,"KELAS":2,"NAMA":"Konsentrasi Sedang","LUAS_HA":55.074,"ARAHAN":"Calon pusat lingkungan; koridor campuran","_cls":"Konsentrasi Sedang"},"geometry":{"type":"Polygon","coordinates":[[[111.546,-7.97587],[111.546,-7.97677],[111.54509,-7.97678],[111.54423,-7.97673],[111.54413,-7.97574],[111.54329,-7.97531],[111.54243,-7.97502],[111.5415,-7.97493],[111.54135,-7.97476],[111.5396,-7.97452],[111.53845,-7.97396],[111.53825,-7.97377],[111.53787,-7.97294],[111.53774,-7.97321],[111.53657,-7.97312],[111.53597,-7.97238],[111.53606,-7.97231],[111.53696,-7.97221],[111.53687,-7.97149],[111.53637,-7.97075],[111.53606,-7.96935],[111.5357,-7.96844],[111.53459,-7.96729],[111.53424,-7.96711],[111.53415,-7.9677],[111.53242,-7.96779],[111.53231,-7.96848],[111.53206,-7.96861],[111.53062,-7.9687],[111.53052,-7.97132],[111.53041,-7.97143],[111.53078,-7.97256],[111.53114,-7.9731],[111.53159,-7.9737],[111.5325,-7.97639],[111.53267,-7.97822],[111.53289,-7.97856],[111.53325,-7.97864],[111.53334,-7.97928],[111.53388,-7.98016],[111.53432,-7.98159],[111.53435,-7.98298],[111.53439,-7.98312],[111.53425,-7.98308],[111.53417,-7.98226],[111.53244,-7.98218],[111.53235,-7.98136],[111.53198,-7.98127],[111.53198,-7.98122],[111.53198,-7.98045],[111.53235,-7.98037],[111.53244,-7.97984],[111.53181,-7.979],[111.53153,-7.97855],[111.53063,-7.97863],[111.53053,-7.97775],[111.53117,-7.97766],[111.53125,-7.97759],[111.53105,-7.97684],[111.53144,-7.97675],[111.53152,-7.97503],[111.53062,-7.97494],[111.53053,-7.97586],[111.53004,-7.97526],[111.52971,-7.97497],[111.52962,-7.97413],[111.53053,-7.97404],[111.53061,-7.97323],[111.5297,-7.97314],[111.52962,-7.97231],[111.52951,-7.9723],[111.52953,-7.97087],[111.52875,-7.97084],[111.52871,-7.9696],[111.52789,-7.96952],[111.5278,-7.9687],[111.53052,-7.96861],[111.5306,-7.96779],[111.53108,-7.9677],[111.53132,-7.96742],[111.53176,-7.96705],[111.53238,-7.96683],[111.5328,-7.96687],[111.53281,-7.96683],[111.53359,-7.96689],[111.53363,-7.96693],[111.53378,-7.96688],[111.53401,-7.96685],[111.53403,-7.96682],[111.53422,-7.96677],[111.53596,-7.96686],[111.53608,-7.96894],[111.53625,-7.96879],[111.53635,-7.96866],[111.53664,-7.96871],[111.5367,-7.96874],[111.53684,-7.96896],[111.53708,-7.96914],[111.53716,-7.96922],[111.53718,-7.96931],[111.5372,-7.96957],[111.53696,-7.96959],[111.53688,-7.97041],[111.53787,-7.97049],[111.53829,-7.97107],[111.53869,-7.97104],[111.53878,-7.97131],[111.5396,-7.9714],[111.53969,-7.97312],[111.54051,-7.97321],[111.54059,-7.97403],[111.54414,-7.97411],[111.54422,-7.97493],[111.54505,-7.97501],[111.54513,-7.97583],[111.546,-7.97587]]]}},{"type":"Feature","properties":{"KODE":2,"KELAS":2,"NAMA":"Konsentrasi Sedang","LUAS_HA":78.771,"ARAHAN":"Calon pusat lingkungan; koridor campuran","_cls":"Konsentrasi Sedang"},"geometry":{"type":"Polygon","coordinates":[[[111.62313,-7.97938],[111.62319,-7.97935],[111.62342,-7.97888],[111.62316,-7.97881],[111.62313,-7.97938],[111.62218,-7.97933],[111.62226,-7.97762],[111.62365,-7.97752],[111.62399,-7.97653],[111.62407,-7.9749],[111.62489,-7.97481],[111.62498,-7.97399],[111.6258,-7.9739],[111.62589,-7.97309],[111.62616,-7.97296],[111.62605,-7.97191],[111.62561,-7.97084],[111.62559,-7.9698],[111.62587,-7.96894],[111.62639,-7.96829],[111.62704,-7.96785],[111.62785,-7.96757],[111.62899,-7.96768],[111.62967,-7.968],[111.63039,-7.96868],[111.63078,-7.96944],[111.63089,-7.97028],[111.63077,-7.97099],[111.63034,-7.97206],[111.63031,-7.97327],[111.63047,-7.97389],[111.63124,-7.97398],[111.63133,-7.9748],[111.63224,-7.9749],[111.63216,-7.97878],[111.63134,-7.97876],[111.63125,-7.97932],[111.63116,-7.97941],[111.63078,-7.98007],[111.63043,-7.98059],[111.63035,-7.98204],[111.62862,-7.98213],[111.62852,-7.98303],[111.62772,-7.98295],[111.62762,-7.98204],[111.62681,-7.98213],[111.62671,-7.98304],[111.6259,-7.98295],[111.6258,-7.98214],[111.62318,-7.98205],[111.62309,-7.98123],[111.62218,-7.98114],[111.62227,-7.97997],[111.6228,-7.97998],[111.62305,-7.97961],[111.62313,-7.97938]],[[111.62712,-7.98109],[111.62717,-7.98104],[111.62807,-7.98074],[111.62877,-7.9802],[111.6293,-7.97961],[111.6297,-7.97905],[111.63051,-7.97894],[111.63077,-7.97799],[111.63068,-7.97663],[111.6303,-7.97571],[111.62979,-7.97498],[111.62879,-7.97435],[111.62793,-7.97417],[111.62662,-7.97456],[111.62557,-7.9753],[111.62486,-7.9763],[111.62453,-7.97718],[111.62417,-7.97889],[111.62495,-7.97907],[111.62513,-7.97984],[111.62554,-7.98059],[111.62629,-7.98102],[111.62712,-7.98109]]]}},{"type":"Feature","properties":{"KODE":2,"KELAS":2,"NAMA":"Konsentrasi Sedang","LUAS_HA":10.767,"ARAHAN":"Calon pusat lingkungan; koridor campuran","_cls":"Konsentrasi Sedang"},"geometry":{"type":"Polygon","coordinates":[[[111.54165,-7.98402],[111.5421,-7.98288],[111.5426,-7.98223],[111.54323,-7.98173],[111.54333,-7.98134],[111.54414,-7.98125],[111.54424,-7.97954],[111.54505,-7.97945],[111.54509,-7.97687],[111.54528,-7.97702],[111.54576,-7.97789],[111.54583,-7.97867],[111.54577,-7.97944],[111.54605,-7.97957],[111.54596,-7.98035],[111.54514,-7.98044],[111.54506,-7.98216],[111.54423,-7.98225],[111.54415,-7.98307],[111.54333,-7.98315],[111.54325,-7.98397],[111.54165,-7.98402]]]}},{"type":"Feature","properties":{"KODE":3,"KELAS":3,"NAMA":"Konsentrasi Tinggi","LUAS_HA":98.204,"ARAHAN":"Calon pusat WP/sub-WP; zona K/C/SPU skala WP","_cls":"Konsentrasi Tinggi"},"geometry":{"type":"Polygon","coordinates":[[[111.57957,-7.97392],[111.57962,-7.97668],[111.58052,-7.97678],[111.58044,-7.97759],[111.57962,-7.97768],[111.57953,-7.97804],[111.57811,-7.97892],[111.57701,-7.97983],[111.57624,-7.98071],[111.57572,-7.9819],[111.57581,-7.98239],[111.57598,-7.98302],[111.57463,-7.98311],[111.57509,-7.98371],[111.57511,-7.9847],[111.57484,-7.98527],[111.57457,-7.98554],[111.57384,-7.98592],[111.57298,-7.9858],[111.57229,-7.98514],[111.5721,-7.9844],[111.57229,-7.98376],[111.57273,-7.98311],[111.57139,-7.98302],[111.57187,-7.98222],[111.57228,-7.98212],[111.57236,-7.98112],[111.57248,-7.98041],[111.57236,-7.98004],[111.57141,-7.97804],[111.57096,-7.97601],[111.57054,-7.97561],[111.57045,-7.97371],[111.56983,-7.97372],[111.56927,-7.97317],[111.56773,-7.97308],[111.56782,-7.97222],[111.56924,-7.97278],[111.56954,-7.97263],[111.56964,-7.97293],[111.57009,-7.97308],[111.57027,-7.97271],[111.57071,-7.97317],[111.57136,-7.97308],[111.57144,-7.97163],[111.57237,-7.97244],[111.57309,-7.97245],[111.57459,-7.97226],[111.57577,-7.9724],[111.57765,-7.97305],[111.57957,-7.97392]]]}},{"type":"Feature","properties":{"KODE":2,"KELAS":2,"NAMA":"Konsentrasi Sedang","LUAS_HA":6.068,"ARAHAN":"Calon pusat lingkungan; koridor campuran","_cls":"Konsentrasi Sedang"},"geometry":{"type":"Polygon","coordinates":[[[111.63865,-7.98578],[111.6378,-7.98572],[111.63737,-7.98534],[111.63707,-7.98478],[111.63718,-7.98389],[111.6379,-7.9833],[111.63862,-7.98326],[111.63902,-7.98344],[111.6394,-7.98378],[111.6396,-7.98433],[111.63962,-7.9846],[111.63944,-7.98516],[111.6391,-7.98554],[111.6387,-7.98573],[111.63865,-7.98578]]]}},{"type":"Feature","properties":{"KODE":2,"KELAS":2,"NAMA":"Konsentrasi Sedang","LUAS_HA":15.18,"ARAHAN":"Calon pusat lingkungan; koridor campuran","_cls":"Konsentrasi Sedang"},"geometry":{"type":"Polygon","coordinates":[[[111.58476,-7.9864],[111.58408,-7.98635],[111.58345,-7.98616],[111.58269,-7.98552],[111.58236,-7.98473],[111.58231,-7.98414],[111.58259,-7.98323],[111.58345,-7.98248],[111.58461,-7.98239],[111.58547,-7.98277],[111.58613,-7.98353],[111.58634,-7.9843],[111.58622,-7.98517],[111.58584,-7.98577],[111.58529,-7.9862],[111.5848,-7.98635],[111.58476,-7.9864]]]}},{"type":"Feature","properties":{"KODE":2,"KELAS":2,"NAMA":"Konsentrasi Sedang","LUAS_HA":152.926,"ARAHAN":"Calon pusat lingkungan; koridor campuran","_cls":"Konsentrasi Sedang"},"geometry":{"type":"Polygon","coordinates":[[[111.56687,-7.97403],[111.56759,-7.974],[111.56735,-7.97373],[111.56708,-7.97319],[111.5669,-7.9731],[111.56687,-7.97403],[111.56596,-7.97403],[111.56596,-7.97494],[111.56505,-7.97494],[111.56505,-7.97313],[111.56414,-7.97313],[111.56414,-7.97223],[111.56505,-7.97223],[111.56504,-7.96951],[111.56591,-7.96947],[111.56599,-7.96865],[111.56863,-7.96856],[111.56871,-7.96774],[111.56913,-7.96766],[111.56962,-7.96856],[111.56982,-7.96873],[111.57045,-7.96945],[111.57053,-7.97037],[111.57153,-7.97046],[111.57226,-7.96989],[111.57235,-7.97037],[111.57317,-7.97045],[111.57325,-7.97127],[111.57589,-7.97135],[111.57598,-7.97217],[111.57679,-7.97225],[111.57688,-7.97135],[111.57861,-7.97126],[111.5787,-7.97217],[111.57952,-7.97225],[111.57957,-7.97392],[111.57765,-7.97305],[111.57577,-7.9724],[111.57459,-7.97226],[111.57309,-7.97245],[111.57237,-7.97244],[111.57144,-7.97163],[111.57136,-7.97308],[111.57071,-7.97317],[111.57027,-7.97271],[111.57009,-7.97308],[111.56964,-7.97293],[111.56954,-7.97263],[111.56924,-7.97278],[111.56782,-7.97222],[111.56773,-7.97308],[111.56927,-7.97317],[111.56983,-7.97372],[111.57045,-7.97371],[111.57054,-7.97561],[111.57096,-7.97601],[111.57141,-7.97804],[111.57236,-7.98004],[111.57248,-7.98041],[111.57236,-7.98112],[111.57228,-7.98212],[111.57187,-7.98222],[111.57139,-7.98302],[111.57273,-7.98311],[111.57229,-7.98376],[111.5721,-7.9844],[111.57229,-7.98514],[111.57298,-7.9858],[111.57384,-7.98592],[111.57457,-7.98554],[111.57484,-7.98527],[111.57511,-7.9847],[111.57509,-7.98371],[111.57463,-7.98311],[111.57598,-7.98302],[111.57581,-7.98239],[111.57572,-7.9819],[111.57624,-7.98071],[111.57701,-7.97983],[111.57811,-7.97892],[111.57953,-7.97804],[111.57962,-7.97768],[111.58044,-7.97759],[111.58052,-7.97678],[111.57962,-7.97668],[111.57957,-7.97402],[111.58134,-7.97397],[111.58142,-7.97315],[111.58316,-7.97307],[111.58324,-7.97224],[111.58495,-7.97216],[111.58506,-7.97265],[111.58556,-7.97245],[111.58627,-7.97234],[111.58725,-7.97261],[111.58792,-7.9731],[111.58828,-7.97368],[111.58837,-7.974],[111.58778,-7.97405],[111.58775,-7.97649],[111.58838,-7.9754],[111.5885,-7.97436],[111.58837,-7.974],[111.5886,-7.97396],[111.58869,-7.97306],[111.58951,-7.97314],[111.58959,-7.97396],[111.5905,-7.97405],[111.59042,-7.97486],[111.58959,-7.97495],[111.58951,-7.97758],[111.58869,-7.97766],[111.58861,-7.97848],[111.58234,-7.97858],[111.58226,-7.9794],[111.58143,-7.97948],[111.58134,-7.98039],[111.58053,-7.9803],[111.58044,-7.97849],[111.57962,-7.97858],[111.57953,-7.9803],[111.57871,-7.98039],[111.57863,-7.98121],[111.57781,-7.9813],[111.57772,-7.98212],[111.5769,-7.9822],[111.57682,-7.98302],[111.57613,-7.98311],[111.57636,-7.98393],[111.5769,-7.98403],[111.57682,-7.98483],[111.57626,-7.98492],[111.576,-7.98555],[111.57591,-7.98664],[111.57509,-7.98673],[111.575,-7.98763],[111.57418,-7.98755],[111.5741,-7.98718],[111.57274,-7.98709],[111.57192,-7.98673],[111.57146,-7.98665],[111.57134,-7.986],[111.57119,-7.98583],[111.57047,-7.98573],[111.57055,-7.9804],[111.57145,-7.98031],[111.57137,-7.97859],[111.57054,-7.97851],[111.57045,-7.9767],[111.56963,-7.97678],[111.56954,-7.97769],[111.56873,-7.97761],[111.56864,-7.97679],[111.56782,-7.9767],[111.56773,-7.97498],[111.56691,-7.9749],[111.56687,-7.97403]],[[111.58692,-7.97744],[111.58752,-7.97676],[111.58689,-7.97668],[111.58679,-7.97732],[111.58692,-7.97744]],[[111.58411,-7.97763],[111.58415,-7.97586],[111.58422,-7.97578],[111.58433,-7.97614],[111.58457,-7.97656],[111.58531,-7.97685],[111.5862,-7.97653],[111.58684,-7.97579],[111.58696,-7.97491],[111.58676,-7.97436],[111.58643,-7.97408],[111.58598,-7.97394],[111.58563,-7.97397],[111.585,-7.9742],[111.58443,-7.97487],[111.58415,-7.97496],[111.58406,-7.9735],[111.58307,-7.97442],[111.58251,-7.97487],[111.58316,-7.97496],[111.58324,-7.97577],[111.58234,-7.97586],[111.58225,-7.97505],[111.58198,-7.97515],[111.58143,-7.97523],[111.58135,-7.97729],[111.58183,-7.97712],[111.58225,-7.97715],[111.58234,-7.97677],[111.58315,-7.97668],[111.58324,-7.97759],[111.58411,-7.97763]]]}},{"type":"Feature","properties":{"KODE":2,"KELAS":2,"NAMA":"Konsentrasi Sedang","LUAS_HA":0.56,"ARAHAN":"Calon pusat lingkungan; koridor campuran","_cls":"Konsentrasi Sedang"},"geometry":{"type":"Polygon","coordinates":[[[111.63857,-7.9893],[111.63762,-7.98926],[111.63771,-7.98854],[111.63851,-7.98898],[111.63857,-7.9893]]]}},{"type":"Feature","properties":{"KODE":3,"KELAS":3,"NAMA":"Konsentrasi Tinggi","LUAS_HA":199.84,"ARAHAN":"Calon pusat WP/sub-WP; zona K/C/SPU skala WP","_cls":"Konsentrasi Tinggi"},"geometry":{"type":"Polygon","coordinates":[[[111.53439,-7.98312],[111.53435,-7.98298],[111.53432,-7.98159],[111.53388,-7.98016],[111.53334,-7.97928],[111.53325,-7.97864],[111.53289,-7.97856],[111.53267,-7.97822],[111.5325,-7.97639],[111.53159,-7.9737],[111.53114,-7.9731],[111.53078,-7.97256],[111.53041,-7.97143],[111.53052,-7.97132],[111.53062,-7.9687],[111.53206,-7.96861],[111.53231,-7.96848],[111.53242,-7.96779],[111.53415,-7.9677],[111.53424,-7.96711],[111.53459,-7.96729],[111.5357,-7.96844],[111.53606,-7.96935],[111.53637,-7.97075],[111.53687,-7.97149],[111.53696,-7.97221],[111.53606,-7.97231],[111.53597,-7.97238],[111.53657,-7.97312],[111.53774,-7.97321],[111.53787,-7.97294],[111.53825,-7.97377],[111.53845,-7.97396],[111.5396,-7.97452],[111.54135,-7.97476],[111.5415,-7.97493],[111.54243,-7.97502],[111.54329,-7.97531],[111.54413,-7.97574],[111.54423,-7.97673],[111.54509,-7.97678],[111.54505,-7.97945],[111.54424,-7.97954],[111.54414,-7.98125],[111.54333,-7.98134],[111.54323,-7.98173],[111.5426,-7.98223],[111.5421,-7.98288],[111.54165,-7.98402],[111.54061,-7.98406],[111.54052,-7.9856],[111.54033,-7.98633],[111.54042,-7.98849],[111.53971,-7.98858],[111.53962,-7.9894],[111.53897,-7.98949],[111.53849,-7.99001],[111.53778,-7.99031],[111.53679,-7.99018],[111.53602,-7.98947],[111.53572,-7.98863],[111.53602,-7.98769],[111.53508,-7.98759],[111.53517,-7.98704],[111.53562,-7.98619],[111.53551,-7.98505],[111.53535,-7.9847],[111.53497,-7.98408],[111.53516,-7.9839],[111.53508,-7.98316],[111.53439,-7.98312]]]}},{"type":"Feature","properties":{"KODE":2,"KELAS":2,"NAMA":"Konsentrasi Sedang","LUAS_HA":4.931,"ARAHAN":"Calon pusat lingkungan; koridor campuran","_cls":"Konsentrasi Sedang"},"geometry":{"type":"Polygon","coordinates":[[[111.61988,-7.99132],[111.61921,-7.99128],[111.61884,-7.99098],[111.61894,-7.99032],[111.61945,-7.98969],[111.62022,-7.98923],[111.62109,-7.98912],[111.62155,-7.98949],[111.62145,-7.99018],[111.62098,-7.99077],[111.62031,-7.99116],[111.61992,-7.99127],[111.61988,-7.99132]]]}},{"type":"Feature","properties":{"KODE":3,"KELAS":3,"NAMA":"Konsentrasi Tinggi","LUAS_HA":70.055,"ARAHAN":"Calon pusat WP/sub-WP; zona K/C/SPU skala WP","_cls":"Konsentrasi Tinggi"},"geometry":{"type":"Polygon","coordinates":[[[111.60872,-7.99261],[111.60749,-7.99256],[111.60682,-7.99223],[111.60626,-7.99187],[111.60549,-7.99113],[111.60486,-7.99031],[111.60495,-7.99022],[111.60504,-7.9894],[111.60523,-7.98931],[111.60521,-7.98871],[111.60676,-7.98854],[111.60678,-7.98759],[111.60586,-7.98749],[111.60598,-7.98699],[111.60705,-7.98644],[111.60851,-7.98591],[111.6091,-7.98552],[111.60937,-7.98526],[111.6101,-7.98416],[111.61065,-7.98379],[111.61137,-7.9836],[111.61217,-7.98391],[111.61284,-7.9846],[111.61294,-7.98397],[111.61343,-7.98336],[111.61401,-7.98413],[111.61411,-7.98568],[111.61438,-7.98581],[111.61426,-7.98911],[111.61409,-7.9902],[111.6123,-7.99029],[111.61221,-7.99111],[111.61139,-7.9912],[111.61131,-7.99202],[111.61049,-7.99211],[111.6104,-7.99238],[111.60883,-7.99249],[111.60872,-7.99261]]]}},{"type":"Feature","properties":{"KODE":2,"KELAS":2,"NAMA":"Konsentrasi Sedang","LUAS_HA":42.774,"ARAHAN":"Calon pusat lingkungan; koridor campuran","_cls":"Konsentrasi Sedang"},"geometry":{"type":"Polygon","coordinates":[[[111.53439,-7.98312],[111.53508,-7.98316],[111.53516,-7.9839],[111.53497,-7.98408],[111.53535,-7.9847],[111.53551,-7.98505],[111.53562,-7.98619],[111.53517,-7.98704],[111.53508,-7.98759],[111.53602,-7.98769],[111.53572,-7.98863],[111.53602,-7.98947],[111.53679,-7.99018],[111.53778,-7.99031],[111.53849,-7.99001],[111.53897,-7.98949],[111.53962,-7.9894],[111.53971,-7.98858],[111.54042,-7.98849],[111.54033,-7.98633],[111.54052,-7.9856],[111.54061,-7.98406],[111.54156,-7.98402],[111.54144,-7.98454],[111.54151,-7.98579],[111.54242,-7.98587],[111.54235,-7.98669],[111.54053,-7.98677],[111.54061,-7.9876],[111.54151,-7.98768],[111.54144,-7.9885],[111.54061,-7.98858],[111.54054,-7.99122],[111.5397,-7.99129],[111.53963,-7.9931],[111.53608,-7.99303],[111.536,-7.9922],[111.53426,-7.99213],[111.53418,-7.98949],[111.53328,-7.98941],[111.53335,-7.98859],[111.53426,-7.9885],[111.53418,-7.98678],[111.53335,-7.9867],[111.53327,-7.98587],[111.53236,-7.98579],[111.53244,-7.98497],[111.53327,-7.98489],[111.53334,-7.98406],[111.53482,-7.98399],[111.53449,-7.98348],[111.53439,-7.98312]]]}},{"type":"Feature","properties":{"KODE":2,"KELAS":2,"NAMA":"Konsentrasi Sedang","LUAS_HA":80.886,"ARAHAN":"Calon pusat lingkungan; koridor campuran","_cls":"Konsentrasi Sedang"},"geometry":{"type":"Polygon","coordinates":[[[111.61498,-7.99386],[111.61412,-7.99382],[111.61403,-7.9921],[111.61321,-7.99201],[111.61312,-7.99133],[111.61222,-7.99183],[111.6123,-7.99292],[111.61321,-7.99301],[111.61312,-7.99391],[111.60958,-7.99383],[111.60949,-7.99292],[111.60777,-7.99301],[111.60767,-7.99392],[111.60686,-7.99383],[111.60677,-7.99301],[111.60414,-7.99293],[111.60405,-7.99211],[111.60323,-7.99203],[111.60314,-7.9894],[111.60223,-7.98931],[111.60232,-7.98913],[111.60368,-7.98899],[111.60359,-7.98849],[111.60314,-7.98839],[111.60322,-7.98578],[111.60404,-7.9857],[111.60413,-7.98479],[111.60495,-7.98487],[111.60503,-7.98588],[111.60585,-7.98537],[111.60594,-7.98487],[111.60676,-7.98479],[111.60684,-7.98397],[111.60767,-7.98388],[111.60775,-7.98306],[111.60857,-7.98298],[111.60866,-7.98216],[111.61129,-7.98207],[111.61138,-7.98132],[111.61219,-7.98156],[111.61229,-7.98207],[111.61343,-7.98215],[111.61401,-7.98257],[111.6141,-7.98297],[111.61464,-7.98307],[111.61493,-7.98357],[111.61501,-7.98568],[111.61584,-7.98576],[111.61592,-7.98749],[111.61683,-7.98758],[111.61675,-7.98839],[111.61584,-7.98849],[111.61593,-7.9893],[111.61683,-7.98939],[111.61675,-7.9902],[111.61593,-7.99029],[111.61585,-7.99292],[111.61502,-7.993],[111.61498,-7.99386]],[[111.60872,-7.99261],[111.60883,-7.99249],[111.6104,-7.99238],[111.61049,-7.99211],[111.61131,-7.99202],[111.61139,-7.9912],[111.61221,-7.99111],[111.6123,-7.99029],[111.61409,-7.9902],[111.61426,-7.98911],[111.61438,-7.98581],[111.61411,-7.98568],[111.61401,-7.98413],[111.61343,-7.98336],[111.61294,-7.98397],[111.61284,-7.9846],[111.61217,-7.98391],[111.61137,-7.9836],[111.61065,-7.98379],[111.6101,-7.98416],[111.60937,-7.98526],[111.6091,-7.98552],[111.60851,-7.98591],[111.60705,-7.98644],[111.60598,-7.98699],[111.60586,-7.98749],[111.60678,-7.98759],[111.60676,-7.98854],[111.60521,-7.98871],[111.60523,-7.98931],[111.60504,-7.9894],[111.60495,-7.99022],[111.60486,-7.99031],[111.60549,-7.99113],[111.60626,-7.99187],[111.60682,-7.99223],[111.60749,-7.99256],[111.60872,-7.99261]]]}},{"type":"Feature","properties":{"KODE":2,"KELAS":2,"NAMA":"Konsentrasi Sedang","LUAS_HA":32.708,"ARAHAN":"Calon pusat lingkungan; koridor campuran","_cls":"Konsentrasi Sedang"},"geometry":{"type":"Polygon","coordinates":[[[111.63586,-7.99474],[111.63403,-7.99365],[111.63317,-7.99325],[111.63309,-7.99297],[111.63218,-7.99288],[111.63227,-7.99207],[111.63309,-7.99198],[111.63317,-7.98936],[111.63399,-7.98927],[111.63408,-7.9889],[111.63446,-7.98891],[111.63535,-7.98881],[111.6367,-7.98856],[111.6368,-7.98972],[111.63771,-7.98984],[111.63859,-7.99041],[111.63906,-7.99129],[111.6391,-7.99215],[111.63891,-7.99276],[111.63855,-7.99332],[111.6378,-7.99378],[111.6359,-7.99388],[111.63586,-7.99474]]]}},{"type":"Feature","properties":{"KODE":3,"KELAS":3,"NAMA":"Konsentrasi Tinggi","LUAS_HA":2.082,"ARAHAN":"Calon pusat WP/sub-WP; zona K/C/SPU skala WP","_cls":"Konsentrasi Tinggi"},"geometry":{"type":"Polygon","coordinates":[[[111.5787,-8.00025],[111.57645,-8.00022],[111.5768,-7.9998],[111.57697,-7.99931],[111.57866,-7.99938],[111.5787,-8.00025]]]}},{"type":"Feature","properties":{"KODE":3,"KELAS":3,"NAMA":"Konsentrasi Tinggi","LUAS_HA":0.014,"ARAHAN":"Calon pusat WP/sub-WP; zona K/C/SPU skala WP","_cls":"Konsentrasi Tinggi"},"geometry":{"type":"Polygon","coordinates":[[[111.5787,-8.00025],[111.57882,-8.0003],[111.57873,-8.00045],[111.5787,-8.00025]]]}},{"type":"Feature","properties":{"KODE":2,"KELAS":2,"NAMA":"Konsentrasi Sedang","LUAS_HA":84.116,"ARAHAN":"Calon pusat lingkungan; koridor campuran","_cls":"Konsentrasi Sedang"},"geometry":{"type":"Polygon","coordinates":[[[111.57118,-8.00767],[111.57026,-8.00761],[111.56945,-8.00714],[111.56899,-8.00649],[111.56877,-8.00569],[111.56889,-8.00483],[111.56945,-8.00396],[111.56998,-8.00367],[111.57049,-8.00347],[111.57058,-8.00301],[111.5714,-8.00293],[111.57148,-8.00211],[111.57231,-8.00202],[111.5724,-8.00112],[111.57412,-8.0012],[111.57421,-8.00211],[111.57481,-8.00201],[111.57522,-8.00121],[111.57503,-8.00104],[111.57511,-7.99849],[111.57575,-7.9984],[111.57583,-7.99758],[111.57684,-7.99749],[111.57692,-7.99667],[111.57702,-7.99659],[111.57721,-7.99595],[111.5779,-7.99518],[111.57877,-7.99487],[111.57974,-7.99499],[111.58045,-7.9955],[111.58091,-7.99634],[111.58097,-7.99735],[111.58051,-7.99839],[111.58146,-7.99849],[111.58135,-7.99916],[111.58069,-8.0002],[111.57965,-8.00029],[111.57956,-8.003],[111.57874,-8.00292],[111.57865,-8.00201],[111.57846,-8.0021],[111.57818,-8.00301],[111.57753,-8.00374],[111.57707,-8.00399],[111.57631,-8.00415],[111.57563,-8.00394],[111.57503,-8.00348],[111.57512,-8.00473],[111.57602,-8.00483],[111.57594,-8.00564],[111.57512,-8.00572],[111.57503,-8.00753],[111.5724,-8.00745],[111.57231,-8.00708],[111.57181,-8.00743],[111.57122,-8.00763],[111.57118,-8.00767]],[[111.5787,-8.00025],[111.57866,-7.99938],[111.57697,-7.99931],[111.5768,-7.9998],[111.57645,-8.00022],[111.5787,-8.00025],[111.57873,-8.00045],[111.57882,-8.0003],[111.5787,-8.00025]]]}},{"type":"Feature","properties":{"KODE":2,"KELAS":2,"NAMA":"Konsentrasi Sedang","LUAS_HA":12.965,"ARAHAN":"Calon pusat lingkungan; koridor campuran","_cls":"Konsentrasi Sedang"},"geometry":{"type":"Polygon","coordinates":[[[111.54896,-8.01657],[111.54801,-8.0165],[111.54724,-8.01595],[111.54692,-8.01504],[111.54705,-8.01425],[111.54759,-8.0134],[111.54847,-8.01292],[111.54926,-8.01287],[111.54994,-8.01313],[111.55032,-8.01346],[111.55052,-8.01384],[111.55071,-8.01454],[111.5504,-8.01555],[111.54998,-8.01601],[111.54957,-8.0163],[111.549,-8.01652],[111.54896,-8.01657]]]}},{"type":"Feature","properties":{"KODE":2,"KELAS":2,"NAMA":"Konsentrasi Sedang","LUAS_HA":1,"ARAHAN":"Calon pusat lingkungan; koridor campuran","_cls":"Konsentrasi Sedang"},"geometry":{"type":"Polygon","coordinates":[[[111.576,-8.01834],[111.57509,-8.01834],[111.57509,-8.01744],[111.576,-8.01744],[111.576,-8.01834]]]}},{"type":"Feature","properties":{"KODE":2,"KELAS":2,"NAMA":"Konsentrasi Sedang","LUAS_HA":9.053,"ARAHAN":"Calon pusat lingkungan; koridor campuran","_cls":"Konsentrasi Sedang"},"geometry":{"type":"Polygon","coordinates":[[[111.576,-8.01834],[111.57727,-8.01834],[111.57723,-8.01848],[111.57695,-8.01893],[111.57687,-8.0192],[111.57663,-8.01942],[111.57594,-8.02088],[111.57576,-8.02183],[111.57578,-8.02232],[111.57597,-8.02321],[111.57652,-8.0241],[111.57728,-8.02467],[111.57561,-8.02463],[111.57515,-8.02382],[111.57506,-8.02291],[111.5749,-8.02249],[111.57514,-8.02161],[111.57506,-8.0211],[111.57415,-8.02101],[111.57423,-8.02019],[111.57505,-8.02011],[111.57514,-8.01929],[111.57596,-8.0192],[111.576,-8.01834]]]}},{"type":"Feature","properties":{"KODE":3,"KELAS":3,"NAMA":"Konsentrasi Tinggi","LUAS_HA":33.219,"ARAHAN":"Calon pusat WP/sub-WP; zona K/C/SPU skala WP","_cls":"Konsentrasi Tinggi"},"geometry":{"type":"Polygon","coordinates":[[[111.57728,-8.02467],[111.57652,-8.0241],[111.57597,-8.02321],[111.57578,-8.02232],[111.57576,-8.02183],[111.57594,-8.02088],[111.57663,-8.01942],[111.57687,-8.0192],[111.57695,-8.01893],[111.57723,-8.01848],[111.57727,-8.01834],[111.57736,-8.01834],[111.57777,-8.01838],[111.57786,-8.0192],[111.5805,-8.01928],[111.58058,-8.0201],[111.58139,-8.02021],[111.5815,-8.0226],[111.58119,-8.02333],[111.58057,-8.02411],[111.57982,-8.02467],[111.57728,-8.02467]]]}},{"type":"Feature","properties":{"KODE":2,"KELAS":2,"NAMA":"Konsentrasi Sedang","LUAS_HA":14.566,"ARAHAN":"Calon pusat lingkungan; koridor campuran","_cls":"Konsentrasi Sedang"},"geometry":{"type":"Polygon","coordinates":[[[111.57982,-8.02467],[111.58057,-8.02411],[111.58119,-8.02333],[111.5815,-8.0226],[111.58139,-8.02021],[111.58058,-8.0201],[111.5805,-8.01928],[111.57786,-8.0192],[111.57777,-8.01838],[111.57736,-8.01834],[111.57752,-8.01807],[111.57788,-8.01773],[111.57832,-8.01752],[111.57957,-8.01739],[111.57968,-8.01795],[111.58005,-8.01829],[111.58238,-8.01838],[111.5823,-8.02034],[111.58241,-8.02085],[111.58231,-8.02281],[111.58235,-8.02371],[111.5815,-8.0238],[111.58141,-8.02462],[111.57982,-8.02467]]]}},{"type":"Feature","properties":{"KODE":2,"KELAS":2,"NAMA":"Konsentrasi Sedang","LUAS_HA":2.027,"ARAHAN":"Calon pusat lingkungan; koridor campuran","_cls":"Konsentrasi Sedang"},"geometry":{"type":"Polygon","coordinates":[[[111.57746,-8.02467],[111.57964,-8.02467],[111.5796,-8.02561],[111.57786,-8.02554],[111.57778,-8.02482],[111.5775,-8.02473],[111.57746,-8.02467]]]}},{"type":"Feature","properties":{"KODE":3,"KELAS":3,"NAMA":"Konsentrasi Tinggi","LUAS_HA":6.173,"ARAHAN":"Calon pusat WP/sub-WP; zona K/C/SPU skala WP","_cls":"Konsentrasi Tinggi"},"geometry":{"type":"Polygon","coordinates":[[[111.56704,-8.03545],[111.56635,-8.03538],[111.56567,-8.03479],[111.56545,-8.03402],[111.56571,-8.03325],[111.5663,-8.03278],[111.56717,-8.03289],[111.56765,-8.0333],[111.56789,-8.03373],[111.56796,-8.03457],[111.56758,-8.03518],[111.56708,-8.0354],[111.56704,-8.03545]]]}},{"type":"Feature","properties":{"KODE":2,"KELAS":2,"NAMA":"Konsentrasi Sedang","LUAS_HA":80.29,"ARAHAN":"Calon pusat lingkungan; koridor campuran","_cls":"Konsentrasi Sedang"},"geometry":{"type":"Polygon","coordinates":[[[111.56695,-8.03825],[111.56609,-8.03821],[111.566,-8.03739],[111.56337,-8.03731],[111.56328,-8.03649],[111.56262,-8.0364],[111.56265,-8.03559],[111.56246,-8.0355],[111.56236,-8.03417],[111.56064,-8.03434],[111.56055,-8.03342],[111.55966,-8.03325],[111.55881,-8.03275],[111.55833,-8.03206],[111.5581,-8.0312],[111.55822,-8.03039],[111.55843,-8.02994],[111.55886,-8.02935],[111.55956,-8.02892],[111.56033,-8.02872],[111.56122,-8.02884],[111.5617,-8.02906],[111.56238,-8.02968],[111.56269,-8.03016],[111.56327,-8.03007],[111.56336,-8.02917],[111.56418,-8.02926],[111.56427,-8.03001],[111.56508,-8.02997],[111.56517,-8.03007],[111.56599,-8.03016],[111.56608,-8.03079],[111.56673,-8.03077],[111.56732,-8.03096],[111.56763,-8.03115],[111.56854,-8.03196],[111.56872,-8.03188],[111.56881,-8.03097],[111.56911,-8.03107],[111.57062,-8.03383],[111.57054,-8.0364],[111.56972,-8.03648],[111.56963,-8.0373],[111.567,-8.03739],[111.56695,-8.03825]],[[111.56704,-8.03545],[111.56708,-8.0354],[111.56758,-8.03518],[111.56796,-8.03457],[111.56789,-8.03373],[111.56765,-8.0333],[111.56717,-8.03289],[111.5663,-8.03278],[111.56571,-8.03325],[111.56545,-8.03402],[111.56567,-8.03479],[111.56635,-8.03538],[111.56704,-8.03545]]]}},{"type":"Feature","properties":{"KODE":1,"KELAS":1,"NAMA":"Konsentrasi Rendah","LUAS_HA":11038.83,"ARAHAN":"Kawasan permukiman/perdesaan","_cls":"Konsentrasi Rendah"},"geometry":{"type":"MultiPolygon","coordinates":[[[[111.55429,-7.93099],[111.55433,-7.93095],[111.55488,-7.93078],[111.55535,-7.93052],[111.55589,-7.92984],[111.5561,-7.92891],[111.55593,-7.92811],[111.55549,-7.9274],[111.55496,-7.92706],[111.55498,-7.9267],[111.55496,-7.92635],[111.5551,-7.92662],[111.55514,-7.92686],[111.55524,-7.92707],[111.55539,-7.92714],[111.55578,-7.92713],[111.55601,-7.92704],[111.55617,-7.92693],[111.55643,-7.9267],[111.55665,-7.92628],[111.55681,-7.92605],[111.5569,-7.92596],[111.5573,-7.9258],[111.5575,-7.92562],[111.55762,-7.92556],[111.55775,-7.92557],[111.55805,-7.92569],[111.55832,-7.92567],[111.55848,-7.92553],[111.55867,-7.92518],[111.55896,-7.92496],[111.55921,-7.92494],[111.55941,-7.92497],[111.55983,-7.92515],[111.56026,-7.92547],[111.56062,-7.92568],[111.56105,-7.92572],[111.56123,-7.92567],[111.56135,-7.92557],[111.56164,-7.92519],[111.56195,-7.92519],[111.56225,-7.92528],[111.56236,-7.92529],[111.56282,-7.92514],[111.56299,-7.92498],[111.56311,-7.92474],[111.56325,-7.92464],[111.56344,-7.92458],[111.56378,-7.92452],[111.56386,-7.92447],[111.56413,-7.92407],[111.56426,-7.92397],[111.56443,-7.92398],[111.56478,-7.92413],[111.56498,-7.92417],[111.56504,-7.92413],[111.5651,-7.924],[111.56508,-7.92393],[111.56501,-7.92381],[111.56506,-7.92374],[111.56516,-7.9237],[111.56558,-7.92379],[111.56579,-7.92365],[111.56616,-7.92365],[111.56628,-7.92355],[111.56639,-7.92351],[111.56648,-7.92352],[111.56658,-7.92359],[111.56663,-7.92367],[111.56671,-7.92396],[111.56687,-7.92409],[111.56731,-7.92422],[111.56751,-7.92413],[111.56761,-7.92413],[111.56812,-7.9244],[111.56796,-7.92409],[111.56771,-7.92389],[111.5677,-7.92378],[111.56773,-7.92371],[111.56782,-7.92361],[111.56825,-7.92332],[111.56851,-7.92281],[111.56866,-7.92265],[111.5689,-7.92246],[111.56988,-7.92188],[111.57031,-7.92177],[111.57053,-7.92152],[111.57058,-7.92139],[111.57095,-7.92101],[111.57099,-7.92078],[111.57096,-7.9207],[111.57056,-7.92008],[111.57048,-7.91988],[111.57049,-7.91977],[111.5707,-7.91931],[111.57066,-7.91906],[111.57082,-7.91877],[111.57091,-7.91871],[111.57128,-7.91858],[111.57154,-7.91843],[111.57185,-7.91841],[111.57194,-7.91854],[111.57208,-7.91897],[111.57179,-7.91909],[111.57154,-7.91925],[111.57156,-7.91971],[111.57173,-7.92009],[111.57203,-7.92103],[111.57245,-7.92184],[111.57285,-7.92236],[111.57472,-7.9242],[111.57535,-7.92488],[111.57664,-7.92581],[111.57818,-7.92709],[111.57898,-7.92795],[111.58067,-7.93001],[111.58188,-7.9299],[111.58244,-7.93003],[111.58296,-7.93006],[111.58459,-7.93005],[111.58544,-7.93023],[111.58635,-7.93073],[111.58699,-7.9313],[111.58803,-7.93159],[111.59005,-7.93154],[111.59112,-7.9314],[111.59245,-7.93163],[111.59246,-7.93689],[111.59308,-7.93685],[111.59323,-7.93674],[111.59332,-7.93654],[111.59335,-7.9363],[111.5933,-7.93571],[111.59331,-7.93535],[111.59339,-7.93504],[111.59367,-7.93438],[111.594,-7.93409],[111.59483,-7.93395],[111.59496,-7.93389],[111.5951,-7.93364],[111.59511,-7.93346],[111.59508,-7.93339],[111.59512,-7.93331],[111.59553,-7.93318],[111.5961,-7.9332],[111.59631,-7.93318],[111.59703,-7.93294],[111.59747,-7.93291],[111.59822,-7.93293],[111.59961,-7.93303],[111.59988,-7.93307],[111.60008,-7.93313],[111.60024,-7.93336],[111.60026,-7.93352],[111.60019,-7.93362],[111.60007,-7.93416],[111.60009,-7.93424],[111.60021,-7.93431],[111.60027,-7.93449],[111.60032,-7.93452],[111.60052,-7.93442],[111.60071,-7.93442],[111.60112,-7.93434],[111.60134,-7.93422],[111.60157,-7.93404],[111.6017,-7.93399],[111.60208,-7.93409],[111.60226,-7.9341],[111.60235,-7.93408],[111.60239,-7.934],[111.6025,-7.93397],[111.60255,-7.9339],[111.60262,-7.93388],[111.60279,-7.93371],[111.60313,-7.93369],[111.60337,-7.93374],[111.60384,-7.93399],[111.60414,-7.93436],[111.6044,-7.93458],[111.60443,-7.93472],[111.60441,-7.93491],[111.60445,-7.93505],[111.60458,-7.93517],[111.60469,-7.93567],[111.60476,-7.93571],[111.60494,-7.93577],[111.60583,-7.93593],[111.6059,-7.93599],[111.60618,-7.93582],[111.6063,-7.93561],[111.60636,-7.93538],[111.60637,-7.93515],[111.60627,-7.93473],[111.60633,-7.93465],[111.6065,-7.93463],[111.60733,-7.93527],[111.60795,-7.93594],[111.60822,-7.93609],[111.60836,-7.93608],[111.60853,-7.93614],[111.6092,-7.93583],[111.60938,-7.93577],[111.60954,-7.93567],[111.61007,-7.93573],[111.61036,-7.93567],[111.61069,-7.93571],[111.61107,-7.93594],[111.61115,-7.93644],[111.61125,-7.93681],[111.61118,-7.93712],[111.61119,-7.93722],[111.61132,-7.93728],[111.61153,-7.93719],[111.6117,-7.93705],[111.612,-7.93649],[111.61199,-7.93636],[111.61207,-7.93603],[111.61236,-7.93538],[111.61255,-7.93515],[111.61267,-7.9351],[111.61289,-7.93531],[111.61355,-7.93614],[111.61377,-7.93631],[111.61402,-7.93657],[111.61435,-7.93681],[111.61521,-7.93719],[111.61564,-7.93727],[111.61573,-7.93726],[111.61622,-7.93684],[111.61658,-7.93671],[111.61734,-7.93659],[111.61753,-7.93659],[111.61782,-7.93685],[111.61797,-7.93704],[111.61827,-7.93729],[111.61841,-7.93737],[111.61905,-7.93739],[111.6193,-7.93746],[111.61979,-7.9379],[111.6199,-7.93806],[111.62006,-7.93815],[111.62062,-7.93802],[111.62074,-7.93807],[111.62086,-7.93838],[111.62102,-7.93854],[111.62126,-7.93858],[111.62155,-7.93857],[111.62201,-7.93842],[111.62215,-7.93843],[111.62258,-7.93864],[111.62263,-7.93867],[111.62266,-7.93878],[111.62259,-7.93898],[111.62258,-7.9393],[111.62266,-7.9395],[111.62273,-7.93957],[111.62295,-7.93969],[111.62326,-7.93983],[111.62385,-7.93998],[111.62392,-7.94007],[111.62392,-7.94019],[111.62398,-7.94033],[111.62397,-7.94038],[111.62402,-7.94048],[111.62411,-7.94052],[111.62451,-7.94057],[111.62464,-7.94051],[111.62476,-7.94041],[111.62493,-7.94044],[111.62499,-7.94051],[111.62514,-7.94053],[111.62531,-7.94068],[111.62536,-7.94083],[111.62536,-7.94097],[111.62554,-7.94106],[111.62563,-7.94125],[111.62565,-7.94144],[111.62554,-7.94155],[111.62555,-7.94174],[111.62562,-7.94181],[111.62565,-7.9421],[111.62575,-7.94237],[111.62584,-7.94241],[111.62586,-7.94248],[111.62592,-7.9425],[111.62596,-7.94257],[111.626,-7.94271],[111.62599,-7.94287],[111.62589,-7.94297],[111.62587,-7.94304],[111.62566,-7.94337],[111.62562,-7.94339],[111.62543,-7.94334],[111.62532,-7.94338],[111.62533,-7.94366],[111.6253,-7.94373],[111.62523,-7.94382],[111.62493,-7.94389],[111.62494,-7.94399],[111.62503,-7.94409],[111.62492,-7.94418],[111.62471,-7.94418],[111.62457,-7.9442],[111.6245,-7.94424],[111.62447,-7.94434],[111.62447,-7.9447],[111.62429,-7.94486],[111.62419,-7.94502],[111.62423,-7.94513],[111.62441,-7.94542],[111.62459,-7.94551],[111.62476,-7.94549],[111.62482,-7.94552],[111.62485,-7.94569],[111.62478,-7.94589],[111.62486,-7.94603],[111.625,-7.94617],[111.625,-7.94653],[111.62483,-7.94674],[111.62486,-7.94684],[111.62506,-7.947],[111.62512,-7.94719],[111.62487,-7.94775],[111.62485,-7.94789],[111.62496,-7.94824],[111.62493,-7.94831],[111.62498,-7.94842],[111.62511,-7.94841],[111.62519,-7.94852],[111.62525,-7.94853],[111.62532,-7.94861],[111.62529,-7.9487],[111.62517,-7.94893],[111.62518,-7.94908],[111.62527,-7.94914],[111.62574,-7.94926],[111.62586,-7.94954],[111.62612,-7.94965],[111.62615,-7.94971],[111.6261,-7.95016],[111.62594,-7.9502],[111.62574,-7.95002],[111.62563,-7.94998],[111.62554,-7.95],[111.62554,-7.95027],[111.62549,-7.95041],[111.62574,-7.95062],[111.62576,-7.9507],[111.62574,-7.95079],[111.62563,-7.95086],[111.62553,-7.95087],[111.6254,-7.95106],[111.62546,-7.95114],[111.62581,-7.95131],[111.62597,-7.95135],[111.62617,-7.95132],[111.62625,-7.95134],[111.62632,-7.9514],[111.62642,-7.95167],[111.62628,-7.9519],[111.62633,-7.95195],[111.62632,-7.95233],[111.62606,-7.95253],[111.62607,-7.95279],[111.62612,-7.95298],[111.62607,-7.95325],[111.62581,-7.9535],[111.62572,-7.95381],[111.62574,-7.95394],[111.62586,-7.95411],[111.6258,-7.95437],[111.62585,-7.95448],[111.62588,-7.95494],[111.62583,-7.955],[111.62589,-7.95521],[111.62605,-7.95521],[111.62614,-7.95525],[111.62618,-7.95528],[111.62619,-7.95535],[111.62636,-7.95544],[111.62642,-7.95556],[111.62643,-7.95581],[111.62656,-7.956],[111.62659,-7.95612],[111.6269,-7.95618],[111.62736,-7.95657],[111.62753,-7.95685],[111.62754,-7.95768],[111.6278,-7.95767],[111.62797,-7.95793],[111.62816,-7.95854],[111.62823,-7.95861],[111.62838,-7.95856],[111.62851,-7.95857],[111.62877,-7.95841],[111.62896,-7.95842],[111.62929,-7.9586],[111.62938,-7.95872],[111.62963,-7.95803],[111.62977,-7.95815],[111.63005,-7.95817],[111.63006,-7.95794],[111.62999,-7.95783],[111.63003,-7.95772],[111.63051,-7.95775],[111.63081,-7.9577],[111.63119,-7.95774],[111.63129,-7.9578],[111.63145,-7.95775],[111.63161,-7.95781],[111.63165,-7.95819],[111.63183,-7.95815],[111.63202,-7.95822],[111.6326,-7.95814],[111.63273,-7.95807],[111.63281,-7.95795],[111.63279,-7.95784],[111.63297,-7.95769],[111.63346,-7.95707],[111.63364,-7.95697],[111.63396,-7.95689],[111.63413,-7.95676],[111.63468,-7.95624],[111.63481,-7.95605],[111.63495,-7.95592],[111.63511,-7.95588],[111.63581,-7.95587],[111.63604,-7.95596],[111.63673,-7.95634],[111.63753,-7.95685],[111.63824,-7.95697],[111.63841,-7.95696],[111.63856,-7.9569],[111.6389,-7.95696],[111.63873,-7.95743],[111.63871,-7.95778],[111.63883,-7.95831],[111.63881,-7.95861],[111.63901,-7.95874],[111.6392,-7.95905],[111.63932,-7.95916],[111.63935,-7.9593],[111.63951,-7.95944],[111.63951,-7.95967],[111.63956,-7.95975],[111.63966,-7.9598],[111.64007,-7.95987],[111.64035,-7.96009],[111.64072,-7.96018],[111.64094,-7.96026],[111.64123,-7.96073],[111.64131,-7.96081],[111.64142,-7.96081],[111.64148,-7.96077],[111.64162,-7.96054],[111.64169,-7.96052],[111.64182,-7.96057],[111.64202,-7.96077],[111.64248,-7.96101],[111.6426,-7.961],[111.64275,-7.96086],[111.64282,-7.96085],[111.64295,-7.96093],[111.64308,-7.96091],[111.64314,-7.96087],[111.64321,-7.96071],[111.64321,-7.96017],[111.64328,-7.96011],[111.64348,-7.96014],[111.64405,-7.96043],[111.64422,-7.96046],[111.64434,-7.96042],[111.64441,-7.96026],[111.64448,-7.96023],[111.64459,-7.96026],[111.64831,-7.96014],[111.64837,-7.96037],[111.64878,-7.96081],[111.64977,-7.96131],[111.64986,-7.96141],[111.64986,-7.9615],[111.65026,-7.96185],[111.65076,-7.96194],[111.65099,-7.96202],[111.6514,-7.96229],[111.65149,-7.9624],[111.65175,-7.96315],[111.65216,-7.9637],[111.65237,-7.96389],[111.65285,-7.96397],[111.65302,-7.96405],[111.65319,-7.96427],[111.65317,-7.96437],[111.65367,-7.96454],[111.65436,-7.96505],[111.65487,-7.96526],[111.65582,-7.96572],[111.65692,-7.96611],[111.65777,-7.96667],[111.65849,-7.96735],[111.65902,-7.96777],[111.66052,-7.96757],[111.66187,-7.96716],[111.66262,-7.96713],[111.66343,-7.96758],[111.66349,-7.96774],[111.6635,-7.96813],[111.66333,-7.96884],[111.66299,-7.96982],[111.6626,-7.97052],[111.66251,-7.97061],[111.6624,-7.97089],[111.66223,-7.97107],[111.66171,-7.97122],[111.66163,-7.97129],[111.66172,-7.97189],[111.66154,-7.97224],[111.66151,-7.97323],[111.66158,-7.97344],[111.66192,-7.97383],[111.66225,-7.97403],[111.66223,-7.97414],[111.66209,-7.9743],[111.66164,-7.97459],[111.66161,-7.97479],[111.6615,-7.97491],[111.66119,-7.97504],[111.66109,-7.97533],[111.661,-7.97545],[111.66083,-7.97553],[111.66007,-7.97543],[111.65961,-7.97555],[111.65934,-7.97559],[111.65906,-7.97536],[111.65841,-7.97532],[111.65783,-7.97537],[111.65738,-7.97554],[111.65704,-7.97558],[111.65641,-7.97579],[111.65626,-7.97593],[111.65613,-7.97621],[111.65598,-7.9767],[111.65574,-7.97731],[111.65565,-7.9778],[111.65536,-7.97848],[111.6553,-7.97871],[111.65529,-7.97886],[111.65535,-7.97939],[111.65535,-7.97972],[111.65527,-7.98003],[111.6551,-7.98043],[111.65499,-7.98059],[111.65388,-7.9814],[111.65372,-7.98154],[111.65369,-7.98162],[111.65376,-7.98223],[111.65338,-7.98336],[111.65335,-7.98357],[111.65342,-7.98378],[111.65351,-7.98448],[111.65367,-7.98499],[111.65371,-7.98551],[111.65369,-7.98584],[111.65358,-7.98614],[111.65367,-7.98644],[111.65382,-7.98659],[111.65407,-7.98675],[111.65443,-7.98727],[111.65503,-7.988],[111.65496,-7.98807],[111.65516,-7.98829],[111.65579,-7.9888],[111.65637,-7.98956],[111.65686,-7.98998],[111.6564,-7.99023],[111.65558,-7.99081],[111.65586,-7.99147],[111.65606,-7.99212],[111.65626,-7.99358],[111.65621,-7.99485],[111.65631,-7.99635],[111.65598,-7.99768],[111.65553,-7.99912],[111.65504,-7.99982],[111.65456,-8.00042],[111.65447,-8.00061],[111.65435,-8.00108],[111.65436,-8.0016],[111.65446,-8.00192],[111.6546,-8.00219],[111.65508,-8.00284],[111.65534,-8.00327],[111.6556,-8.00388],[111.65574,-8.00436],[111.65575,-8.00455],[111.65566,-8.00502],[111.65559,-8.00585],[111.65571,-8.00644],[111.65554,-8.00683],[111.65562,-8.00722],[111.65562,-8.00761],[111.65592,-8.0084],[111.65589,-8.00881],[111.65566,-8.00936],[111.65561,-8.00931],[111.65565,-8.01131],[111.65532,-8.01204],[111.65497,-8.01353],[111.65496,-8.01426],[111.65505,-8.01507],[111.655,-8.01551],[111.65452,-8.01637],[111.65384,-8.01705],[111.65373,-8.01726],[111.65379,-8.01819],[111.65356,-8.01856],[111.65332,-8.01885],[111.65332,-8.01898],[111.65358,-8.01946],[111.65337,-8.02015],[111.6533,-8.02048],[111.65319,-8.02058],[111.65294,-8.02067],[111.65165,-8.0214],[111.65142,-8.02146],[111.65096,-8.0214],[111.65086,-8.02148],[111.65079,-8.02162],[111.65074,-8.02203],[111.65064,-8.02214],[111.64983,-8.02207],[111.64933,-8.02173],[111.64923,-8.02174],[111.64901,-8.02184],[111.6489,-8.02194],[111.64816,-8.0209],[111.64828,-8.02006],[111.64827,-8.01931],[111.64806,-8.01876],[111.64775,-8.01826],[111.64742,-8.01787],[111.64718,-8.01729],[111.64708,-8.0166],[111.64695,-8.01605],[111.64686,-8.01546],[111.64686,-8.01488],[111.64722,-8.01295],[111.64725,-8.01255],[111.64754,-8.01217],[111.6477,-8.01174],[111.6477,-8.01104],[111.64781,-8.01059],[111.64784,-8.01007],[111.64799,-8.00953],[111.64799,-8.00914],[111.64834,-8.00867],[111.64827,-8.00817],[111.64847,-8.00743],[111.64835,-8.00695],[111.64836,-8.00633],[111.64824,-8.00577],[111.64789,-8.00517],[111.64771,-8.00378],[111.64684,-8.00343],[111.64619,-8.00329],[111.64544,-8.00319],[111.64521,-8.00375],[111.64487,-8.00433],[111.64455,-8.00468],[111.64429,-8.00485],[111.64372,-8.00504],[111.643,-8.00521],[111.6426,-8.00526],[111.64242,-8.00536],[111.64147,-8.00526],[111.64145,-8.00535],[111.64135,-8.00524],[111.64121,-8.00523],[111.63929,-8.00326],[111.63799,-8.00249],[111.63723,-8.00208],[111.63611,-8.00215],[111.63528,-8.00258],[111.6343,-8.00326],[111.63376,-8.00353],[111.63334,-8.00395],[111.63304,-8.00462],[111.63254,-8.00479],[111.63177,-8.00668],[111.63108,-8.00754],[111.6306,-8.00764],[111.62988,-8.00789],[111.62932,-8.00859],[111.62859,-8.00917],[111.62763,-8.00965],[111.62685,-8.01014],[111.62592,-8.01092],[111.62588,-8.01089],[111.62508,-8.00919],[111.62484,-8.00859],[111.62457,-8.00846],[111.62436,-8.00828],[111.62422,-8.00738],[111.62404,-8.00704],[111.62376,-8.00693],[111.62318,-8.0065],[111.62286,-8.00674],[111.62252,-8.00688],[111.62178,-8.00699],[111.62132,-8.00748],[111.6194,-8.00823],[111.61858,-8.00849],[111.61818,-8.00896],[111.61744,-8.0094],[111.61705,-8.0095],[111.61552,-8.00961],[111.61515,-8.00979],[111.61494,-8.01006],[111.61437,-8.01069],[111.61355,-8.01114],[111.61296,-8.0116],[111.61252,-8.01169],[111.61177,-8.01167],[111.61138,-8.01196],[111.61082,-8.01259],[111.61006,-8.01324],[111.6097,-8.01408],[111.60861,-8.01508],[111.60801,-8.0155],[111.60736,-8.01556],[111.60662,-8.01588],[111.60637,-8.01607],[111.60642,-8.01638],[111.60652,-8.01648],[111.6067,-8.01655],[111.60689,-8.01666],[111.60704,-8.01687],[111.60713,-8.01742],[111.60726,-8.0178],[111.60753,-8.01805],[111.60778,-8.01816],[111.60746,-8.01857],[111.60704,-8.0189],[111.60665,-8.01909],[111.60627,-8.01935],[111.60596,-8.01944],[111.60575,-8.01944],[111.60531,-8.01929],[111.60489,-8.01921],[111.60449,-8.01906],[111.60387,-8.01868],[111.60346,-8.01859],[111.60286,-8.01859],[111.60201,-8.01829],[111.60185,-8.01826],[111.60156,-8.01827],[111.60096,-8.01834],[111.6005,-8.01829],[111.6003,-8.01824],[111.59969,-8.01827],[111.59918,-8.01847],[111.59838,-8.0184],[111.59786,-8.0185],[111.59732,-8.01869],[111.59713,-8.01871],[111.59702,-8.01867],[111.59646,-8.01795],[111.59625,-8.01754],[111.59562,-8.01789],[111.59524,-8.01833],[111.59514,-8.01842],[111.59498,-8.01847],[111.59423,-8.01851],[111.5924,-8.01895],[111.59046,-8.01938],[111.58928,-8.02054],[111.58764,-8.02264],[111.58668,-8.02361],[111.58598,-8.02406],[111.58527,-8.02444],[111.58337,-8.02514],[111.58273,-8.02572],[111.58261,-8.0266],[111.58234,-8.02701],[111.58189,-8.02791],[111.58111,-8.02913],[111.58068,-8.03003],[111.58035,-8.03081],[111.57994,-8.03133],[111.57972,-8.03179],[111.57948,-8.03243],[111.57911,-8.0331],[111.57902,-8.03354],[111.57828,-8.03463],[111.57817,-8.03496],[111.57795,-8.03519],[111.57777,-8.03543],[111.57768,-8.03562],[111.57759,-8.03593],[111.57759,-8.0365],[111.57747,-8.0371],[111.57679,-8.03858],[111.57671,-8.03871],[111.57634,-8.03876],[111.57462,-8.03971],[111.57432,-8.04],[111.57412,-8.0405],[111.57409,-8.04211],[111.57375,-8.04283],[111.57366,-8.0431],[111.57359,-8.04369],[111.57384,-8.04466],[111.5735,-8.0463],[111.57352,-8.0468],[111.57345,-8.04763],[111.57339,-8.04782],[111.57327,-8.04795],[111.57268,-8.04823],[111.57189,-8.04837],[111.57092,-8.04834],[111.57026,-8.0484],[111.56979,-8.04867],[111.5696,-8.0487],[111.56911,-8.04872],[111.56851,-8.04892],[111.56828,-8.04891],[111.56761,-8.0488],[111.56716,-8.04869],[111.56577,-8.04796],[111.56542,-8.04795],[111.56486,-8.04799],[111.56468,-8.04806],[111.56463,-8.04815],[111.56457,-8.04852],[111.56426,-8.0492],[111.56408,-8.04944],[111.5637,-8.04957],[111.56308,-8.04968],[111.56286,-8.04967],[111.56263,-8.04957],[111.56239,-8.04932],[111.56164,-8.04916],[111.56147,-8.04904],[111.56098,-8.04889],[111.56052,-8.04931],[111.55964,-8.04938],[111.5594,-8.04944],[111.55869,-8.0497],[111.55746,-8.04988],[111.55738,-8.04978],[111.55685,-8.04979],[111.55671,-8.04998],[111.55664,-8.05],[111.5565,-8.04997],[111.55638,-8.04989],[111.55616,-8.0494],[111.55603,-8.04924],[111.55568,-8.04917],[111.55511,-8.04919],[111.55474,-8.04902],[111.55424,-8.04893],[111.55433,-8.04838],[111.55429,-8.04834],[111.55394,-8.04823],[111.55362,-8.04794],[111.55343,-8.04729],[111.5531,-8.04681],[111.55271,-8.04634],[111.5525,-8.04622],[111.55184,-8.04614],[111.55126,-8.04566],[111.55126,-8.0452],[111.55104,-8.04461],[111.55061,-8.04391],[111.55023,-8.0437],[111.54917,-8.04278],[111.54702,-8.04184],[111.54655,-8.04206],[111.54592,-8.04179],[111.54553,-8.0413],[111.5451,-8.04123],[111.54473,-8.04127],[111.5442,-8.04141],[111.54374,-8.04127],[111.54318,-8.04081],[111.5425,-8.04189],[111.54235,-8.04195],[111.5422,-8.04184],[111.54192,-8.04183],[111.54175,-8.04158],[111.54167,-8.04156],[111.54131,-8.04199],[111.54103,-8.04203],[111.54048,-8.04221],[111.54024,-8.04212],[111.5398,-8.04225],[111.5396,-8.04207],[111.53947,-8.04208],[111.53878,-8.0425],[111.53887,-8.04218],[111.53933,-8.04136],[111.53964,-8.04106],[111.54022,-8.04074],[111.54058,-8.04026],[111.54085,-8.03893],[111.5404,-8.03757],[111.53998,-8.03677],[111.53986,-8.0366],[111.53969,-8.03646],[111.53854,-8.03685],[111.53913,-8.03557],[111.53873,-8.03527],[111.53861,-8.03507],[111.53864,-8.03472],[111.53919,-8.03392],[111.53953,-8.03316],[111.53963,-8.03281],[111.53964,-8.03241],[111.53956,-8.03192],[111.5393,-8.03113],[111.53907,-8.0306],[111.53863,-8.02982],[111.53804,-8.02886],[111.5375,-8.02769],[111.53726,-8.02686],[111.53719,-8.02646],[111.53712,-8.02528],[111.53719,-8.02303],[111.53712,-8.02265],[111.53717,-8.0222],[111.53745,-8.02129],[111.53748,-8.02085],[111.5376,-8.02024],[111.53772,-8.01991],[111.53812,-8.01922],[111.53817,-8.01906],[111.53814,-8.01875],[111.53791,-8.01814],[111.53779,-8.01759],[111.53764,-8.01667],[111.53766,-8.01618],[111.53794,-8.01487],[111.53809,-8.01443],[111.53833,-8.01403],[111.53892,-8.01271],[111.53954,-8.01105],[111.53964,-8.01047],[111.53968,-8.01],[111.53986,-8.00946],[111.54013,-8.00903],[111.54017,-8.00881],[111.54008,-8.00779],[111.53996,-8.00702],[111.53983,-8.00681],[111.53973,-8.00653],[111.53933,-8.00614],[111.53917,-8.00589],[111.53912,-8.00566],[111.53897,-8.00556],[111.53876,-8.00549],[111.53861,-8.00556],[111.5382,-8.00554],[111.53555,-8.00518],[111.53537,-8.00506],[111.53477,-8.00409],[111.53429,-8.00116],[111.5341,-8.00025],[111.53381,-7.99967],[111.5341,-7.99892],[111.53405,-7.99882],[111.53386,-7.99866],[111.53355,-7.99851],[111.53342,-7.99841],[111.53335,-7.99807],[111.53324,-7.99709],[111.53313,-7.99511],[111.53282,-7.99186],[111.53257,-7.9895],[111.53232,-7.98772],[111.53207,-7.98367],[111.53198,-7.98122],[111.53198,-7.98127],[111.53235,-7.98136],[111.53244,-7.98218],[111.53417,-7.98226],[111.53425,-7.98308],[111.53439,-7.98312],[111.53449,-7.98348],[111.53482,-7.98399],[111.53334,-7.98406],[111.53327,-7.98489],[111.53244,-7.98497],[111.53236,-7.98579],[111.53327,-7.98587],[111.53335,-7.9867],[111.53418,-7.98678],[111.53426,-7.9885],[111.53335,-7.98859],[111.53328,-7.98941],[111.53418,-7.98949],[111.53426,-7.99213],[111.536,-7.9922],[111.53608,-7.99303],[111.53963,-7.9931],[111.5397,-7.99129],[111.54054,-7.99122],[111.54061,-7.98858],[111.54144,-7.9885],[111.54151,-7.98768],[111.54061,-7.9876],[111.54053,-7.98677],[111.54235,-7.98669],[111.54242,-7.98587],[111.54151,-7.98579],[111.54144,-7.98454],[111.54156,-7.98402],[111.54325,-7.98397],[111.54333,-7.98315],[111.54415,-7.98307],[111.54423,-7.98225],[111.54506,-7.98216],[111.54514,-7.98044],[111.54596,-7.98035],[111.54605,-7.97957],[111.54577,-7.97944],[111.54583,-7.97867],[111.54576,-7.97789],[111.54528,-7.97702],[111.54509,-7.97687],[111.54509,-7.97678],[111.546,-7.97677],[111.546,-7.97587],[111.54691,-7.97587],[111.5469,-7.97496],[111.546,-7.97497],[111.546,-7.97587],[111.54513,-7.97583],[111.54505,-7.97501],[111.54422,-7.97493],[111.54414,-7.97411],[111.54059,-7.97403],[111.54051,-7.97321],[111.53969,-7.97312],[111.5396,-7.9714],[111.53878,-7.97131],[111.53869,-7.97104],[111.53859,-7.97104],[111.5389,-7.97095],[111.53889,-7.97061],[111.53892,-7.97015],[111.5411,-7.97045],[111.5412,-7.96891],[111.54093,-7.9688],[111.54089,-7.96867],[111.54088,-7.96856],[111.54091,-7.96842],[111.54089,-7.96825],[111.54083,-7.96817],[111.54066,-7.96681],[111.54078,-7.96606],[111.5407,-7.96594],[111.5407,-7.9658],[111.54079,-7.96572],[111.54083,-7.96549],[111.54073,-7.96545],[111.54107,-7.96508],[111.54151,-7.96511],[111.54153,-7.96499],[111.5416,-7.9649],[111.54149,-7.96459],[111.54145,-7.96457],[111.54149,-7.96446],[111.54145,-7.96432],[111.54162,-7.96391],[111.54168,-7.96384],[111.54177,-7.96382],[111.54193,-7.96349],[111.54261,-7.96313],[111.543,-7.96314],[111.54299,-7.96322],[111.54427,-7.96283],[111.54461,-7.96268],[111.54475,-7.96287],[111.54491,-7.96351],[111.54498,-7.96364],[111.54507,-7.96375],[111.54519,-7.96382],[111.54533,-7.96388],[111.54556,-7.96388],[111.54563,-7.96381],[111.54567,-7.96371],[111.54563,-7.96307],[111.54571,-7.96297],[111.54592,-7.96286],[111.54594,-7.96275],[111.54577,-7.96259],[111.54556,-7.96227],[111.54534,-7.96223],[111.54523,-7.96227],[111.54504,-7.96226],[111.54499,-7.96209],[111.54503,-7.96189],[111.5452,-7.96163],[111.54525,-7.96147],[111.54538,-7.9613],[111.54565,-7.96128],[111.54687,-7.9616],[111.54723,-7.96175],[111.5476,-7.96174],[111.54772,-7.96043],[111.54715,-7.96041],[111.54627,-7.96027],[111.54451,-7.96011],[111.54429,-7.96044],[111.54413,-7.96055],[111.54377,-7.96069],[111.54246,-7.96066],[111.54246,-7.9606],[111.54192,-7.96059],[111.54185,-7.96054],[111.54165,-7.96053],[111.5412,-7.96044],[111.5409,-7.96045],[111.54087,-7.95988],[111.54083,-7.95986],[111.54007,-7.95998],[111.53999,-7.95983],[111.53999,-7.95971],[111.53958,-7.95985],[111.53952,-7.95978],[111.53935,-7.95974],[111.53916,-7.95959],[111.53899,-7.95959],[111.53887,-7.95948],[111.53881,-7.95937],[111.53868,-7.95887],[111.53887,-7.95876],[111.53871,-7.95839],[111.5385,-7.95803],[111.53811,-7.95746],[111.53818,-7.95742],[111.53827,-7.9573],[111.53847,-7.95688],[111.53852,-7.95671],[111.53858,-7.95623],[111.53866,-7.95602],[111.53872,-7.95594],[111.53893,-7.95583],[111.53896,-7.95577],[111.53895,-7.95564],[111.53888,-7.95553],[111.53888,-7.95523],[111.53881,-7.95506],[111.53958,-7.95503],[111.53966,-7.95421],[111.54012,-7.95413],[111.54048,-7.95377],[111.54057,-7.9524],[111.54139,-7.95231],[111.54148,-7.95201],[111.54235,-7.9515],[111.54448,-7.95141],[111.54447,-7.95168],[111.54501,-7.95168],[111.5451,-7.95149],[111.54592,-7.9514],[111.54601,-7.9506],[111.5451,-7.9505],[111.54501,-7.9488],[111.54592,-7.94869],[111.54601,-7.94789],[111.54537,-7.94779],[111.54528,-7.94733],[111.5451,-7.94688],[111.54501,-7.94516],[111.54419,-7.94508],[111.5441,-7.94489],[111.54183,-7.94499],[111.54056,-7.94528],[111.54047,-7.94645],[111.54,-7.94688],[111.53877,-7.94698],[111.53865,-7.9466],[111.53839,-7.94689],[111.53784,-7.94698],[111.53775,-7.94734],[111.53768,-7.94743],[111.53757,-7.94698],[111.53603,-7.94689],[111.53594,-7.9478],[111.53421,-7.94789],[111.53413,-7.95052],[111.53331,-7.9506],[111.53322,-7.95142],[111.5324,-7.95151],[111.53232,-7.95413],[111.53322,-7.95422],[111.53331,-7.95504],[111.53341,-7.95513],[111.53338,-7.95594],[111.53412,-7.95603],[111.53422,-7.95512],[111.53599,-7.95508],[111.53604,-7.956],[111.53623,-7.95594],[111.53567,-7.95633],[111.53496,-7.95636],[111.53386,-7.95625],[111.53327,-7.95625],[111.53302,-7.95703],[111.53297,-7.95707],[111.53248,-7.95711],[111.53214,-7.95708],[111.53185,-7.9571],[111.53171,-7.95639],[111.53161,-7.95402],[111.53147,-7.95333],[111.53147,-7.95269],[111.53126,-7.95226],[111.53126,-7.95195],[111.53132,-7.95187],[111.53156,-7.95174],[111.53144,-7.9511],[111.5318,-7.95102],[111.5321,-7.95078],[111.53222,-7.95073],[111.53198,-7.95013],[111.53178,-7.94975],[111.53105,-7.9502],[111.53078,-7.94975],[111.53042,-7.94932],[111.53099,-7.94912],[111.53101,-7.94909],[111.53012,-7.94628],[111.52929,-7.94394],[111.52946,-7.94382],[111.52977,-7.94367],[111.53009,-7.94357],[111.53032,-7.9434],[111.53074,-7.94321],[111.5308,-7.94317],[111.53077,-7.94303],[111.53139,-7.94287],[111.53195,-7.9431],[111.53327,-7.94344],[111.53344,-7.94343],[111.53379,-7.94327],[111.53353,-7.94232],[111.5328,-7.94018],[111.53277,-7.93999],[111.53267,-7.9398],[111.5325,-7.93963],[111.53246,-7.93954],[111.53248,-7.93945],[111.53258,-7.93935],[111.53306,-7.93928],[111.53317,-7.93919],[111.53323,-7.93907],[111.53323,-7.93899],[111.53313,-7.93859],[111.53313,-7.93844],[111.53318,-7.93839],[111.5333,-7.93836],[111.53363,-7.93838],[111.53376,-7.93828],[111.53388,-7.93812],[111.53399,-7.93773],[111.53413,-7.93748],[111.5342,-7.93722],[111.53429,-7.9371],[111.53443,-7.93699],[111.53473,-7.93699],[111.53485,-7.93724],[111.53501,-7.93741],[111.53486,-7.93785],[111.5342,-7.93794],[111.53411,-7.93875],[111.53487,-7.93885],[111.53508,-7.93951],[111.53533,-7.9401],[111.53596,-7.94087],[111.53677,-7.94145],[111.53774,-7.94155],[111.53783,-7.94174],[111.53863,-7.94191],[111.53874,-7.94155],[111.5401,-7.94146],[111.54048,-7.94133],[111.5414,-7.94052],[111.54178,-7.93992],[111.54208,-7.93929],[111.54218,-7.93794],[111.54189,-7.93698],[111.54136,-7.93612],[111.54227,-7.93603],[111.54236,-7.93431],[111.54206,-7.9343],[111.54272,-7.93386],[111.54288,-7.93379],[111.54302,-7.93378],[111.54316,-7.93378],[111.54332,-7.93386],[111.5434,-7.93393],[111.54366,-7.93404],[111.54405,-7.93431],[111.54446,-7.93427],[111.54458,-7.9342],[111.54494,-7.93386],[111.54502,-7.93367],[111.54531,-7.93355],[111.54542,-7.93343],[111.54546,-7.93322],[111.54551,-7.93315],[111.54563,-7.93309],[111.54576,-7.93282],[111.54586,-7.93275],[111.5461,-7.93271],[111.54657,-7.93294],[111.5467,-7.93292],[111.54694,-7.93276],[111.54699,-7.93276],[111.54709,-7.93287],[111.54717,-7.9329],[111.5473,-7.93291],[111.54744,-7.93285],[111.54764,-7.9326],[111.54764,-7.93249],[111.54788,-7.9321],[111.54795,-7.93188],[111.548,-7.93186],[111.5481,-7.93185],[111.54851,-7.932],[111.54881,-7.932],[111.54938,-7.93228],[111.54946,-7.93227],[111.54955,-7.93218],[111.54974,-7.93186],[111.54989,-7.93178],[111.55015,-7.93177],[111.55024,-7.93181],[111.55037,-7.93181],[111.55071,-7.93175],[111.55082,-7.93165],[111.55091,-7.9315],[111.55091,-7.93141],[111.55103,-7.93112],[111.55105,-7.93101],[111.55103,-7.93091],[111.55098,-7.93083],[111.55081,-7.93075],[111.55044,-7.93047],[111.55033,-7.93024],[111.55037,-7.92992],[111.55061,-7.92953],[111.55072,-7.92929],[111.55077,-7.9291],[111.55077,-7.92859],[111.55079,-7.92854],[111.55085,-7.92852],[111.55099,-7.92854],[111.55119,-7.92861],[111.55094,-7.92861],[111.551,-7.92967],[111.55133,-7.92978],[111.55142,-7.92887],[111.55205,-7.92878],[111.55215,-7.92933],[111.55228,-7.92981],[111.55274,-7.93046],[111.55348,-7.93089],[111.55429,-7.93099]],[[111.56202,-7.94962],[111.56407,-7.94958],[111.56415,-7.94875],[111.56498,-7.94867],[111.56505,-7.94784],[111.56588,-7.94777],[111.56596,-7.94513],[111.56769,-7.94505],[111.56777,-7.94153],[111.5674,-7.94143],[111.56733,-7.94078],[111.56712,-7.94013],[111.56657,-7.93951],[111.56599,-7.93918],[111.56528,-7.93904],[111.56442,-7.93921],[111.56379,-7.93963],[111.56323,-7.9397],[111.56315,-7.94044],[111.5631,-7.94057],[111.56232,-7.94053],[111.56223,-7.93963],[111.56142,-7.93971],[111.56133,-7.94053],[111.56051,-7.94062],[111.56043,-7.94144],[111.5596,-7.94152],[111.55952,-7.94343],[111.55907,-7.94415],[111.55689,-7.94424],[111.5568,-7.94506],[111.55507,-7.94515],[111.55499,-7.94597],[111.55417,-7.94605],[111.55408,-7.94642],[111.55345,-7.94714],[111.55319,-7.94777],[111.55314,-7.94837],[111.55326,-7.94959],[111.55367,-7.94971],[111.55409,-7.95021],[111.55418,-7.95134],[111.55507,-7.95167],[111.55581,-7.95189],[111.55592,-7.95238],[111.55772,-7.95229],[111.5578,-7.95147],[111.55953,-7.95139],[111.55962,-7.95012],[111.56043,-7.95027],[111.56056,-7.95057],[111.56135,-7.95048],[111.56143,-7.95002],[111.56192,-7.94974],[111.56202,-7.94962]],[[111.54825,-7.96022],[111.54829,-7.96017],[111.54878,-7.95995],[111.54925,-7.95961],[111.54973,-7.95886],[111.54983,-7.95782],[111.55055,-7.95772],[111.55046,-7.95628],[111.5498,-7.95516],[111.54964,-7.95502],[111.54909,-7.9542],[111.54511,-7.95412],[111.54502,-7.95502],[111.5442,-7.95511],[111.54412,-7.95774],[111.5439,-7.95784],[111.54404,-7.95864],[111.54534,-7.95873],[111.54572,-7.95938],[111.54628,-7.95987],[111.54694,-7.96017],[111.54825,-7.96022]],[[111.63209,-7.96408],[111.63213,-7.96403],[111.63286,-7.96381],[111.63363,-7.96318],[111.63399,-7.96259],[111.63426,-7.96169],[111.6342,-7.96087],[111.63396,-7.96024],[111.63353,-7.95963],[111.63303,-7.9592],[111.6323,-7.95888],[111.63115,-7.95879],[111.63027,-7.95911],[111.62954,-7.95974],[111.62918,-7.96032],[111.62891,-7.96121],[111.62898,-7.96208],[111.62942,-7.96306],[111.6303,-7.96381],[111.63106,-7.96404],[111.63209,-7.96408]],[[111.61703,-7.96853],[111.61709,-7.96847],[111.61853,-7.96791],[111.61862,-7.96677],[111.62033,-7.96668],[111.62043,-7.96758],[111.62125,-7.96767],[111.62134,-7.9663],[111.62166,-7.966],[111.62216,-7.96577],[111.62224,-7.96558],[111.62271,-7.96503],[111.62306,-7.96486],[111.62315,-7.9645],[111.62358,-7.96352],[111.62369,-7.96237],[111.62335,-7.96107],[111.62255,-7.96097],[111.62242,-7.96125],[111.62168,-7.96046],[111.62092,-7.9601],[111.62001,-7.95998],[111.61897,-7.96035],[111.61862,-7.96043],[111.61852,-7.95953],[111.61773,-7.95944],[111.6176,-7.95983],[111.61679,-7.9598],[111.6167,-7.96035],[111.61498,-7.96044],[111.61489,-7.96126],[111.61479,-7.96134],[111.61479,-7.96067],[111.6145,-7.96012],[111.61404,-7.9597],[111.61341,-7.95951],[111.61249,-7.95954],[111.6116,-7.96001],[111.61124,-7.96057],[111.61106,-7.96113],[111.61109,-7.96166],[111.61135,-7.96216],[111.61132,-7.96307],[111.61045,-7.96316],[111.61036,-7.96365],[111.61075,-7.9639],[111.61127,-7.96406],[111.61135,-7.96443],[111.61159,-7.96487],[111.61218,-7.96497],[111.61226,-7.96578],[111.61363,-7.96587],[111.61363,-7.96673],[111.61399,-7.96732],[111.61408,-7.96759],[111.61489,-7.9677],[111.61499,-7.96849],[111.61703,-7.96853]],[[111.54953,-7.9727],[111.54958,-7.97265],[111.55009,-7.97241],[111.55051,-7.97209],[111.5509,-7.97147],[111.55103,-7.97053],[111.55074,-7.96973],[111.55037,-7.9692],[111.54981,-7.96883],[111.549,-7.96859],[111.54814,-7.96881],[111.54746,-7.96934],[111.54708,-7.97013],[111.54713,-7.97125],[111.54758,-7.97209],[111.54844,-7.97265],[111.54953,-7.9727]],[[111.64399,-7.97663],[111.64403,-7.97404],[111.64418,-7.9745],[111.64453,-7.97459],[111.64467,-7.97414],[111.64521,-7.97397],[111.64556,-7.97349],[111.64624,-7.97353],[111.64639,-7.97369],[111.64733,-7.97387],[111.64769,-7.97367],[111.64827,-7.97349],[111.64845,-7.97309],[111.64837,-7.97177],[111.64772,-7.97057],[111.64693,-7.96946],[111.6461,-7.96872],[111.64499,-7.96792],[111.6444,-7.96765],[111.64343,-7.96755],[111.64267,-7.96775],[111.64204,-7.96809],[111.64135,-7.96887],[111.64106,-7.9695],[111.64048,-7.97041],[111.6397,-7.97133],[111.63874,-7.97186],[111.63811,-7.97257],[111.6379,-7.97325],[111.63796,-7.9742],[111.63815,-7.97471],[111.63894,-7.97551],[111.63874,-7.97477],[111.63907,-7.97392],[111.63981,-7.97379],[111.64043,-7.97401],[111.64172,-7.97501],[111.64195,-7.97441],[111.64213,-7.97424],[111.64222,-7.97569],[111.64304,-7.97577],[111.64313,-7.97659],[111.64399,-7.97663]],[[111.61859,-7.98101],[111.61905,-7.98037],[111.61976,-7.98015],[111.61999,-7.98016],[111.62041,-7.97987],[111.62064,-7.97988],[111.62083,-7.97978],[111.621,-7.97941],[111.62137,-7.97944],[111.62174,-7.97923],[111.62171,-7.97881],[111.62094,-7.97792],[111.61992,-7.97746],[111.61856,-7.97754],[111.61764,-7.97804],[111.61722,-7.97851],[111.61689,-7.97902],[111.61693,-7.97966],[111.6169,-7.98016],[111.61692,-7.98047],[111.61741,-7.98062],[111.61794,-7.98059],[111.61818,-7.98097],[111.61859,-7.98101]],[[111.58502,-7.98215],[111.58502,-7.98034],[111.58411,-7.98034],[111.58412,-7.98215],[111.58502,-7.98215]],[[111.62313,-7.97938],[111.62305,-7.97961],[111.6228,-7.97998],[111.62227,-7.97997],[111.62218,-7.98114],[111.62309,-7.98123],[111.62318,-7.98205],[111.6258,-7.98214],[111.6259,-7.98295],[111.62671,-7.98304],[111.62681,-7.98213],[111.62762,-7.98204],[111.62772,-7.98295],[111.62852,-7.98303],[111.62862,-7.98213],[111.63035,-7.98204],[111.63043,-7.98059],[111.63078,-7.98007],[111.63116,-7.97941],[111.63125,-7.97932],[111.63134,-7.97876],[111.63216,-7.97878],[111.63224,-7.9749],[111.63133,-7.9748],[111.63124,-7.97398],[111.63047,-7.97389],[111.63031,-7.97327],[111.63034,-7.97206],[111.63077,-7.97099],[111.63089,-7.97028],[111.63078,-7.96944],[111.63039,-7.96868],[111.62967,-7.968],[111.62899,-7.96768],[111.62785,-7.96757],[111.62704,-7.96785],[111.62639,-7.96829],[111.62587,-7.96894],[111.62559,-7.9698],[111.62561,-7.97084],[111.62605,-7.97191],[111.62616,-7.97296],[111.62589,-7.97309],[111.6258,-7.9739],[111.62498,-7.97399],[111.62489,-7.97481],[111.62407,-7.9749],[111.62399,-7.97653],[111.62365,-7.97752],[111.62226,-7.97762],[111.62218,-7.97933],[111.62313,-7.97938]],[[111.63865,-7.98578],[111.6387,-7.98573],[111.6391,-7.98554],[111.63944,-7.98516],[111.63962,-7.9846],[111.6396,-7.98433],[111.6394,-7.98378],[111.63902,-7.98344],[111.63862,-7.98326],[111.6379,-7.9833],[111.63718,-7.98389],[111.63707,-7.98478],[111.63737,-7.98534],[111.6378,-7.98572],[111.63865,-7.98578]],[[111.58476,-7.9864],[111.5848,-7.98635],[111.58529,-7.9862],[111.58584,-7.98577],[111.58622,-7.98517],[111.58634,-7.9843],[111.58613,-7.98353],[111.58547,-7.98277],[111.58461,-7.98239],[111.58345,-7.98248],[111.58259,-7.98323],[111.58231,-7.98414],[111.58236,-7.98473],[111.58269,-7.98552],[111.58345,-7.98616],[111.58408,-7.98635],[111.58476,-7.9864]],[[111.58837,-7.974],[111.58828,-7.97368],[111.58792,-7.9731],[111.58725,-7.97261],[111.58627,-7.97234],[111.58556,-7.97245],[111.58506,-7.97265],[111.58495,-7.97216],[111.58324,-7.97224],[111.58316,-7.97307],[111.58142,-7.97315],[111.58134,-7.97397],[111.57957,-7.97402],[111.57952,-7.97225],[111.5787,-7.97217],[111.57861,-7.97126],[111.57688,-7.97135],[111.57679,-7.97225],[111.57598,-7.97217],[111.57589,-7.97135],[111.57325,-7.97127],[111.57317,-7.97045],[111.57235,-7.97037],[111.57226,-7.96989],[111.57153,-7.97046],[111.57053,-7.97037],[111.57045,-7.96945],[111.56982,-7.96873],[111.56962,-7.96856],[111.56913,-7.96766],[111.56871,-7.96774],[111.56863,-7.96856],[111.56599,-7.96865],[111.56591,-7.96947],[111.56504,-7.96951],[111.56499,-7.96766],[111.56445,-7.96775],[111.56428,-7.96811],[111.56418,-7.96811],[111.56409,-7.96775],[111.56318,-7.96764],[111.56342,-7.96683],[111.56386,-7.96585],[111.56236,-7.96594],[111.56226,-7.96685],[111.56146,-7.96676],[111.56136,-7.96504],[111.56046,-7.96494],[111.56055,-7.96468],[111.56118,-7.96452],[111.56119,-7.96389],[111.56101,-7.96351],[111.5604,-7.96305],[111.55965,-7.96304],[111.55942,-7.96347],[111.55957,-7.96405],[111.55692,-7.96414],[111.55683,-7.96497],[111.55572,-7.96586],[111.55601,-7.96599],[111.55592,-7.96713],[111.55556,-7.96766],[111.55547,-7.96803],[111.55538,-7.96858],[111.55502,-7.96869],[111.55511,-7.96948],[111.55571,-7.9696],[111.55593,-7.97002],[111.55602,-7.97143],[111.55684,-7.97182],[111.55693,-7.97219],[111.55847,-7.97228],[111.55988,-7.97318],[111.56047,-7.97309],[111.56056,-7.97227],[111.56195,-7.9723],[111.56228,-7.97218],[111.56414,-7.97223],[111.56414,-7.97313],[111.56505,-7.97313],[111.56505,-7.97494],[111.56596,-7.97494],[111.56596,-7.97403],[111.56687,-7.97403],[111.56691,-7.9749],[111.56773,-7.97498],[111.56782,-7.9767],[111.56864,-7.97679],[111.56873,-7.97761],[111.56954,-7.97769],[111.56963,-7.97678],[111.57045,-7.9767],[111.57054,-7.97851],[111.57137,-7.97859],[111.57145,-7.98031],[111.57055,-7.9804],[111.57047,-7.98573],[111.57119,-7.98583],[111.57134,-7.986],[111.57146,-7.98665],[111.57192,-7.98673],[111.57274,-7.98709],[111.5741,-7.98718],[111.57418,-7.98755],[111.575,-7.98763],[111.57509,-7.98673],[111.57591,-7.98664],[111.576,-7.98555],[111.57626,-7.98492],[111.57682,-7.98483],[111.5769,-7.98403],[111.57636,-7.98393],[111.57613,-7.98311],[111.57682,-7.98302],[111.5769,-7.9822],[111.57772,-7.98212],[111.57781,-7.9813],[111.57863,-7.98121],[111.57871,-7.98039],[111.57953,-7.9803],[111.57962,-7.97858],[111.58044,-7.97849],[111.58053,-7.9803],[111.58134,-7.98039],[111.58143,-7.97948],[111.58226,-7.9794],[111.58234,-7.97858],[111.58861,-7.97848],[111.58869,-7.97766],[111.58951,-7.97758],[111.58959,-7.97495],[111.59042,-7.97486],[111.5905,-7.97405],[111.58959,-7.97396],[111.58951,-7.97314],[111.58869,-7.97306],[111.5886,-7.97396],[111.58837,-7.974]],[[111.63857,-7.9893],[111.63851,-7.98898],[111.63771,-7.98854],[111.63762,-7.98926],[111.63857,-7.9893]],[[111.61988,-7.99132],[111.61992,-7.99127],[111.62031,-7.99116],[111.62098,-7.99077],[111.62145,-7.99018],[111.62155,-7.98949],[111.62109,-7.98912],[111.62022,-7.98923],[111.61945,-7.98969],[111.61894,-7.99032],[111.61884,-7.99098],[111.61921,-7.99128],[111.61988,-7.99132]],[[111.61498,-7.99386],[111.61502,-7.993],[111.61585,-7.99292],[111.61593,-7.99029],[111.61675,-7.9902],[111.61683,-7.98939],[111.61593,-7.9893],[111.61584,-7.98849],[111.61675,-7.98839],[111.61683,-7.98758],[111.61592,-7.98749],[111.61584,-7.98576],[111.61501,-7.98568],[111.61493,-7.98357],[111.61464,-7.98307],[111.6141,-7.98297],[111.61401,-7.98257],[111.61343,-7.98215],[111.61229,-7.98207],[111.61219,-7.98156],[111.61138,-7.98132],[111.61129,-7.98207],[111.60866,-7.98216],[111.60857,-7.98298],[111.60775,-7.98306],[111.60767,-7.98388],[111.60684,-7.98397],[111.60676,-7.98479],[111.60594,-7.98487],[111.60585,-7.98537],[111.60503,-7.98588],[111.60495,-7.98487],[111.60413,-7.98479],[111.60404,-7.9857],[111.60322,-7.98578],[111.60314,-7.98839],[111.60359,-7.98849],[111.60368,-7.98899],[111.60232,-7.98913],[111.60223,-7.98931],[111.60314,-7.9894],[111.60323,-7.99203],[111.60405,-7.99211],[111.60414,-7.99293],[111.60677,-7.99301],[111.60686,-7.99383],[111.60767,-7.99392],[111.60777,-7.99301],[111.60949,-7.99292],[111.60958,-7.99383],[111.61312,-7.99391],[111.61321,-7.99301],[111.6123,-7.99292],[111.61222,-7.99183],[111.61312,-7.99133],[111.61321,-7.99201],[111.61403,-7.9921],[111.61412,-7.99382],[111.61498,-7.99386]],[[111.63586,-7.99474],[111.6359,-7.99388],[111.6378,-7.99378],[111.63855,-7.99332],[111.63891,-7.99276],[111.6391,-7.99215],[111.63906,-7.99129],[111.63859,-7.99041],[111.63771,-7.98984],[111.6368,-7.98972],[111.6367,-7.98856],[111.63535,-7.98881],[111.63446,-7.98891],[111.63408,-7.9889],[111.63399,-7.98927],[111.63317,-7.98936],[111.63309,-7.99198],[111.63227,-7.99207],[111.63218,-7.99288],[111.63309,-7.99297],[111.63317,-7.99325],[111.63403,-7.99365],[111.63586,-7.99474]],[[111.57118,-8.00767],[111.57122,-8.00763],[111.57181,-8.00743],[111.57231,-8.00708],[111.5724,-8.00745],[111.57503,-8.00753],[111.57512,-8.00572],[111.57594,-8.00564],[111.57602,-8.00483],[111.57512,-8.00473],[111.57503,-8.00348],[111.57563,-8.00394],[111.57631,-8.00415],[111.57707,-8.00399],[111.57753,-8.00374],[111.57818,-8.00301],[111.57846,-8.0021],[111.57865,-8.00201],[111.57874,-8.00292],[111.57956,-8.003],[111.57965,-8.00029],[111.58069,-8.0002],[111.58135,-7.99916],[111.58146,-7.99849],[111.58051,-7.99839],[111.58097,-7.99735],[111.58091,-7.99634],[111.58045,-7.9955],[111.57974,-7.99499],[111.57877,-7.99487],[111.5779,-7.99518],[111.57721,-7.99595],[111.57702,-7.99659],[111.57692,-7.99667],[111.57684,-7.99749],[111.57583,-7.99758],[111.57575,-7.9984],[111.57511,-7.99849],[111.57503,-8.00104],[111.57522,-8.00121],[111.57481,-8.00201],[111.57421,-8.00211],[111.57412,-8.0012],[111.5724,-8.00112],[111.57231,-8.00202],[111.57148,-8.00211],[111.5714,-8.00293],[111.57058,-8.00301],[111.57049,-8.00347],[111.56998,-8.00367],[111.56945,-8.00396],[111.56889,-8.00483],[111.56877,-8.00569],[111.56899,-8.00649],[111.56945,-8.00714],[111.57026,-8.00761],[111.57118,-8.00767]],[[111.54896,-8.01657],[111.549,-8.01652],[111.54957,-8.0163],[111.54998,-8.01601],[111.5504,-8.01555],[111.55071,-8.01454],[111.55052,-8.01384],[111.55032,-8.01346],[111.54994,-8.01313],[111.54926,-8.01287],[111.54847,-8.01292],[111.54759,-8.0134],[111.54705,-8.01425],[111.54692,-8.01504],[111.54724,-8.01595],[111.54801,-8.0165],[111.54896,-8.01657]],[[111.57964,-8.02467],[111.58141,-8.02462],[111.5815,-8.0238],[111.58235,-8.02371],[111.58231,-8.02281],[111.58241,-8.02085],[111.5823,-8.02034],[111.58238,-8.01838],[111.58005,-8.01829],[111.57968,-8.01795],[111.57957,-8.01739],[111.57832,-8.01752],[111.57788,-8.01773],[111.57752,-8.01807],[111.57736,-8.01834],[111.576,-8.01834],[111.576,-8.01744],[111.57509,-8.01744],[111.57509,-8.01834],[111.576,-8.01834],[111.57596,-8.0192],[111.57514,-8.01929],[111.57505,-8.02011],[111.57423,-8.02019],[111.57415,-8.02101],[111.57506,-8.0211],[111.57514,-8.02161],[111.5749,-8.02249],[111.57506,-8.02291],[111.57515,-8.02382],[111.57561,-8.02463],[111.57746,-8.02467],[111.5775,-8.02473],[111.57778,-8.02482],[111.57786,-8.02554],[111.5796,-8.02561],[111.57964,-8.02467]],[[111.56695,-8.03825],[111.567,-8.03739],[111.56963,-8.0373],[111.56972,-8.03648],[111.57054,-8.0364],[111.57062,-8.03383],[111.56911,-8.03107],[111.56881,-8.03097],[111.56872,-8.03188],[111.56854,-8.03196],[111.56763,-8.03115],[111.56732,-8.03096],[111.56673,-8.03077],[111.56608,-8.03079],[111.56599,-8.03016],[111.56517,-8.03007],[111.56508,-8.02997],[111.56427,-8.03001],[111.56418,-8.02926],[111.56336,-8.02917],[111.56327,-8.03007],[111.56269,-8.03016],[111.56238,-8.02968],[111.5617,-8.02906],[111.56122,-8.02884],[111.56033,-8.02872],[111.55956,-8.02892],[111.55886,-8.02935],[111.55843,-8.02994],[111.55822,-8.03039],[111.5581,-8.0312],[111.55833,-8.03206],[111.55881,-8.03275],[111.55966,-8.03325],[111.56055,-8.03342],[111.56064,-8.03434],[111.56236,-8.03417],[111.56246,-8.0355],[111.56265,-8.03559],[111.56262,-8.0364],[111.56328,-8.03649],[111.56337,-8.03731],[111.566,-8.03739],[111.56609,-8.03821],[111.56695,-8.03825]]],[[[111.5321,-7.96684],[111.53208,-7.9668],[111.53238,-7.96683],[111.53176,-7.96705],[111.53132,-7.96742],[111.53108,-7.9677],[111.5306,-7.96779],[111.53052,-7.96861],[111.5278,-7.9687],[111.52789,-7.96952],[111.52871,-7.9696],[111.52875,-7.97084],[111.52307,-7.97103],[111.523,-7.97043],[111.52301,-7.97019],[111.52296,-7.96966],[111.52291,-7.96807],[111.52182,-7.96818],[111.52158,-7.96831],[111.52148,-7.96669],[111.52144,-7.96664],[111.52134,-7.96662],[111.52131,-7.96658],[111.52127,-7.96611],[111.51877,-7.96601],[111.5188,-7.96352],[111.52011,-7.96337],[111.52025,-7.96334],[111.52053,-7.9632],[111.52129,-7.96315],[111.52245,-7.9633],[111.52346,-7.96335],[111.52501,-7.96351],[111.52578,-7.96365],[111.527,-7.96378],[111.52722,-7.96388],[111.52728,-7.96428],[111.52739,-7.96434],[111.52763,-7.96457],[111.52782,-7.96463],[111.52829,-7.96459],[111.52842,-7.96464],[111.52861,-7.96482],[111.52881,-7.96481],[111.52903,-7.96485],[111.52913,-7.96481],[111.52926,-7.96454],[111.52939,-7.96451],[111.5296,-7.9647],[111.52967,-7.96491],[111.5301,-7.96491],[111.53025,-7.96515],[111.53016,-7.96508],[111.5297,-7.965],[111.52961,-7.9659],[111.53081,-7.96594],[111.53082,-7.9664],[111.53089,-7.96641],[111.5309,-7.96636],[111.53101,-7.96638],[111.53053,-7.96681],[111.5321,-7.96684]]],[[[111.53198,-7.98045],[111.53198,-7.97973],[111.53107,-7.97973],[111.52943,-7.97961],[111.52939,-7.97748],[111.52951,-7.9723],[111.52962,-7.97231],[111.5297,-7.97314],[111.53061,-7.97323],[111.53053,-7.97404],[111.52962,-7.97413],[111.52971,-7.97497],[111.53004,-7.97526],[111.53053,-7.97586],[111.53062,-7.97494],[111.53152,-7.97503],[111.53144,-7.97675],[111.53105,-7.97684],[111.53125,-7.97759],[111.53117,-7.97766],[111.53053,-7.97775],[111.53063,-7.97863],[111.53153,-7.97855],[111.53181,-7.979],[111.53244,-7.97984],[111.53235,-7.98037],[111.53198,-7.98045]]],[[[111.53829,-7.97107],[111.53823,-7.97099],[111.53835,-7.97106],[111.53829,-7.97107]]],[[[111.53787,-7.97049],[111.53688,-7.97041],[111.53696,-7.96959],[111.5372,-7.96957],[111.53732,-7.9698],[111.53769,-7.97013],[111.53787,-7.97049]]],[[[111.53359,-7.96689],[111.53281,-7.96683],[111.53345,-7.96681],[111.53351,-7.96682],[111.53359,-7.96689]]],[[[111.53403,-7.96682],[111.53408,-7.96678],[111.53422,-7.96677],[111.53403,-7.96682]]],[[[111.53505,-7.96681],[111.53475,-7.96679],[111.53506,-7.9668],[111.53505,-7.96681]]],[[[111.53192,-7.9666],[111.53189,-7.96651],[111.53192,-7.96659],[111.53192,-7.9666]]],[[[111.53079,-7.96559],[111.53073,-7.96511],[111.53064,-7.965],[111.53077,-7.96489],[111.53079,-7.96559]]],[[[111.5305,-7.96532],[111.53048,-7.96531],[111.53051,-7.9653],[111.5305,-7.96532]]],[[[111.53058,-7.96512],[111.53058,-7.96503],[111.53063,-7.96501],[111.53058,-7.96512]]],[[[111.53671,-7.95578],[111.53684,-7.95573],[111.53689,-7.95544],[111.53692,-7.9557],[111.5368,-7.95577],[111.53671,-7.95578]]],[[[111.53759,-7.95514],[111.53694,-7.95514],[111.53759,-7.9551],[111.53759,-7.95514]]],[[[111.55166,-7.92878],[111.55162,-7.92876],[111.5517,-7.92869],[111.55166,-7.92878]]],[[[111.55165,-7.92835],[111.55147,-7.92818],[111.55143,-7.92804],[111.55165,-7.92835]]],[[[111.55143,-7.92803],[111.55146,-7.92794],[111.55154,-7.92785],[111.55164,-7.92781],[111.55177,-7.92788],[111.55161,-7.92787],[111.55143,-7.92803]]],[[[111.55204,-7.9279],[111.55197,-7.92789],[111.55206,-7.92763],[111.55204,-7.9279]]],[[[111.55179,-7.92685],[111.55177,-7.92678],[111.55178,-7.92673],[111.55179,-7.92685]]],[[[111.55179,-7.92661],[111.55192,-7.9264],[111.55218,-7.92617],[111.55248,-7.92619],[111.55282,-7.92628],[111.5523,-7.92619],[111.55179,-7.92661]]],[[[111.55334,-7.92637],[111.55314,-7.92634],[111.55344,-7.92635],[111.55334,-7.92637]]],[[[111.55488,-7.92625],[111.55464,-7.92611],[111.55473,-7.92613],[111.55488,-7.92625]]],[[[111.55389,-7.92624],[111.55427,-7.92613],[111.55433,-7.92613],[111.55389,-7.92624]]]]}}]}