{"type":"FeatureCollection","features":[{"type":"Feature","properties":{"REMARK":"Tegalan/Ladang"},"geometry":{"type":"Polygon","coordinates":[[[111.57216,-7.92422],[111.57102,-7.92495],[111.56969,-7.9252],[111.56909,-7.92527],[111.56858,-7.92527],[111.56779,-7.92523],[111.56735,-7.92528],[111.56691,-7.92538],[111.56604,-7.9257],[111.56414,-7.92671],[111.56353,-7.92683],[111.563,-7.92681],[111.56241,-7.92667],[111.56143,-7.92653],[111.56105,-7.92662],[111.56069,-7.92679],[111.55968,-7.9275],[111.55932,-7.9276],[111.559,-7.92782],[111.55861,-7.92722],[111.55844,-7.92709],[111.55826,-7.92703],[111.55807,-7.92703],[111.55766,-7.92717],[111.5572,-7.92744],[111.55706,-7.92743],[111.55617,-7.9271],[111.55638,-7.92686],[111.55663,-7.92644],[111.55715,-7.92597],[111.55744,-7.92577],[111.55811,-7.92574],[111.55832,-7.92567],[111.5584,-7.92563],[111.55848,-7.92553],[111.55852,-7.92542],[111.55879,-7.92514],[111.55892,-7.92508],[111.55928,-7.92511],[111.56072,-7.92578],[111.56102,-7.92578],[111.56118,-7.92574],[111.56143,-7.92554],[111.56163,-7.92531],[111.56181,-7.92526],[111.56227,-7.92537],[111.56248,-7.92538],[111.56373,-7.92467],[111.56416,-7.92418],[111.56426,-7.92412],[111.56485,-7.92425],[111.56498,-7.92421],[111.56507,-7.92409],[111.56508,-7.92393],[111.56503,-7.92386],[111.56506,-7.9238],[111.56524,-7.92379],[111.56544,-7.92384],[111.56582,-7.92375],[111.56608,-7.92373],[111.56617,-7.92369],[111.56624,-7.92358],[111.56639,-7.92351],[111.56648,-7.92352],[111.56658,-7.92359],[111.56663,-7.92367],[111.56671,-7.92396],[111.56687,-7.92409],[111.56731,-7.92422],[111.56751,-7.92413],[111.56761,-7.92413],[111.56812,-7.9244],[111.56796,-7.92409],[111.56771,-7.92389],[111.5677,-7.92378],[111.56773,-7.92371],[111.56782,-7.92361],[111.56825,-7.92332],[111.56851,-7.92281],[111.56866,-7.92265],[111.5689,-7.92246],[111.56988,-7.92188],[111.57031,-7.92177],[111.57053,-7.92152],[111.57058,-7.92139],[111.57095,-7.92101],[111.57099,-7.92078],[111.57096,-7.9207],[111.57056,-7.92008],[111.57048,-7.91988],[111.57066,-7.91955],[111.57073,-7.91915],[111.57085,-7.91934],[111.57099,-7.91984],[111.57115,-7.92084],[111.57137,-7.92126],[111.57145,-7.92161],[111.57155,-7.92265],[111.5716,-7.92287],[111.57177,-7.92313],[111.57263,-7.92376],[111.57216,-7.92422]]]}},{"type":"Feature","properties":{"REMARK":"Tegalan/Ladang"},"geometry":{"type":"Polygon","coordinates":[[[111.59245,-7.93163],[111.59245,-7.93167],[111.59158,-7.9315],[111.59139,-7.9315],[111.59139,-7.93144],[111.59245,-7.93163]]]}},{"type":"Feature","properties":{"REMARK":"Tegalan/Ladang"},"geometry":{"type":"Polygon","coordinates":[[[111.56031,-7.92904],[111.56092,-7.92905],[111.56107,-7.92911],[111.56115,-7.92921],[111.56117,-7.92985],[111.56125,-7.93],[111.56141,-7.93016],[111.56194,-7.93045],[111.5623,-7.93056],[111.56249,-7.93058],[111.5626,-7.93052],[111.56285,-7.93008],[111.56292,-7.93001],[111.56312,-7.92996],[111.56378,-7.93015],[111.56389,-7.93014],[111.56404,-7.92999],[111.56426,-7.92941],[111.56433,-7.92933],[111.56442,-7.92933],[111.56461,-7.92978],[111.56471,-7.92985],[111.5648,-7.92984],[111.56504,-7.92906],[111.56519,-7.9289],[111.56529,-7.92885],[111.56588,-7.9294],[111.56601,-7.92943],[111.56613,-7.92938],[111.56651,-7.92863],[111.56669,-7.92879],[111.56688,-7.92875],[111.56706,-7.92878],[111.56723,-7.92887],[111.56749,-7.92918],[111.56768,-7.92958],[111.56787,-7.92985],[111.5684,-7.9303],[111.56875,-7.93084],[111.5684,-7.93102],[111.56362,-7.9323],[111.56332,-7.93235],[111.56159,-7.93219],[111.56118,-7.93218],[111.56023,-7.93236],[111.55985,-7.93246],[111.55968,-7.93255],[111.55952,-7.93271],[111.55945,-7.93286],[111.55946,-7.93301],[111.55966,-7.93329],[111.55994,-7.93358],[111.56024,-7.93399],[111.56051,-7.93461],[111.56059,-7.93472],[111.56015,-7.93486],[111.55976,-7.93503],[111.55931,-7.9353],[111.55898,-7.93546],[111.55869,-7.93554],[111.55685,-7.93566],[111.55665,-7.935],[111.55528,-7.93526],[111.55497,-7.93537],[111.5551,-7.93583],[111.55387,-7.93598],[111.55381,-7.93598],[111.55369,-7.9356],[111.55269,-7.9356],[111.5527,-7.936],[111.55196,-7.93596],[111.55193,-7.93554],[111.55059,-7.93551],[111.54925,-7.93564],[111.54791,-7.93595],[111.5471,-7.93605],[111.54637,-7.93618],[111.54522,-7.93673],[111.54421,-7.93706],[111.54429,-7.93731],[111.54339,-7.93774],[111.54365,-7.93825],[111.54208,-7.93913],[111.54168,-7.93934],[111.54165,-7.93928],[111.54136,-7.93831],[111.54251,-7.93784],[111.54232,-7.93699],[111.54558,-7.93555],[111.54609,-7.93525],[111.54695,-7.93491],[111.5499,-7.93413],[111.55068,-7.93418],[111.55136,-7.9343],[111.55215,-7.93451],[111.5521,-7.93407],[111.55194,-7.93375],[111.55066,-7.93365],[111.55016,-7.93368],[111.55013,-7.93353],[111.54982,-7.93343],[111.54965,-7.93316],[111.54824,-7.93347],[111.54585,-7.9339],[111.54592,-7.9342],[111.54471,-7.93467],[111.54344,-7.93507],[111.5421,-7.93557],[111.54116,-7.93599],[111.54067,-7.93616],[111.5404,-7.93598],[111.54062,-7.93589],[111.54065,-7.93582],[111.54073,-7.93581],[111.54086,-7.93574],[111.5409,-7.93567],[111.54092,-7.93529],[111.54108,-7.93514],[111.54118,-7.93511],[111.5415,-7.93533],[111.54162,-7.93535],[111.54173,-7.93531],[111.54176,-7.93523],[111.54195,-7.93507],[111.54198,-7.93498],[111.54194,-7.93482],[111.54199,-7.93469],[111.54218,-7.9344],[111.54242,-7.9342],[111.54267,-7.93407],[111.54292,-7.934],[111.54318,-7.93398],[111.54405,-7.93431],[111.54446,-7.93427],[111.54485,-7.93395],[111.54514,-7.93362],[111.54531,-7.93355],[111.54542,-7.93343],[111.54545,-7.93327],[111.54567,-7.93306],[111.54585,-7.93295],[111.54602,-7.93292],[111.54643,-7.93305],[111.54732,-7.93303],[111.54752,-7.93291],[111.54793,-7.93214],[111.54813,-7.93206],[111.54832,-7.93205],[111.54908,-7.93232],[111.5493,-7.93236],[111.5498,-7.93305],[111.54999,-7.93326],[111.55013,-7.93331],[111.55042,-7.9333],[111.55119,-7.93314],[111.5514,-7.93315],[111.55168,-7.93328],[111.55249,-7.93413],[111.5528,-7.93438],[111.55312,-7.93455],[111.55328,-7.93459],[111.55381,-7.93442],[111.55436,-7.93464],[111.55453,-7.93467],[111.55526,-7.9344],[111.556,-7.93441],[111.5575,-7.93408],[111.55725,-7.9333],[111.5569,-7.93198],[111.55676,-7.93093],[111.55673,-7.9305],[111.55674,-7.93011],[111.55698,-7.9301],[111.55757,-7.93019],[111.55861,-7.93056],[111.55931,-7.93067],[111.55959,-7.93068],[111.55977,-7.93063],[111.56,-7.93048],[111.5603,-7.92998],[111.56011,-7.92947],[111.55958,-7.92881],[111.55941,-7.92853],[111.55933,-7.92821],[111.55937,-7.92808],[111.5599,-7.92875],[111.56009,-7.92894],[111.56031,-7.92904]]]}},{"type":"Feature","properties":{"REMARK":"Tegalan/Ladang"},"geometry":{"type":"Polygon","coordinates":[[[111.58752,-7.93157],[111.58783,-7.9316],[111.58994,-7.93154],[111.59025,-7.93245],[111.59019,-7.93324],[111.59007,-7.93369],[111.58998,-7.93392],[111.58987,-7.93406],[111.58963,-7.93419],[111.58937,-7.93425],[111.58911,-7.93424],[111.58875,-7.93408],[111.58728,-7.93316],[111.5869,-7.93296],[111.58594,-7.93255],[111.58556,-7.93235],[111.58518,-7.93206],[111.58516,-7.93178],[111.5853,-7.93127],[111.58561,-7.93051],[111.58699,-7.9313],[111.58752,-7.93157]]]}},{"type":"Feature","properties":{"REMARK":"Tegalan/Ladang"},"geometry":{"type":"MultiPolygon","coordinates":[[[[111.54489,-7.95998],[111.54548,-7.9602],[111.54477,-7.96013],[111.54489,-7.95998]]],[[[111.58466,-7.93494],[111.58557,-7.93561],[111.58557,-7.93603],[111.58508,-7.93654],[111.58497,-7.93675],[111.58601,-7.93714],[111.58555,-7.93838],[111.58663,-7.93839],[111.58717,-7.93924],[111.5875,-7.93993],[111.58829,-7.94088],[111.58846,-7.94116],[111.58855,-7.94138],[111.58851,-7.94228],[111.58832,-7.9437],[111.58834,-7.94391],[111.58841,-7.9441],[111.58839,-7.94422],[111.58768,-7.94472],[111.58755,-7.9449],[111.58736,-7.94529],[111.58731,-7.94531],[111.58664,-7.94505],[111.58562,-7.94462],[111.5852,-7.94432],[111.5851,-7.9442],[111.58512,-7.94409],[111.58555,-7.94352],[111.58562,-7.94326],[111.58558,-7.94296],[111.58545,-7.94285],[111.58517,-7.94273],[111.58422,-7.9426],[111.58357,-7.94247],[111.58276,-7.94221],[111.58251,-7.94208],[111.58098,-7.94096],[111.58056,-7.94054],[111.58039,-7.94011],[111.58038,-7.93984],[111.58061,-7.93901],[111.58107,-7.93786],[111.5814,-7.9372],[111.58158,-7.9367],[111.58161,-7.9365],[111.58135,-7.93538],[111.58117,-7.93514],[111.58094,-7.93571],[111.58003,-7.93656],[111.57975,-7.93678],[111.57954,-7.9369],[111.57851,-7.93701],[111.5783,-7.93708],[111.57806,-7.9373],[111.57788,-7.93758],[111.57768,-7.93823],[111.57758,-7.93827],[111.57696,-7.93801],[111.57655,-7.93776],[111.57609,-7.93789],[111.57593,-7.93832],[111.57541,-7.93878],[111.57526,-7.93905],[111.57537,-7.94032],[111.57534,-7.94052],[111.57525,-7.94068],[111.57513,-7.94077],[111.57465,-7.94102],[111.57319,-7.94142],[111.57309,-7.94155],[111.57282,-7.94215],[111.57267,-7.94235],[111.57176,-7.94253],[111.57105,-7.94259],[111.57011,-7.94277],[111.56983,-7.94313],[111.5694,-7.94385],[111.56906,-7.94491],[111.56894,-7.94507],[111.56858,-7.9453],[111.56831,-7.94543],[111.56766,-7.94594],[111.56734,-7.94661],[111.56722,-7.94679],[111.56692,-7.94708],[111.56666,-7.94719],[111.56594,-7.94739],[111.56532,-7.9476],[111.56513,-7.94774],[111.5647,-7.94824],[111.56373,-7.94824],[111.56371,-7.94861],[111.56398,-7.94866],[111.56403,-7.94914],[111.5647,-7.94907],[111.56458,-7.95018],[111.56453,-7.95151],[111.56446,-7.95188],[111.56441,-7.952],[111.56397,-7.95216],[111.56253,-7.95255],[111.56303,-7.95341],[111.56318,-7.95373],[111.56343,-7.95428],[111.56381,-7.9553],[111.56423,-7.95616],[111.56474,-7.95687],[111.56502,-7.95746],[111.56523,-7.95805],[111.56499,-7.95815],[111.56425,-7.95829],[111.56423,-7.95863],[111.56377,-7.95973],[111.56367,-7.95984],[111.56356,-7.95971],[111.56261,-7.95891],[111.56207,-7.95856],[111.56183,-7.95843],[111.56162,-7.95839],[111.56144,-7.95842],[111.56121,-7.95857],[111.56109,-7.95871],[111.56095,-7.95925],[111.56079,-7.96056],[111.56059,-7.96142],[111.55854,-7.96048],[111.5581,-7.96031],[111.55729,-7.95993],[111.557,-7.95983],[111.55709,-7.95911],[111.55656,-7.95932],[111.5561,-7.95941],[111.55609,-7.95917],[111.55447,-7.95904],[111.55334,-7.95925],[111.55127,-7.95876],[111.5511,-7.95914],[111.55056,-7.95902],[111.55021,-7.95972],[111.5505,-7.95979],[111.55077,-7.95954],[111.5525,-7.96002],[111.55282,-7.95959],[111.5539,-7.95994],[111.55478,-7.96027],[111.55561,-7.96065],[111.55553,-7.96119],[111.55619,-7.96152],[111.55618,-7.96191],[111.55484,-7.96209],[111.55281,-7.96225],[111.55255,-7.96248],[111.55165,-7.96233],[111.55036,-7.96197],[111.54952,-7.96184],[111.54847,-7.9618],[111.54786,-7.96169],[111.54761,-7.9616],[111.54772,-7.96043],[111.54715,-7.96041],[111.54613,-7.96026],[111.54639,-7.95915],[111.54578,-7.95875],[111.54611,-7.95813],[111.54637,-7.95874],[111.5496,-7.95927],[111.54975,-7.9588],[111.55025,-7.95894],[111.55033,-7.95888],[111.55058,-7.95789],[111.5504,-7.95777],[111.54945,-7.95725],[111.54881,-7.95709],[111.54878,-7.95551],[111.5493,-7.95563],[111.55051,-7.95575],[111.55214,-7.95561],[111.55223,-7.95513],[111.55179,-7.95505],[111.55189,-7.95434],[111.55251,-7.95431],[111.55252,-7.95303],[111.55179,-7.95298],[111.55177,-7.95333],[111.55143,-7.95328],[111.55054,-7.95309],[111.5504,-7.95308],[111.54993,-7.95314],[111.5499,-7.95303],[111.55017,-7.95254],[111.55049,-7.95265],[111.55081,-7.95226],[111.55146,-7.9512],[111.55219,-7.9512],[111.55289,-7.95113],[111.55291,-7.95071],[111.55344,-7.95053],[111.5536,-7.95051],[111.55393,-7.95083],[111.55379,-7.95112],[111.5542,-7.95143],[111.55438,-7.95124],[111.55463,-7.95147],[111.5554,-7.95189],[111.55562,-7.95205],[111.55583,-7.95233],[111.55639,-7.95245],[111.55663,-7.95213],[111.55697,-7.95136],[111.55723,-7.95139],[111.559,-7.94982],[111.55918,-7.94996],[111.55984,-7.94986],[111.55988,-7.95043],[111.5598,-7.95067],[111.55965,-7.95089],[111.55921,-7.95098],[111.55909,-7.9516],[111.56,-7.9515],[111.56059,-7.95129],[111.56063,-7.95104],[111.56073,-7.951],[111.56091,-7.95033],[111.56142,-7.95025],[111.56155,-7.94974],[111.56204,-7.94968],[111.56204,-7.94897],[111.56223,-7.94895],[111.56299,-7.94909],[111.56295,-7.94826],[111.56308,-7.94736],[111.56566,-7.94657],[111.5657,-7.94635],[111.56648,-7.94621],[111.56649,-7.94557],[111.56595,-7.94554],[111.5659,-7.94576],[111.56535,-7.94582],[111.56403,-7.94604],[111.56351,-7.94606],[111.56294,-7.94599],[111.56257,-7.94638],[111.56185,-7.94646],[111.56178,-7.9462],[111.56144,-7.94563],[111.56101,-7.94534],[111.56088,-7.94512],[111.56085,-7.94481],[111.56089,-7.94476],[111.56107,-7.94467],[111.56173,-7.94457],[111.5618,-7.94504],[111.56198,-7.94509],[111.56239,-7.94481],[111.56229,-7.94474],[111.56219,-7.94449],[111.56266,-7.94439],[111.5628,-7.94464],[111.5634,-7.94472],[111.56396,-7.94471],[111.56401,-7.94482],[111.56559,-7.94439],[111.56582,-7.94419],[111.56559,-7.94398],[111.56592,-7.94381],[111.56637,-7.94306],[111.56654,-7.94286],[111.56725,-7.94227],[111.56747,-7.94192],[111.56758,-7.94162],[111.56769,-7.94116],[111.56781,-7.94093],[111.56794,-7.94079],[111.56821,-7.9406],[111.56856,-7.94055],[111.56914,-7.9406],[111.56944,-7.94059],[111.56977,-7.94043],[111.57003,-7.94047],[111.57085,-7.93948],[111.57164,-7.93873],[111.57156,-7.93854],[111.57231,-7.93877],[111.57317,-7.93878],[111.57435,-7.93835],[111.57468,-7.93799],[111.57504,-7.93751],[111.57563,-7.937],[111.57527,-7.93675],[111.57619,-7.93624],[111.5764,-7.93601],[111.57652,-7.9358],[111.57667,-7.93511],[111.57767,-7.93553],[111.57794,-7.93558],[111.57812,-7.93556],[111.57829,-7.93547],[111.57851,-7.9351],[111.57848,-7.93455],[111.57857,-7.93439],[111.57886,-7.93423],[111.57941,-7.93411],[111.57951,-7.93404],[111.58019,-7.93245],[111.58037,-7.93212],[111.58053,-7.93196],[111.58154,-7.93142],[111.58171,-7.9314],[111.58211,-7.93167],[111.58227,-7.93194],[111.5825,-7.93271],[111.58268,-7.93296],[111.58308,-7.93334],[111.58372,-7.93363],[111.58394,-7.9337],[111.58373,-7.93431],[111.58466,-7.93494]],[[111.56273,-7.95017],[111.56285,-7.95103],[111.56425,-7.95088],[111.56429,-7.95008],[111.56273,-7.95017]],[[111.56018,-7.9524],[111.55929,-7.95258],[111.55838,-7.95293],[111.55888,-7.9542],[111.56053,-7.95365],[111.56047,-7.95317],[111.56155,-7.95287],[111.56128,-7.95192],[111.56097,-7.9521],[111.56018,-7.9524]],[[111.55587,-7.9539],[111.55584,-7.95325],[111.55568,-7.95329],[111.55386,-7.95342],[111.55288,-7.95368],[111.55286,-7.95377],[111.55292,-7.95425],[111.55302,-7.95457],[111.55382,-7.95535],[111.55415,-7.95596],[111.55439,-7.95655],[111.55489,-7.9566],[111.55495,-7.95676],[111.55485,-7.95739],[111.55488,-7.95748],[111.55498,-7.95756],[111.5559,-7.95758],[111.55676,-7.9577],[111.55692,-7.9577],[111.55682,-7.95727],[111.55644,-7.95622],[111.55634,-7.95586],[111.55627,-7.95466],[111.55587,-7.9539]]]]}},{"type":"Feature","properties":{"REMARK":"Tegalan/Ladang"},"geometry":{"type":"Polygon","coordinates":[[[111.56883,-7.93657],[111.56794,-7.93696],[111.56788,-7.9367],[111.56774,-7.93584],[111.56774,-7.93542],[111.56752,-7.93503],[111.5688,-7.93497],[111.56919,-7.93491],[111.57045,-7.93449],[111.57162,-7.93405],[111.57185,-7.93404],[111.57207,-7.93414],[111.57222,-7.93429],[111.57221,-7.93483],[111.57202,-7.93503],[111.57168,-7.93525],[111.57063,-7.93577],[111.56928,-7.93633],[111.56883,-7.93657]]]}},{"type":"Feature","properties":{"REMARK":"Tegalan/Ladang"},"geometry":{"type":"Polygon","coordinates":[[[111.58062,-7.95499],[111.58123,-7.95569],[111.5813,-7.95587],[111.58135,-7.95616],[111.58128,-7.95707],[111.58129,-7.95796],[111.58136,-7.95835],[111.58181,-7.95938],[111.58204,-7.95975],[111.58154,-7.95957],[111.58042,-7.95934],[111.57988,-7.95904],[111.57964,-7.95895],[111.57954,-7.95896],[111.57884,-7.9597],[111.57758,-7.9602],[111.57719,-7.96024],[111.57702,-7.96021],[111.57653,-7.96001],[111.57578,-7.96003],[111.57542,-7.95998],[111.57494,-7.95974],[111.57478,-7.95992],[111.57466,-7.96],[111.57461,-7.96],[111.57438,-7.95973],[111.57435,-7.95964],[111.57439,-7.95949],[111.57453,-7.95939],[111.57485,-7.95935],[111.57496,-7.9592],[111.57456,-7.95898],[111.57439,-7.95882],[111.57426,-7.95863],[111.57418,-7.95844],[111.57416,-7.95826],[111.5742,-7.95812],[111.57452,-7.95785],[111.57482,-7.95684],[111.57481,-7.95551],[111.57499,-7.9551],[111.57507,-7.95501],[111.57522,-7.95496],[111.57559,-7.95502],[111.57571,-7.95492],[111.57538,-7.95448],[111.57536,-7.95434],[111.57551,-7.95378],[111.57597,-7.95377],[111.57651,-7.95382],[111.57748,-7.95403],[111.57872,-7.95425],[111.5795,-7.95445],[111.58023,-7.95472],[111.58062,-7.95499]]]}},{"type":"Feature","properties":{"REMARK":"Tegalan/Ladang"},"geometry":{"type":"Polygon","coordinates":[[[111.60502,-7.98567],[111.60482,-7.98645],[111.60481,-7.98696],[111.6049,-7.98735],[111.60531,-7.98799],[111.60533,-7.98839],[111.60466,-7.98841],[111.60417,-7.98845],[111.6029,-7.98882],[111.60281,-7.98913],[111.60264,-7.98914],[111.60241,-7.98871],[111.60192,-7.98809],[111.60188,-7.98752],[111.6015,-7.98739],[111.60166,-7.98661],[111.60139,-7.98643],[111.60091,-7.9864],[111.60102,-7.98571],[111.60148,-7.98583],[111.6019,-7.98587],[111.60215,-7.98541],[111.60241,-7.98461],[111.60259,-7.98461],[111.60295,-7.98472],[111.60356,-7.98495],[111.60425,-7.98511],[111.60462,-7.98532],[111.60502,-7.98567]]]}},{"type":"Feature","properties":{"REMARK":"Tegalan/Ladang"},"geometry":{"type":"MultiPolygon","coordinates":[[[[111.64878,-7.96081],[111.64918,-7.961],[111.64878,-7.96081],[111.64878,-7.96081]]],[[[111.6389,-7.95696],[111.63889,-7.95697],[111.63886,-7.95695],[111.6389,-7.95696]]],[[[111.63755,-7.95771],[111.63809,-7.95846],[111.63831,-7.95845],[111.63846,-7.95835],[111.63873,-7.95785],[111.63883,-7.95831],[111.63881,-7.95861],[111.63901,-7.95874],[111.6392,-7.95905],[111.63932,-7.95916],[111.63935,-7.9593],[111.63951,-7.95944],[111.63953,-7.95972],[111.63973,-7.95981],[111.63968,-7.95996],[111.63991,-7.96014],[111.64076,-7.96053],[111.64088,-7.96029],[111.64091,-7.96025],[111.64094,-7.96026],[111.64123,-7.96073],[111.64131,-7.96081],[111.64142,-7.96081],[111.64148,-7.96077],[111.64162,-7.96054],[111.64169,-7.96052],[111.64182,-7.96057],[111.64202,-7.96077],[111.64248,-7.96101],[111.6426,-7.961],[111.64275,-7.96086],[111.64282,-7.96085],[111.64281,-7.96087],[111.64289,-7.9609],[111.64285,-7.96098],[111.64255,-7.96132],[111.64259,-7.96137],[111.64333,-7.96093],[111.64421,-7.96085],[111.64481,-7.96069],[111.64492,-7.96072],[111.64505,-7.96084],[111.64513,-7.96127],[111.64532,-7.96129],[111.64554,-7.96126],[111.64552,-7.96155],[111.64564,-7.96221],[111.64524,-7.96237],[111.64527,-7.96271],[111.64567,-7.96262],[111.64566,-7.96245],[111.64591,-7.96235],[111.64586,-7.96181],[111.64635,-7.96173],[111.64638,-7.96113],[111.64703,-7.9613],[111.6475,-7.96114],[111.6476,-7.96118],[111.64769,-7.9617],[111.64773,-7.9618],[111.6478,-7.96184],[111.64818,-7.96163],[111.64822,-7.96177],[111.64821,-7.96228],[111.6481,-7.96286],[111.64794,-7.96306],[111.64806,-7.96313],[111.64797,-7.96345],[111.6484,-7.96365],[111.64854,-7.96296],[111.64892,-7.96306],[111.64916,-7.96257],[111.64935,-7.9619],[111.64948,-7.96173],[111.64966,-7.96159],[111.64986,-7.9615],[111.64983,-7.96139],[111.64986,-7.9615],[111.65026,-7.96185],[111.65076,-7.96194],[111.65099,-7.96202],[111.6514,-7.96229],[111.65149,-7.9624],[111.65156,-7.9626],[111.65137,-7.96263],[111.65127,-7.96269],[111.65133,-7.96335],[111.65149,-7.96396],[111.65162,-7.96522],[111.65168,-7.96541],[111.65172,-7.96576],[111.65182,-7.966],[111.65201,-7.96618],[111.65224,-7.96628],[111.6525,-7.96593],[111.6527,-7.96585],[111.65355,-7.96578],[111.65369,-7.96609],[111.654,-7.96647],[111.6541,-7.96649],[111.6547,-7.96629],[111.65481,-7.96632],[111.65491,-7.96645],[111.65495,-7.96659],[111.65493,-7.96676],[111.65495,-7.96691],[111.65502,-7.96693],[111.65517,-7.9669],[111.65539,-7.96674],[111.65561,-7.96652],[111.65575,-7.96622],[111.65629,-7.96644],[111.65645,-7.96657],[111.65668,-7.96684],[111.65691,-7.96702],[111.65717,-7.96714],[111.65694,-7.96747],[111.65612,-7.96791],[111.65572,-7.9685],[111.65535,-7.96922],[111.65621,-7.96936],[111.65627,-7.96943],[111.65629,-7.96965],[111.65625,-7.96978],[111.65589,-7.97027],[111.65591,-7.97037],[111.65602,-7.97046],[111.65622,-7.97057],[111.65631,-7.97055],[111.65657,-7.9704],[111.6568,-7.9702],[111.65724,-7.97027],[111.65735,-7.9702],[111.65772,-7.96981],[111.65788,-7.96976],[111.65794,-7.96998],[111.65796,-7.97019],[111.65794,-7.97073],[111.65786,-7.97104],[111.65737,-7.97212],[111.65722,-7.97266],[111.65714,-7.97326],[111.65711,-7.97387],[111.65706,-7.97436],[111.65691,-7.97445],[111.65673,-7.97328],[111.65676,-7.973],[111.65637,-7.97285],[111.65619,-7.97291],[111.65552,-7.97356],[111.65543,-7.97397],[111.65539,-7.97473],[111.6551,-7.97484],[111.65495,-7.97481],[111.65488,-7.97475],[111.65479,-7.97458],[111.65473,-7.97438],[111.65471,-7.97416],[111.65473,-7.97365],[111.65469,-7.97351],[111.65458,-7.97337],[111.65442,-7.97325],[111.65411,-7.9731],[111.65369,-7.97296],[111.65356,-7.97285],[111.65355,-7.97232],[111.65339,-7.9721],[111.65327,-7.9723],[111.65248,-7.97326],[111.65227,-7.97375],[111.65218,-7.97411],[111.65205,-7.97434],[111.65186,-7.9744],[111.65089,-7.97443],[111.65073,-7.97495],[111.6506,-7.97517],[111.65024,-7.97558],[111.64981,-7.97596],[111.64896,-7.97683],[111.64868,-7.97733],[111.64837,-7.97804],[111.64811,-7.97836],[111.64791,-7.97852],[111.64731,-7.97863],[111.64706,-7.97879],[111.6468,-7.9791],[111.64653,-7.97951],[111.6459,-7.98049],[111.64561,-7.98087],[111.64544,-7.98118],[111.64541,-7.98141],[111.64545,-7.98156],[111.64569,-7.98178],[111.64578,-7.98183],[111.64581,-7.98221],[111.64564,-7.98298],[111.64501,-7.98515],[111.6447,-7.98559],[111.64444,-7.98572],[111.64394,-7.98577],[111.64358,-7.98585],[111.64345,-7.98574],[111.6433,-7.98568],[111.64284,-7.98568],[111.64256,-7.9857],[111.64184,-7.98595],[111.64177,-7.98593],[111.64169,-7.98578],[111.64216,-7.9855],[111.6429,-7.98425],[111.6429,-7.98411],[111.64257,-7.98376],[111.64284,-7.98356],[111.6431,-7.98321],[111.64316,-7.98297],[111.64307,-7.98274],[111.64254,-7.98192],[111.64253,-7.98176],[111.6426,-7.98156],[111.64277,-7.98134],[111.6436,-7.98051],[111.64403,-7.97984],[111.64408,-7.97963],[111.64402,-7.9794],[111.64392,-7.97923],[111.64377,-7.97908],[111.64376,-7.97893],[111.64396,-7.97823],[111.64406,-7.97814],[111.64448,-7.978],[111.64454,-7.97794],[111.64446,-7.97742],[111.64447,-7.97705],[111.64452,-7.97684],[111.64458,-7.97674],[111.64524,-7.97655],[111.6457,-7.97632],[111.64579,-7.97623],[111.64584,-7.97604],[111.64543,-7.97557],[111.64543,-7.97549],[111.6455,-7.97534],[111.64558,-7.97527],[111.64596,-7.97525],[111.64607,-7.97529],[111.64621,-7.97556],[111.64631,-7.9756],[111.64639,-7.97555],[111.6465,-7.97544],[111.64671,-7.97541],[111.64722,-7.9755],[111.64742,-7.9755],[111.64814,-7.97515],[111.64898,-7.97462],[111.64934,-7.97434],[111.65122,-7.97329],[111.65152,-7.97299],[111.65251,-7.97123],[111.65273,-7.97106],[111.65391,-7.97063],[111.65339,-7.97026],[111.65325,-7.9702],[111.65308,-7.97022],[111.65263,-7.9704],[111.65244,-7.97038],[111.65218,-7.97025],[111.652,-7.97021],[111.65134,-7.9702],[111.65114,-7.97074],[111.65095,-7.97097],[111.65082,-7.97102],[111.65071,-7.97098],[111.65046,-7.97061],[111.65034,-7.97054],[111.64993,-7.97045],[111.64907,-7.97056],[111.64904,-7.97038],[111.64836,-7.9704],[111.64838,-7.97014],[111.6479,-7.9702],[111.64757,-7.97043],[111.64741,-7.97063],[111.64731,-7.97095],[111.64768,-7.97213],[111.64777,-7.97226],[111.64713,-7.97242],[111.64686,-7.97182],[111.64654,-7.97141],[111.64626,-7.97123],[111.64596,-7.97112],[111.64585,-7.9705],[111.64535,-7.9705],[111.64514,-7.97057],[111.64501,-7.97017],[111.64462,-7.97051],[111.64436,-7.9706],[111.64426,-7.97026],[111.64379,-7.97032],[111.64379,-7.96992],[111.64437,-7.96975],[111.64443,-7.96935],[111.64339,-7.96959],[111.64292,-7.96964],[111.64288,-7.96831],[111.64204,-7.96835],[111.64192,-7.96844],[111.6418,-7.96862],[111.64172,-7.96887],[111.64144,-7.96868],[111.64132,-7.96851],[111.641,-7.96799],[111.64101,-7.96785],[111.64029,-7.9681],[111.63997,-7.96832],[111.63975,-7.96856],[111.63959,-7.96819],[111.63933,-7.96786],[111.63909,-7.96768],[111.63864,-7.96743],[111.63816,-7.96722],[111.63743,-7.9666],[111.63664,-7.96606],[111.63662,-7.96593],[111.63621,-7.96587],[111.63574,-7.9659],[111.63539,-7.96599],[111.63531,-7.96604],[111.6351,-7.96502],[111.63487,-7.96524],[111.63383,-7.96547],[111.6335,-7.96565],[111.63348,-7.96546],[111.63339,-7.96534],[111.63306,-7.96507],[111.63176,-7.96598],[111.63122,-7.96648],[111.63095,-7.96679],[111.63078,-7.96716],[111.63084,-7.9676],[111.63065,-7.96803],[111.62949,-7.96741],[111.62896,-7.96746],[111.6284,-7.96727],[111.62818,-7.96727],[111.62737,-7.96745],[111.62724,-7.96739],[111.62732,-7.96692],[111.62725,-7.9667],[111.62708,-7.96638],[111.62749,-7.96613],[111.62791,-7.96552],[111.62806,-7.96539],[111.6286,-7.96551],[111.62872,-7.96544],[111.62896,-7.96467],[111.62903,-7.96455],[111.62953,-7.96444],[111.62978,-7.96429],[111.63002,-7.96451],[111.63019,-7.96473],[111.63021,-7.96486],[111.63008,-7.96513],[111.62986,-7.96539],[111.62908,-7.96599],[111.6294,-7.96612],[111.62959,-7.96614],[111.62989,-7.96604],[111.63029,-7.9661],[111.63047,-7.96601],[111.63067,-7.96583],[111.63108,-7.9651],[111.63121,-7.96479],[111.63121,-7.96434],[111.63125,-7.96397],[111.63097,-7.96361],[111.63094,-7.96348],[111.63103,-7.96297],[111.63098,-7.96288],[111.63084,-7.96281],[111.63048,-7.96283],[111.63061,-7.96257],[111.63071,-7.96247],[111.63122,-7.96214],[111.63141,-7.96227],[111.63147,-7.96236],[111.63166,-7.96239],[111.63177,-7.96234],[111.63198,-7.962],[111.63218,-7.96177],[111.63183,-7.96168],[111.63161,-7.9617],[111.63014,-7.96158],[111.63113,-7.96069],[111.63144,-7.96049],[111.63149,-7.96031],[111.63148,-7.96014],[111.63137,-7.9598],[111.63123,-7.95958],[111.63111,-7.9595],[111.63086,-7.95945],[111.6308,-7.95939],[111.63113,-7.95888],[111.63131,-7.9587],[111.63154,-7.95835],[111.63199,-7.95821],[111.6326,-7.95814],[111.63273,-7.95807],[111.63281,-7.95795],[111.63279,-7.95784],[111.63297,-7.95769],[111.63346,-7.95707],[111.63364,-7.95697],[111.63396,-7.95689],[111.63455,-7.95636],[111.63495,-7.95592],[111.63511,-7.95588],[111.63581,-7.95587],[111.63617,-7.95603],[111.63613,-7.95627],[111.63638,-7.95634],[111.63634,-7.95696],[111.63714,-7.9573],[111.63731,-7.95743],[111.63755,-7.95771]],[[111.63172,-7.9599],[111.63194,-7.96025],[111.63231,-7.96011],[111.63239,-7.96024],[111.63209,-7.96037],[111.63226,-7.96089],[111.63188,-7.96099],[111.63147,-7.96102],[111.63119,-7.96117],[111.63116,-7.96139],[111.63139,-7.96151],[111.6316,-7.96155],[111.63202,-7.96147],[111.63266,-7.96114],[111.63271,-7.96086],[111.63264,-7.96058],[111.63276,-7.96034],[111.63275,-7.96006],[111.63259,-7.95981],[111.63284,-7.95975],[111.63317,-7.95977],[111.63334,-7.95951],[111.63325,-7.95899],[111.63271,-7.95898],[111.63226,-7.95903],[111.63184,-7.95913],[111.63168,-7.95922],[111.63162,-7.95947],[111.63172,-7.9599]],[[111.63373,-7.96108],[111.63395,-7.96126],[111.63404,-7.96121],[111.63406,-7.96102],[111.63378,-7.9609],[111.63374,-7.9606],[111.6338,-7.96036],[111.63387,-7.96029],[111.6338,-7.96019],[111.63367,-7.9602],[111.63356,-7.96078],[111.63373,-7.96108]],[[111.64005,-7.96124],[111.63931,-7.96139],[111.63875,-7.96158],[111.63832,-7.96166],[111.63775,-7.96183],[111.63751,-7.96326],[111.63764,-7.96344],[111.63792,-7.96371],[111.63715,-7.96426],[111.63672,-7.96445],[111.63678,-7.96488],[111.63699,-7.96527],[111.63726,-7.96556],[111.63747,-7.96573],[111.6378,-7.96589],[111.638,-7.96592],[111.63892,-7.96563],[111.63939,-7.96535],[111.63941,-7.96516],[111.63956,-7.9647],[111.63919,-7.96442],[111.63895,-7.96412],[111.63879,-7.96373],[111.63874,-7.96319],[111.63876,-7.96297],[111.63868,-7.96235],[111.63874,-7.96219],[111.63884,-7.96209],[111.63895,-7.96207],[111.63907,-7.96212],[111.63926,-7.96228],[111.63966,-7.96275],[111.63974,-7.96294],[111.63991,-7.96315],[111.64008,-7.96325],[111.64025,-7.96332],[111.64052,-7.96338],[111.64068,-7.96305],[111.641,-7.96271],[111.64109,-7.9625],[111.64103,-7.962],[111.64111,-7.96186],[111.64147,-7.96154],[111.64158,-7.96136],[111.64109,-7.96128],[111.64005,-7.96124]],[[111.64312,-7.96333],[111.64309,-7.96352],[111.64346,-7.96369],[111.64361,-7.96363],[111.6436,-7.96324],[111.64334,-7.96324],[111.64312,-7.96333]],[[111.64632,-7.96488],[111.64612,-7.96543],[111.64589,-7.96553],[111.6456,-7.96532],[111.64498,-7.96531],[111.64474,-7.96536],[111.64447,-7.96573],[111.64458,-7.96587],[111.64507,-7.96567],[111.64555,-7.966],[111.64604,-7.96606],[111.64653,-7.96569],[111.64679,-7.96505],[111.64684,-7.96413],[111.64651,-7.96407],[111.6464,-7.96441],[111.64632,-7.96488]],[[111.64739,-7.96601],[111.64771,-7.96614],[111.64773,-7.96639],[111.64768,-7.96678],[111.64754,-7.96731],[111.64773,-7.96755],[111.64802,-7.96776],[111.64864,-7.96741],[111.64845,-7.96703],[111.64808,-7.96686],[111.64795,-7.96666],[111.64809,-7.96631],[111.64813,-7.96601],[111.64777,-7.96594],[111.64743,-7.96583],[111.64739,-7.96601]],[[111.64976,-7.96701],[111.64981,-7.96719],[111.65101,-7.96714],[111.65109,-7.96686],[111.65071,-7.96686],[111.65002,-7.96692],[111.64976,-7.96701]],[[111.6352,-7.96204],[111.63471,-7.96194],[111.63417,-7.96196],[111.63418,-7.96205],[111.63431,-7.96224],[111.63476,-7.96226],[111.63501,-7.96234],[111.6352,-7.96231],[111.6352,-7.96204]],[[111.65302,-7.9684],[111.65279,-7.96849],[111.65278,-7.96846],[111.6524,-7.96845],[111.65237,-7.96901],[111.65239,-7.96926],[111.65199,-7.96925],[111.65169,-7.96931],[111.65164,-7.96951],[111.65187,-7.96958],[111.65208,-7.96952],[111.6524,-7.96937],[111.65267,-7.96915],[111.65278,-7.96895],[111.65279,-7.96872],[111.65307,-7.96868],[111.65309,-7.96845],[111.65302,-7.9684]],[[111.65122,-7.96947],[111.65113,-7.9688],[111.65103,-7.96867],[111.65006,-7.96886],[111.64975,-7.96882],[111.64927,-7.96889],[111.64916,-7.96895],[111.64915,-7.9693],[111.64951,-7.96944],[111.64982,-7.96944],[111.64989,-7.96927],[111.65,-7.96922],[111.65044,-7.96931],[111.65083,-7.96934],[111.65089,-7.96951],[111.65091,-7.9698],[111.65057,-7.96994],[111.6505,-7.97005],[111.65056,-7.97034],[111.65082,-7.97078],[111.65106,-7.97069],[111.65098,-7.9703],[111.65134,-7.97015],[111.65132,-7.96987],[111.65122,-7.96947]],[[111.64587,-7.97724],[111.6464,-7.9776],[111.64692,-7.9773],[111.64778,-7.97718],[111.6478,-7.97623],[111.64729,-7.97616],[111.64697,-7.97602],[111.6469,-7.97618],[111.64623,-7.97632],[111.64637,-7.97692],[111.64587,-7.97724]]]]}},{"type":"Feature","properties":{"REMARK":"Tegalan/Ladang"},"geometry":{"type":"MultiPolygon","coordinates":[[[[111.66163,-7.97129],[111.66164,-7.97138],[111.66163,-7.97129],[111.66171,-7.97122],[111.66163,-7.97129]]],[[[111.66192,-7.97117],[111.66192,-7.97117],[111.66196,-7.97116],[111.66192,-7.97117]]],[[[111.66251,-7.97061],[111.66243,-7.97082],[111.66251,-7.97061],[111.6626,-7.97053],[111.66251,-7.97061]]],[[[111.66064,-7.97167],[111.66103,-7.97183],[111.66131,-7.97199],[111.66154,-7.97224],[111.66172,-7.97189],[111.6617,-7.97181],[111.66172,-7.97189],[111.66154,-7.97224],[111.66151,-7.97323],[111.66158,-7.97344],[111.66192,-7.97383],[111.66225,-7.97403],[111.66223,-7.97414],[111.66209,-7.9743],[111.66164,-7.97459],[111.66161,-7.97479],[111.6615,-7.97491],[111.66119,-7.97504],[111.66109,-7.97533],[111.661,-7.97545],[111.66083,-7.97553],[111.66007,-7.97543],[111.65961,-7.97555],[111.65934,-7.97559],[111.65925,-7.97551],[111.66,-7.97497],[111.66015,-7.97475],[111.66018,-7.97424],[111.66024,-7.97409],[111.66036,-7.97395],[111.66093,-7.97367],[111.661,-7.97361],[111.66099,-7.97341],[111.66121,-7.97338],[111.66115,-7.97193],[111.66092,-7.97196],[111.6608,-7.97217],[111.66026,-7.97224],[111.65995,-7.97175],[111.65966,-7.97197],[111.65951,-7.97184],[111.65904,-7.97164],[111.6594,-7.97137],[111.65948,-7.97129],[111.65952,-7.97115],[111.65923,-7.97016],[111.65928,-7.97005],[111.65978,-7.97052],[111.66037,-7.97146],[111.66064,-7.97167]]],[[[111.66299,-7.96982],[111.66278,-7.97019],[111.66299,-7.96982],[111.66314,-7.96937],[111.6632,-7.96922],[111.66299,-7.96982]]],[[[111.66333,-7.96884],[111.66329,-7.96896],[111.66335,-7.96877],[111.66333,-7.96884]]]]}},{"type":"Feature","properties":{"REMARK":"Tegalan/Ladang"},"geometry":{"type":"Polygon","coordinates":[[[111.63641,-7.97121],[111.63745,-7.9713],[111.63852,-7.97186],[111.63823,-7.97218],[111.63796,-7.97266],[111.6378,-7.97362],[111.63741,-7.97356],[111.6365,-7.97295],[111.63615,-7.97289],[111.6358,-7.97289],[111.63506,-7.97307],[111.63501,-7.97289],[111.63515,-7.9726],[111.63546,-7.97228],[111.63613,-7.97186],[111.63628,-7.97165],[111.63641,-7.97121]]]}},{"type":"Feature","properties":{"REMARK":"Tegalan/Ladang"},"geometry":{"type":"Polygon","coordinates":[[[111.65459,-7.99109],[111.65452,-7.99083],[111.65456,-7.99045],[111.65461,-7.99026],[111.65492,-7.98981],[111.65483,-7.9895],[111.65471,-7.98943],[111.65425,-7.98934],[111.65403,-7.98905],[111.65376,-7.98885],[111.65224,-7.98824],[111.65096,-7.98791],[111.65017,-7.98801],[111.64927,-7.98794],[111.64847,-7.98784],[111.6483,-7.98768],[111.64836,-7.98754],[111.6488,-7.98711],[111.64938,-7.98729],[111.64973,-7.98726],[111.65006,-7.9873],[111.65083,-7.98733],[111.65154,-7.98731],[111.6517,-7.98726],[111.65203,-7.98703],[111.65229,-7.98704],[111.65249,-7.98701],[111.65343,-7.9867],[111.65367,-7.98644],[111.65382,-7.98659],[111.65407,-7.98675],[111.65443,-7.98727],[111.65503,-7.988],[111.65496,-7.98807],[111.65516,-7.98829],[111.65579,-7.9888],[111.65627,-7.98943],[111.65635,-7.98974],[111.65637,-7.98994],[111.65631,-7.99019],[111.65621,-7.99034],[111.65606,-7.99031],[111.65571,-7.99048],[111.6549,-7.99097],[111.65459,-7.99109]]]}},{"type":"Feature","properties":{"REMARK":"Tegalan/Ladang"},"geometry":{"type":"Polygon","coordinates":[[[111.65459,-7.99109],[111.65478,-7.99128],[111.6555,-7.99116],[111.65566,-7.99124],[111.65582,-7.99138],[111.65586,-7.99147],[111.65606,-7.99212],[111.65626,-7.99358],[111.65621,-7.99485],[111.65623,-7.99516],[111.65616,-7.99516],[111.65619,-7.99536],[111.65486,-7.99594],[111.65478,-7.99564],[111.65395,-7.99595],[111.65353,-7.99592],[111.6536,-7.99556],[111.65354,-7.99515],[111.65344,-7.99487],[111.65421,-7.99436],[111.65445,-7.99429],[111.65499,-7.99421],[111.65578,-7.99393],[111.65572,-7.99346],[111.65558,-7.99281],[111.65497,-7.99291],[111.65489,-7.99267],[111.65548,-7.99238],[111.65558,-7.99244],[111.65556,-7.99223],[111.65537,-7.992],[111.65432,-7.99264],[111.65419,-7.99247],[111.65401,-7.99256],[111.65365,-7.99224],[111.65297,-7.99215],[111.65292,-7.992],[111.65315,-7.9919],[111.65345,-7.99187],[111.65407,-7.99129],[111.65459,-7.99109]]]}},{"type":"Feature","properties":{"REMARK":"Tegalan/Ladang"},"geometry":{"type":"Polygon","coordinates":[[[111.65089,-7.99575],[111.6505,-7.99599],[111.65038,-7.99611],[111.65034,-7.9963],[111.65038,-7.99643],[111.64974,-7.99607],[111.64936,-7.99597],[111.64896,-7.99593],[111.64867,-7.99597],[111.64847,-7.99607],[111.64756,-7.99673],[111.64718,-7.99698],[111.6468,-7.99717],[111.64659,-7.99719],[111.64639,-7.99716],[111.64612,-7.99703],[111.64594,-7.99686],[111.64644,-7.99636],[111.64687,-7.99648],[111.64704,-7.99639],[111.64772,-7.99588],[111.64807,-7.99564],[111.64867,-7.99538],[111.64887,-7.99533],[111.64939,-7.99525],[111.65008,-7.99525],[111.65089,-7.99575]]]}},{"type":"Feature","properties":{"REMARK":"Tegalan/Ladang"},"geometry":{"type":"Polygon","coordinates":[[[111.56684,-8.0246],[111.56627,-8.02495],[111.56611,-8.02499],[111.56572,-8.02479],[111.56615,-8.02481],[111.56626,-8.02475],[111.56642,-8.02332],[111.56651,-8.02306],[111.5667,-8.02284],[111.56702,-8.02256],[111.56675,-8.02286],[111.56759,-8.02361],[111.56715,-8.02415],[111.56684,-8.0246]]]}},{"type":"Feature","properties":{"REMARK":"Tegalan/Ladang"},"geometry":{"type":"Polygon","coordinates":[[[111.54359,-8.0213],[111.54413,-8.02155],[111.5451,-8.02164],[111.54507,-8.0233],[111.54496,-8.02389],[111.5448,-8.0242],[111.54455,-8.02445],[111.54439,-8.0245],[111.54417,-8.0245],[111.54391,-8.02441],[111.54352,-8.02421],[111.54294,-8.02385],[111.54244,-8.02336],[111.54186,-8.02259],[111.54161,-8.02204],[111.54156,-8.02173],[111.54158,-8.02138],[111.54246,-8.02137],[111.54329,-8.0212],[111.54359,-8.0213]]]}},{"type":"Feature","properties":{"REMARK":"Tegalan/Ladang"},"geometry":{"type":"MultiPolygon","coordinates":[[[[111.65328,-8.0205],[111.65319,-8.02058],[111.65319,-8.02058],[111.65328,-8.0205]]],[[[111.65337,-8.02015],[111.65334,-8.02031],[111.65349,-8.01976],[111.65337,-8.02015]]]]}},{"type":"Feature","properties":{"REMARK":"Tegalan/Ladang"},"geometry":{"type":"Polygon","coordinates":[[[111.55497,-8.02454],[111.55468,-8.02453],[111.55426,-8.02444],[111.55375,-8.02424],[111.55358,-8.02413],[111.55345,-8.02368],[111.55351,-8.0226],[111.55317,-8.02126],[111.55222,-8.02093],[111.55119,-8.02062],[111.55088,-8.02044],[111.55077,-8.02026],[111.55085,-8.01975],[111.55102,-8.01939],[111.55121,-8.0191],[111.55166,-8.01861],[111.55274,-8.01864],[111.55327,-8.01872],[111.55356,-8.01908],[111.55386,-8.01995],[111.55388,-8.02019],[111.55408,-8.02078],[111.5543,-8.02137],[111.55451,-8.02181],[111.5546,-8.02258],[111.55455,-8.02324],[111.55491,-8.02415],[111.55497,-8.02454]]]}},{"type":"Feature","properties":{"REMARK":"Tegalan/Ladang"},"geometry":{"type":"MultiPolygon","coordinates":[[[[111.61437,-8.01069],[111.61435,-8.0107],[111.61437,-8.01068],[111.61437,-8.01069]]],[[[111.61482,-8.01019],[111.6149,-8.01003],[111.6151,-8.00986],[111.61494,-8.01006],[111.61482,-8.01019]]],[[[111.61552,-8.00961],[111.61532,-8.0097],[111.61564,-8.00948],[111.61607,-8.00933],[111.61702,-8.00882],[111.61717,-8.00883],[111.61728,-8.0089],[111.61767,-8.00926],[111.61744,-8.0094],[111.61705,-8.0095],[111.61552,-8.00961]]],[[[111.60807,-8.00903],[111.60879,-8.00911],[111.60895,-8.00909],[111.60981,-8.00874],[111.61052,-8.0087],[111.61078,-8.00864],[111.61117,-8.00863],[111.61189,-8.0087],[111.61259,-8.00882],[111.61356,-8.00874],[111.61382,-8.0088],[111.61404,-8.00899],[111.6142,-8.00922],[111.61434,-8.00954],[111.61443,-8.00992],[111.61436,-8.01038],[111.61429,-8.01073],[111.61355,-8.01114],[111.61296,-8.0116],[111.61252,-8.01169],[111.61177,-8.01167],[111.61138,-8.01196],[111.61082,-8.01259],[111.61006,-8.01324],[111.6097,-8.01408],[111.60861,-8.01508],[111.60801,-8.0155],[111.60736,-8.01556],[111.60715,-8.01565],[111.60712,-8.01544],[111.60728,-8.01458],[111.6073,-8.01411],[111.60713,-8.01363],[111.60691,-8.01356],[111.6069,-8.01299],[111.60663,-8.01251],[111.60661,-8.01229],[111.60675,-8.01201],[111.6074,-8.01132],[111.60815,-8.01095],[111.60846,-8.01069],[111.60856,-8.01055],[111.6086,-8.01041],[111.60855,-8.00952],[111.60819,-8.00944],[111.60798,-8.00931],[111.60788,-8.00914],[111.6079,-8.00894],[111.60799,-8.00875],[111.60812,-8.0086],[111.60866,-8.0084],[111.6088,-8.00831],[111.60887,-8.00794],[111.60919,-8.00758],[111.60952,-8.00701],[111.60959,-8.00707],[111.60924,-8.0079],[111.60898,-8.00862],[111.60808,-8.00866],[111.60807,-8.00903]],[[111.6102,-8.01207],[111.61086,-8.01234],[111.61134,-8.01187],[111.61151,-8.01138],[111.61123,-8.01116],[111.61139,-8.01057],[111.61096,-8.01056],[111.61058,-8.01075],[111.61025,-8.01105],[111.61015,-8.01151],[111.61015,-8.01187],[111.6102,-8.01207]]]]}},{"type":"Feature","properties":{"REMARK":"Tegalan/Ladang"},"geometry":{"type":"Polygon","coordinates":[[[111.5546,-8.00676],[111.55515,-8.00727],[111.55526,-8.00742],[111.55523,-8.00754],[111.556,-8.00762],[111.55652,-8.00755],[111.55685,-8.00729],[111.55703,-8.00719],[111.55735,-8.00712],[111.55749,-8.00704],[111.55784,-8.00695],[111.55776,-8.00719],[111.55793,-8.00783],[111.55794,-8.008],[111.55791,-8.00815],[111.55781,-8.00829],[111.55763,-8.0084],[111.55686,-8.0084],[111.55646,-8.00846],[111.55623,-8.00855],[111.55593,-8.00859],[111.55534,-8.00848],[111.55338,-8.00829],[111.55322,-8.00833],[111.553,-8.00855],[111.55285,-8.00888],[111.55282,-8.00906],[111.55284,-8.00917],[111.55355,-8.00988],[111.55379,-8.00995],[111.5541,-8.01016],[111.55428,-8.01049],[111.55461,-8.01152],[111.55467,-8.01187],[111.55466,-8.01218],[111.55397,-8.01388],[111.55325,-8.0152],[111.55306,-8.01538],[111.55237,-8.01591],[111.55215,-8.01616],[111.55192,-8.01663],[111.55169,-8.0168],[111.55135,-8.01698],[111.55076,-8.01705],[111.55048,-8.01713],[111.55063,-8.01795],[111.55035,-8.01807],[111.5493,-8.01802],[111.54846,-8.01812],[111.5484,-8.01805],[111.54835,-8.01785],[111.5484,-8.01733],[111.54832,-8.01703],[111.54832,-8.01685],[111.54837,-8.01672],[111.54858,-8.0164],[111.54792,-8.01594],[111.54775,-8.01576],[111.54754,-8.01542],[111.54748,-8.01515],[111.54754,-8.01497],[111.54785,-8.01455],[111.54802,-8.01442],[111.54833,-8.01438],[111.54862,-8.01384],[111.54871,-8.01348],[111.54873,-8.01318],[111.54868,-8.01277],[111.54859,-8.01247],[111.54849,-8.0123],[111.54814,-8.01189],[111.54814,-8.01138],[111.54824,-8.011],[111.54835,-8.01089],[111.54892,-8.0107],[111.54926,-8.01056],[111.54943,-8.01045],[111.5496,-8.01002],[111.55039,-8.01005],[111.55065,-8.01001],[111.55118,-8.00966],[111.55153,-8.00949],[111.55183,-8.0093],[111.55203,-8.00937],[111.55224,-8.00932],[111.55225,-8.0087],[111.55195,-8.00869],[111.55198,-8.00859],[111.55217,-8.00841],[111.55237,-8.00826],[111.55262,-8.00819],[111.5523,-8.00793],[111.55231,-8.00784],[111.55297,-8.00697],[111.55315,-8.00682],[111.55371,-8.00675],[111.55413,-8.00655],[111.55443,-8.00645],[111.5546,-8.00676]],[[111.55245,-8.01182],[111.55308,-8.01199],[111.55322,-8.01166],[111.55376,-8.01173],[111.55384,-8.01146],[111.55281,-8.01099],[111.55248,-8.01153],[111.55245,-8.01182]],[[111.54951,-8.01471],[111.55021,-8.01499],[111.55045,-8.01461],[111.55047,-8.01434],[111.55036,-8.01336],[111.54994,-8.01321],[111.54956,-8.0133],[111.5492,-8.01357],[111.54906,-8.01396],[111.54905,-8.01425],[111.54951,-8.01471]]]}},{"type":"Feature","properties":{"REMARK":"Tegalan/Ladang"},"geometry":{"type":"MultiPolygon","coordinates":[[[[111.64242,-8.00536],[111.64242,-8.00536],[111.64257,-8.00528],[111.64242,-8.00536]]],[[[111.64372,-8.00504],[111.643,-8.00521],[111.64295,-8.00521],[111.643,-8.00521],[111.64372,-8.00504]]],[[[111.64372,-8.00504],[111.6439,-8.00498],[111.6439,-8.00498],[111.64372,-8.00504]]]]}},{"type":"Feature","properties":{"REMARK":"Tegalan/Ladang"},"geometry":{"type":"Polygon","coordinates":[[[111.56591,-8.00486],[111.56614,-8.00491],[111.56654,-8.00473],[111.56653,-8.0051],[111.56714,-8.00511],[111.5678,-8.00507],[111.56828,-8.00516],[111.56846,-8.00515],[111.56855,-8.00519],[111.56889,-8.00563],[111.56909,-8.0058],[111.56954,-8.00613],[111.56984,-8.00628],[111.56996,-8.00608],[111.57002,-8.00601],[111.57008,-8.00598],[111.57021,-8.00595],[111.57002,-8.00602],[111.56996,-8.00608],[111.56984,-8.00629],[111.56974,-8.00662],[111.5695,-8.00656],[111.56897,-8.00725],[111.56908,-8.00746],[111.56934,-8.00725],[111.56942,-8.00734],[111.56931,-8.00763],[111.56911,-8.00796],[111.56919,-8.0083],[111.5691,-8.00878],[111.5683,-8.00874],[111.56853,-8.0083],[111.56912,-8.00771],[111.56899,-8.00753],[111.56765,-8.00855],[111.56799,-8.00943],[111.56813,-8.00993],[111.5684,-8.00973],[111.56875,-8.00972],[111.56939,-8.00978],[111.56971,-8.00974],[111.56988,-8.00966],[111.57032,-8.00935],[111.57108,-8.00871],[111.5719,-8.0084],[111.57293,-8.00822],[111.57328,-8.00772],[111.57388,-8.00772],[111.57454,-8.00752],[111.57488,-8.00765],[111.57473,-8.00772],[111.57459,-8.00787],[111.57437,-8.00793],[111.57433,-8.00811],[111.57402,-8.00818],[111.57359,-8.00898],[111.57302,-8.00969],[111.57266,-8.01031],[111.57257,-8.01078],[111.57231,-8.01175],[111.57192,-8.01265],[111.57171,-8.01303],[111.57173,-8.01364],[111.57078,-8.01346],[111.56987,-8.01321],[111.56968,-8.01344],[111.56981,-8.01349],[111.56966,-8.01375],[111.56888,-8.01361],[111.56853,-8.01401],[111.56845,-8.01458],[111.57004,-8.01517],[111.57037,-8.01486],[111.57089,-8.01498],[111.57159,-8.01504],[111.57271,-8.01489],[111.57348,-8.01469],[111.57357,-8.01414],[111.57389,-8.01429],[111.57392,-8.01442],[111.57389,-8.01496],[111.57393,-8.01517],[111.57419,-8.01576],[111.57439,-8.01604],[111.57452,-8.01614],[111.57575,-8.0161],[111.57678,-8.01618],[111.57699,-8.01617],[111.57727,-8.01601],[111.57769,-8.0156],[111.57777,-8.01556],[111.57808,-8.01571],[111.57787,-8.01625],[111.57787,-8.01642],[111.57826,-8.01674],[111.57838,-8.01701],[111.57809,-8.01838],[111.57784,-8.01887],[111.57783,-8.01898],[111.57786,-8.01922],[111.57749,-8.01942],[111.57727,-8.01943],[111.5765,-8.01928],[111.5755,-8.01894],[111.57509,-8.01883],[111.57482,-8.01854],[111.57463,-8.01842],[111.57411,-8.01877],[111.57378,-8.01836],[111.57294,-8.01898],[111.57224,-8.01958],[111.57195,-8.01989],[111.57205,-8.02022],[111.57155,-8.02057],[111.57119,-8.02072],[111.57151,-8.02002],[111.57165,-8.01915],[111.57171,-8.01833],[111.57152,-8.01764],[111.57068,-8.01729],[111.5696,-8.01674],[111.56916,-8.01717],[111.56983,-8.01755],[111.56961,-8.01848],[111.56921,-8.01945],[111.56899,-8.02027],[111.5694,-8.0209],[111.56937,-8.02118],[111.56949,-8.02148],[111.56965,-8.02167],[111.56931,-8.02196],[111.56849,-8.02244],[111.56818,-8.02274],[111.56804,-8.02298],[111.56709,-8.02249],[111.5677,-8.02213],[111.56776,-8.02205],[111.56776,-8.02132],[111.56789,-8.02085],[111.56803,-8.02055],[111.5684,-8.02022],[111.56873,-8.01965],[111.56889,-8.01932],[111.56918,-8.01849],[111.56917,-8.01814],[111.56901,-8.01777],[111.5686,-8.01714],[111.56801,-8.01633],[111.56775,-8.01605],[111.5669,-8.01545],[111.56574,-8.0147],[111.56569,-8.01475],[111.56568,-8.01485],[111.56538,-8.01495],[111.56528,-8.01491],[111.56507,-8.01477],[111.56492,-8.0146],[111.56471,-8.01418],[111.56519,-8.01361],[111.56553,-8.01315],[111.56578,-8.0127],[111.56575,-8.01239],[111.56577,-8.01229],[111.56594,-8.01195],[111.56548,-8.01193],[111.5644,-8.0117],[111.5646,-8.01106],[111.56402,-8.01079],[111.56349,-8.01151],[111.56337,-8.01135],[111.56316,-8.01084],[111.56306,-8.01049],[111.56271,-8.01044],[111.56247,-8.01063],[111.56218,-8.0108],[111.56139,-8.01098],[111.56192,-8.01134],[111.56214,-8.01164],[111.56265,-8.01218],[111.56316,-8.01194],[111.56359,-8.01224],[111.56399,-8.0121],[111.56445,-8.01257],[111.56465,-8.01292],[111.56474,-8.01329],[111.56468,-8.01391],[111.56435,-8.01391],[111.56401,-8.01384],[111.56363,-8.01369],[111.56347,-8.01367],[111.56309,-8.01371],[111.56263,-8.01389],[111.56188,-8.01385],[111.56127,-8.01389],[111.56113,-8.01386],[111.56098,-8.01378],[111.56043,-8.01343],[111.55965,-8.01321],[111.55913,-8.01291],[111.5588,-8.01263],[111.55872,-8.01252],[111.55871,-8.01201],[111.55864,-8.01172],[111.55848,-8.01137],[111.55791,-8.0105],[111.55791,-8.01016],[111.55798,-8.01],[111.55908,-8.00857],[111.55909,-8.00839],[111.55899,-8.00773],[111.55895,-8.00704],[111.55898,-8.00674],[111.55907,-8.00648],[111.55948,-8.00652],[111.56011,-8.00679],[111.5612,-8.00714],[111.56262,-8.00778],[111.56333,-8.0082],[111.56391,-8.00847],[111.56409,-8.00848],[111.56458,-8.0085],[111.56518,-8.00839],[111.56676,-8.00788],[111.56778,-8.00742],[111.56805,-8.00727],[111.5684,-8.007],[111.56843,-8.0069],[111.56813,-8.00686],[111.5677,-8.00688],[111.56672,-8.00707],[111.56651,-8.00706],[111.56639,-8.00699],[111.566,-8.00653],[111.56567,-8.00599],[111.56539,-8.00505],[111.56537,-8.00468],[111.56591,-8.00486]],[[111.57072,-8.00975],[111.56976,-8.01019],[111.56992,-8.01059],[111.57031,-8.01109],[111.57053,-8.01163],[111.57149,-8.01151],[111.57147,-8.01108],[111.57152,-8.00972],[111.57149,-8.00934],[111.57193,-8.0092],[111.57188,-8.01106],[111.57228,-8.01104],[111.57264,-8.00981],[111.57318,-8.00855],[111.57229,-8.0087],[111.57065,-8.00933],[111.57072,-8.00975]],[[111.5692,-8.01179],[111.56906,-8.01095],[111.56814,-8.01103],[111.56801,-8.01131],[111.56755,-8.0112],[111.56749,-8.01166],[111.56853,-8.01215],[111.56882,-8.01234],[111.5692,-8.01179]],[[111.5614,-8.0101],[111.56094,-8.01004],[111.56109,-8.01056],[111.56187,-8.01065],[111.56203,-8.0103],[111.5614,-8.0101]],[[111.56062,-8.01036],[111.56051,-8.01006],[111.55989,-8.01021],[111.55967,-8.0103],[111.55961,-8.01075],[111.56062,-8.01036]]]}},{"type":"Feature","properties":{"REMARK":"Tegalan/Ladang"},"geometry":{"type":"Polygon","coordinates":[[[111.60512,-7.99264],[111.60536,-7.9927],[111.60565,-7.99269],[111.60628,-7.99236],[111.60646,-7.99255],[111.60693,-7.99322],[111.60704,-7.99321],[111.60734,-7.99329],[111.60725,-7.99287],[111.60739,-7.99257],[111.60746,-7.99259],[111.60796,-7.99282],[111.60798,-7.99337],[111.60803,-7.99384],[111.60811,-7.99391],[111.60831,-7.99396],[111.60834,-7.99421],[111.6081,-7.99422],[111.60754,-7.99474],[111.60737,-7.99547],[111.6069,-7.99678],[111.6068,-7.99719],[111.60684,-7.99749],[111.60683,-7.9977],[111.60675,-7.99793],[111.60649,-7.99839],[111.60642,-7.99859],[111.6064,-7.99912],[111.60632,-7.99978],[111.60618,-8.0],[111.60571,-8.0],[111.60562,-7.99992],[111.60549,-7.99989],[111.60529,-7.99995],[111.6051,-8.00009],[111.60473,-8.0006],[111.60432,-8.0008],[111.60409,-8.00084],[111.60394,-8.00079],[111.60382,-8.00067],[111.60362,-8.00104],[111.60356,-8.00128],[111.60351,-8.00184],[111.60339,-8.00201],[111.60306,-8.00235],[111.6021,-8.00293],[111.60162,-8.00332],[111.60123,-8.00373],[111.60015,-8.00381],[111.59965,-8.00372],[111.59966,-8.00331],[111.59956,-8.00279],[111.59969,-8.00243],[111.59996,-8.00127],[111.60013,-8.00084],[111.60071,-7.99972],[111.60141,-7.99785],[111.60164,-7.99704],[111.60186,-7.99565],[111.60242,-7.99498],[111.60254,-7.9947],[111.60261,-7.99435],[111.60267,-7.99352],[111.60289,-7.9931],[111.604,-7.99343],[111.60406,-7.99322],[111.60399,-7.99245],[111.60447,-7.99224],[111.60469,-7.99244],[111.60512,-7.99264]]]}},{"type":"Feature","properties":{"REMARK":"Tegalan/Ladang"},"geometry":{"type":"Polygon","coordinates":[[[111.63873,-7.99501],[111.63886,-7.99581],[111.63938,-7.99566],[111.63937,-7.9953],[111.63955,-7.99523],[111.63973,-7.99554],[111.63939,-7.99591],[111.63888,-7.99763],[111.6386,-7.99829],[111.63859,-7.99839],[111.63879,-7.99916],[111.63882,-7.99959],[111.63877,-7.9998],[111.63834,-8.00044],[111.63823,-8.00067],[111.63784,-8.00106],[111.63765,-8.00134],[111.63694,-8.00189],[111.63661,-8.00196],[111.63625,-8.00213],[111.63596,-8.00217],[111.63511,-8.0027],[111.63484,-8.00278],[111.6343,-8.00326],[111.63376,-8.00353],[111.63378,-8.00339],[111.63385,-8.00319],[111.63421,-8.00279],[111.63444,-8.0026],[111.63573,-8.00178],[111.63605,-8.00149],[111.63618,-8.00127],[111.63618,-8.00109],[111.63611,-8.00091],[111.63601,-8.00084],[111.63593,-8.00105],[111.63566,-8.00144],[111.63498,-8.00177],[111.63429,-8.00196],[111.63405,-8.00194],[111.63368,-8.00184],[111.6337,-8.00171],[111.63335,-8.00076],[111.63338,-8.0005],[111.63365,-8.00031],[111.6339,-8.00001],[111.63394,-7.99976],[111.63393,-7.99868],[111.63384,-7.99769],[111.63384,-7.99727],[111.63391,-7.99709],[111.63405,-7.99691],[111.63429,-7.99676],[111.63506,-7.99694],[111.63529,-7.99694],[111.63542,-7.99688],[111.63554,-7.99678],[111.63561,-7.99664],[111.63552,-7.99634],[111.63557,-7.99594],[111.63637,-7.99478],[111.63668,-7.99411],[111.63676,-7.99387],[111.63727,-7.99337],[111.63741,-7.99333],[111.6376,-7.99337],[111.63772,-7.99343],[111.6378,-7.99362],[111.63779,-7.99407],[111.63774,-7.99454],[111.63778,-7.99474],[111.63783,-7.99481],[111.63825,-7.99484],[111.63873,-7.99501]],[[111.63482,-7.99886],[111.6356,-7.99912],[111.6356,-7.99838],[111.6357,-7.9977],[111.63497,-7.99738],[111.6349,-7.99776],[111.63513,-7.99782],[111.63482,-7.99886]]]}},{"type":"Feature","properties":{"REMARK":"Tegalan/Ladang"},"geometry":{"type":"MultiPolygon","coordinates":[[[[111.54596,-8.04171],[111.54653,-8.04175],[111.54734,-8.04169],[111.5476,-8.04176],[111.54779,-8.04185],[111.54792,-8.0421],[111.54835,-8.04242],[111.54702,-8.04184],[111.54655,-8.04206],[111.54592,-8.04179],[111.54581,-8.04165],[111.54596,-8.04171]]],[[[111.54306,-8.041],[111.54293,-8.04121],[111.54299,-8.04104],[111.54306,-8.041]]],[[[111.55687,-8.0229],[111.55695,-8.0232],[111.55704,-8.02319],[111.55709,-8.02322],[111.5574,-8.02347],[111.55754,-8.02344],[111.5577,-8.02333],[111.55776,-8.02325],[111.55796,-8.02258],[111.55804,-8.0221],[111.5583,-8.02104],[111.55838,-8.02051],[111.55847,-8.0203],[111.55877,-8.01996],[111.55889,-8.01998],[111.55954,-8.02029],[111.56044,-8.02101],[111.56088,-8.02119],[111.56113,-8.02096],[111.56137,-8.02082],[111.56159,-8.02081],[111.56172,-8.02089],[111.56188,-8.02104],[111.56283,-8.02255],[111.56317,-8.02324],[111.56328,-8.02377],[111.56338,-8.02398],[111.56349,-8.02403],[111.56367,-8.02404],[111.56398,-8.02401],[111.56452,-8.02378],[111.5647,-8.02376],[111.56501,-8.02381],[111.56522,-8.02376],[111.56556,-8.02437],[111.5656,-8.02447],[111.56561,-8.02471],[111.56546,-8.02461],[111.56475,-8.02484],[111.56444,-8.02497],[111.56374,-8.02534],[111.56363,-8.02548],[111.56338,-8.02535],[111.56321,-8.02483],[111.56305,-8.02454],[111.5625,-8.02488],[111.56231,-8.0247],[111.56185,-8.02481],[111.56154,-8.02475],[111.56153,-8.02479],[111.56171,-8.02512],[111.56139,-8.02512],[111.56097,-8.025],[111.56035,-8.02546],[111.55917,-8.02614],[111.55808,-8.02684],[111.55726,-8.0265],[111.55713,-8.02704],[111.55676,-8.02823],[111.55676,-8.02843],[111.55683,-8.02842],[111.55694,-8.0286],[111.55742,-8.02898],[111.55752,-8.02909],[111.55787,-8.02918],[111.55817,-8.0292],[111.55866,-8.02986],[111.55895,-8.03006],[111.55972,-8.03013],[111.56024,-8.02984],[111.56042,-8.02986],[111.5604,-8.03016],[111.56049,-8.03049],[111.56064,-8.03054],[111.56108,-8.03028],[111.56109,-8.03006],[111.56098,-8.0299],[111.56076,-8.02987],[111.56108,-8.02955],[111.56129,-8.02952],[111.56265,-8.02974],[111.56243,-8.03055],[111.56216,-8.03082],[111.56183,-8.03106],[111.56162,-8.03137],[111.56134,-8.03168],[111.56124,-8.03189],[111.56127,-8.03209],[111.56117,-8.03237],[111.56112,-8.03277],[111.56117,-8.033],[111.56127,-8.03313],[111.5614,-8.03323],[111.56149,-8.03322],[111.56202,-8.03273],[111.56276,-8.03276],[111.5636,-8.03263],[111.56421,-8.03266],[111.56481,-8.0328],[111.56526,-8.03295],[111.56596,-8.03308],[111.56633,-8.03355],[111.56716,-8.03334],[111.56757,-8.03307],[111.56838,-8.03323],[111.56885,-8.03297],[111.5693,-8.03256],[111.56911,-8.03231],[111.56867,-8.03241],[111.56823,-8.03236],[111.56835,-8.03204],[111.56947,-8.03139],[111.56967,-8.03182],[111.56979,-8.03236],[111.5698,-8.03263],[111.56968,-8.03256],[111.56954,-8.03266],[111.56953,-8.03271],[111.56943,-8.0334],[111.56914,-8.03413],[111.56914,-8.03464],[111.56932,-8.03489],[111.56955,-8.03508],[111.57074,-8.03545],[111.57097,-8.03526],[111.57108,-8.03522],[111.57172,-8.03547],[111.57209,-8.03569],[111.5725,-8.0361],[111.57276,-8.03647],[111.573,-8.03696],[111.5731,-8.03725],[111.57313,-8.03791],[111.57291,-8.0386],[111.57252,-8.03921],[111.57247,-8.03938],[111.57241,-8.04039],[111.5723,-8.04073],[111.57184,-8.04147],[111.57157,-8.04176],[111.57101,-8.04282],[111.57088,-8.04342],[111.5708,-8.04407],[111.57092,-8.04454],[111.57098,-8.04552],[111.57097,-8.04562],[111.5708,-8.04578],[111.57067,-8.04598],[111.57061,-8.04626],[111.57063,-8.04648],[111.5706,-8.04652],[111.57015,-8.04649],[111.56865,-8.04676],[111.5684,-8.04677],[111.56817,-8.04671],[111.56811,-8.04664],[111.56805,-8.04613],[111.56785,-8.04589],[111.56768,-8.04578],[111.56735,-8.0457],[111.56607,-8.0459],[111.56582,-8.04599],[111.56566,-8.04613],[111.56576,-8.0463],[111.56579,-8.04642],[111.56575,-8.04652],[111.56512,-8.04669],[111.5645,-8.04691],[111.56374,-8.04719],[111.56291,-8.04757],[111.56157,-8.04806],[111.55987,-8.04816],[111.55954,-8.04823],[111.5587,-8.04868],[111.55741,-8.04945],[111.55696,-8.04959],[111.55647,-8.04962],[111.55625,-8.04959],[111.55616,-8.0494],[111.55603,-8.04924],[111.55568,-8.04917],[111.55511,-8.04919],[111.55474,-8.04902],[111.55424,-8.04893],[111.55433,-8.04838],[111.55429,-8.04834],[111.55394,-8.04823],[111.55362,-8.04794],[111.55343,-8.04729],[111.5531,-8.04681],[111.55271,-8.04634],[111.5525,-8.04622],[111.55184,-8.04614],[111.55126,-8.04566],[111.55126,-8.0452],[111.55104,-8.04461],[111.55061,-8.04391],[111.55023,-8.0437],[111.54917,-8.04278],[111.54859,-8.04253],[111.54878,-8.04256],[111.54896,-8.04263],[111.54922,-8.04281],[111.54973,-8.04321],[111.54982,-8.04323],[111.54999,-8.04317],[111.55016,-8.04294],[111.55026,-8.04267],[111.55038,-8.04213],[111.55037,-8.04173],[111.55007,-8.04125],[111.54962,-8.04017],[111.54854,-8.03962],[111.54832,-8.0396],[111.54834,-8.03943],[111.5484,-8.03939],[111.54886,-8.03934],[111.54938,-8.03912],[111.54977,-8.03951],[111.55087,-8.04012],[111.55101,-8.04018],[111.55125,-8.04012],[111.55135,-8.04007],[111.55168,-8.03977],[111.55214,-8.0392],[111.55225,-8.03894],[111.55229,-8.03863],[111.55224,-8.03835],[111.553,-8.03858],[111.55376,-8.03873],[111.55384,-8.03857],[111.55377,-8.03813],[111.55353,-8.0371],[111.55354,-8.03691],[111.55399,-8.03631],[111.55463,-8.03584],[111.55497,-8.03618],[111.55596,-8.03624],[111.55639,-8.036],[111.55686,-8.03578],[111.5575,-8.03566],[111.5587,-8.03584],[111.55966,-8.03587],[111.56045,-8.03577],[111.56091,-8.03526],[111.56103,-8.03486],[111.56107,-8.03441],[111.56093,-8.03419],[111.56095,-8.0338],[111.55946,-8.03381],[111.55848,-8.03367],[111.55689,-8.03337],[111.55537,-8.03337],[111.55402,-8.03367],[111.55317,-8.0336],[111.55217,-8.03367],[111.5514,-8.03391],[111.55088,-8.03436],[111.55009,-8.03587],[111.54993,-8.03661],[111.55002,-8.03708],[111.55035,-8.03757],[111.55082,-8.03797],[111.55125,-8.03817],[111.55108,-8.03813],[111.55007,-8.03808],[111.54897,-8.03754],[111.54865,-8.03757],[111.54858,-8.03812],[111.5485,-8.03829],[111.54814,-8.03833],[111.54738,-8.03819],[111.5473,-8.03822],[111.54716,-8.03837],[111.54703,-8.03843],[111.54645,-8.03839],[111.54618,-8.03843],[111.54612,-8.03846],[111.54605,-8.03859],[111.54558,-8.03849],[111.54507,-8.03842],[111.54524,-8.0382],[111.54528,-8.03809],[111.54521,-8.03787],[111.54524,-8.03761],[111.54558,-8.03596],[111.54557,-8.03571],[111.54596,-8.03545],[111.54679,-8.03528],[111.54689,-8.03494],[111.54658,-8.03494],[111.54612,-8.03482],[111.54584,-8.03482],[111.54499,-8.03467],[111.54468,-8.03421],[111.54441,-8.03341],[111.54436,-8.0332],[111.54433,-8.03193],[111.54443,-8.03118],[111.54448,-8.03084],[111.54475,-8.02988],[111.54497,-8.02923],[111.54507,-8.02908],[111.54566,-8.02855],[111.54585,-8.02831],[111.54666,-8.02795],[111.54715,-8.02781],[111.54773,-8.02772],[111.54837,-8.02768],[111.54883,-8.02781],[111.5492,-8.02803],[111.54927,-8.02812],[111.54929,-8.02824],[111.54959,-8.02896],[111.54969,-8.02937],[111.54973,-8.02972],[111.54986,-8.03036],[111.54993,-8.03101],[111.54981,-8.03139],[111.55016,-8.03145],[111.55051,-8.03159],[111.55105,-8.03209],[111.55125,-8.03181],[111.55144,-8.03217],[111.55153,-8.03225],[111.55186,-8.03243],[111.55211,-8.03263],[111.55234,-8.03265],[111.55252,-8.03272],[111.55274,-8.03264],[111.55347,-8.03214],[111.55378,-8.03203],[111.55504,-8.03185],[111.5552,-8.03177],[111.55526,-8.0317],[111.55519,-8.03155],[111.55408,-8.03057],[111.55337,-8.03009],[111.55299,-8.02972],[111.55185,-8.0293],[111.55163,-8.02908],[111.55148,-8.02885],[111.55129,-8.02817],[111.55113,-8.0274],[111.55116,-8.02713],[111.55125,-8.02696],[111.55147,-8.02674],[111.55179,-8.02655],[111.55202,-8.02657],[111.55242,-8.02671],[111.55256,-8.02666],[111.55273,-8.02648],[111.55278,-8.02631],[111.55271,-8.02604],[111.55248,-8.02573],[111.55168,-8.02506],[111.55163,-8.02497],[111.5516,-8.0247],[111.55188,-8.02453],[111.55259,-8.02504],[111.55302,-8.02499],[111.55324,-8.02505],[111.55404,-8.02535],[111.55458,-8.02561],[111.55486,-8.02606],[111.55534,-8.02626],[111.55563,-8.02646],[111.55586,-8.02614],[111.55621,-8.02639],[111.55661,-8.02636],[111.55672,-8.0259],[111.55681,-8.02479],[111.55675,-8.02447],[111.55627,-8.02415],[111.5559,-8.02447],[111.55589,-8.02426],[111.5558,-8.02393],[111.55552,-8.02338],[111.55519,-8.02258],[111.55513,-8.02209],[111.55548,-8.02201],[111.55542,-8.02179],[111.55538,-8.02137],[111.55504,-8.02121],[111.55504,-8.02107],[111.55518,-8.02056],[111.55546,-8.02],[111.55557,-8.01983],[111.55572,-8.01968],[111.5562,-8.01929],[111.55622,-8.01971],[111.55619,-8.02113],[111.55625,-8.0215],[111.55632,-8.02186],[111.55653,-8.02241],[111.55687,-8.0229]],[[111.55871,-8.02406],[111.55908,-8.02455],[111.55988,-8.02441],[111.56055,-8.02424],[111.56133,-8.02419],[111.56199,-8.02395],[111.56195,-8.02357],[111.56141,-8.02339],[111.56036,-8.02349],[111.5592,-8.0235],[111.55896,-8.0233],[111.55869,-8.02342],[111.55871,-8.02406]],[[111.55294,-8.02839],[111.55372,-8.02854],[111.55403,-8.02778],[111.55496,-8.02803],[111.555,-8.02778],[111.55421,-8.02737],[111.5538,-8.02721],[111.55335,-8.02713],[111.55317,-8.02718],[111.55261,-8.02671],[111.55211,-8.02712],[111.55261,-8.02822],[111.55294,-8.02839]],[[111.5527,-8.02861],[111.55233,-8.02849],[111.55219,-8.02863],[111.55227,-8.0291],[111.55296,-8.02949],[111.55433,-8.02996],[111.55531,-8.03011],[111.55595,-8.03014],[111.55632,-8.02989],[111.55651,-8.02952],[111.55652,-8.02915],[111.55611,-8.02901],[111.55561,-8.02909],[111.5553,-8.0292],[111.55481,-8.0292],[111.55411,-8.02905],[111.55348,-8.02867],[111.55302,-8.02859],[111.5527,-8.02861]],[[111.54932,-8.0324],[111.54943,-8.032],[111.54914,-8.0317],[111.54874,-8.0314],[111.54788,-8.03121],[111.54724,-8.03115],[111.54698,-8.03137],[111.54694,-8.03177],[111.54711,-8.03235],[111.54748,-8.03302],[111.54744,-8.03364],[111.54784,-8.03397],[111.54864,-8.03355],[111.54889,-8.03286],[111.54932,-8.0324]],[[111.54637,-8.03142],[111.54658,-8.03066],[111.54684,-8.0299],[111.54711,-8.0293],[111.54749,-8.02903],[111.54788,-8.02882],[111.54844,-8.02872],[111.54875,-8.02853],[111.54852,-8.02823],[111.54765,-8.02828],[111.54669,-8.02863],[111.54612,-8.0292],[111.54565,-8.03016],[111.54521,-8.03129],[111.54471,-8.03295],[111.5448,-8.03326],[111.54528,-8.03333],[111.54602,-8.03305],[111.54631,-8.03286],[111.54631,-8.03227],[111.54637,-8.03142]],[[111.54839,-8.03095],[111.54896,-8.03096],[111.54912,-8.0309],[111.54932,-8.03069],[111.54934,-8.02966],[111.54908,-8.02937],[111.54874,-8.02943],[111.54858,-8.02958],[111.54834,-8.03016],[111.54824,-8.03063],[111.54839,-8.03095]],[[111.56401,-8.0335],[111.56403,-8.03402],[111.56434,-8.03457],[111.56451,-8.03484],[111.56465,-8.03491],[111.5648,-8.03486],[111.56484,-8.03464],[111.56455,-8.03384],[111.56446,-8.03366],[111.56409,-8.03347],[111.56401,-8.0335]],[[111.567,-8.03439],[111.5671,-8.03464],[111.56779,-8.0349],[111.56785,-8.03518],[111.56768,-8.03555],[111.5673,-8.0358],[111.56649,-8.03615],[111.56626,-8.03638],[111.56614,-8.03665],[111.56535,-8.03684],[111.56505,-8.0372],[111.56511,-8.03774],[111.56609,-8.03871],[111.56644,-8.03876],[111.56712,-8.03852],[111.56745,-8.03806],[111.56713,-8.03759],[111.56738,-8.03744],[111.5676,-8.0374],[111.56779,-8.03708],[111.56792,-8.03672],[111.56814,-8.03666],[111.56862,-8.03675],[111.56938,-8.03703],[111.56963,-8.03725],[111.5697,-8.03741],[111.5702,-8.03739],[111.57,-8.03689],[111.56948,-8.03664],[111.569,-8.03646],[111.56869,-8.03621],[111.56867,-8.03578],[111.56876,-8.03527],[111.56877,-8.03469],[111.56852,-8.03428],[111.56811,-8.03425],[111.56769,-8.03406],[111.56713,-8.03414],[111.567,-8.03439]],[[111.57071,-8.03791],[111.57057,-8.03861],[111.57148,-8.03856],[111.57159,-8.03833],[111.57253,-8.03848],[111.57257,-8.03795],[111.57129,-8.0375],[111.57125,-8.03771],[111.57071,-8.03791]],[[111.56346,-8.03699],[111.56308,-8.03688],[111.563,-8.03666],[111.56226,-8.03661],[111.56193,-8.03665],[111.56087,-8.03693],[111.55978,-8.03735],[111.55925,-8.03765],[111.55866,-8.03785],[111.55714,-8.03785],[111.55533,-8.03813],[111.55537,-8.03868],[111.55562,-8.03903],[111.55541,-8.0398],[111.55537,-8.04024],[111.55523,-8.04096],[111.55555,-8.04116],[111.55521,-8.04177],[111.55608,-8.04198],[111.55579,-8.04258],[111.55649,-8.04273],[111.55685,-8.04262],[111.557,-8.0425],[111.55721,-8.04165],[111.55805,-8.04179],[111.55815,-8.04112],[111.55727,-8.04076],[111.55709,-8.04007],[111.55746,-8.03973],[111.55809,-8.03969],[111.55866,-8.03912],[111.55897,-8.03897],[111.55912,-8.03899],[111.55935,-8.03925],[111.55971,-8.03954],[111.55988,-8.03962],[111.56053,-8.04036],[111.5611,-8.04055],[111.56157,-8.04026],[111.56192,-8.03967],[111.56186,-8.03912],[111.56114,-8.03893],[111.56072,-8.03895],[111.56053,-8.03874],[111.56085,-8.03845],[111.56121,-8.03828],[111.56178,-8.03824],[111.56211,-8.03819],[111.56327,-8.03884],[111.56344,-8.03851],[111.56346,-8.03802],[111.56361,-8.03729],[111.56346,-8.03699]],[[111.56323,-8.03958],[111.56307,-8.04001],[111.56299,-8.03994],[111.56278,-8.03988],[111.56275,-8.03996],[111.56276,-8.04023],[111.56271,-8.04033],[111.56275,-8.04038],[111.56267,-8.04052],[111.5628,-8.04061],[111.56295,-8.04064],[111.56308,-8.04058],[111.56328,-8.04066],[111.56327,-8.04076],[111.56334,-8.04088],[111.56349,-8.04092],[111.56341,-8.04098],[111.56323,-8.04095],[111.5628,-8.04114],[111.56263,-8.04114],[111.56262,-8.04129],[111.56327,-8.04148],[111.56348,-8.0415],[111.56356,-8.04147],[111.5636,-8.04138],[111.56363,-8.04118],[111.56347,-8.04118],[111.56346,-8.04109],[111.56354,-8.04101],[111.56399,-8.04094],[111.56401,-8.04067],[111.56383,-8.04067],[111.56384,-8.04053],[111.56364,-8.04048],[111.56371,-8.04004],[111.56371,-8.03971],[111.56354,-8.03964],[111.56323,-8.03958]],[[111.56987,-8.04075],[111.56968,-8.04108],[111.56978,-8.04124],[111.57032,-8.04153],[111.57043,-8.04147],[111.57051,-8.04153],[111.57075,-8.04121],[111.57077,-8.04111],[111.5706,-8.0409],[111.57044,-8.04097],[111.56987,-8.04075]],[[111.56911,-8.04108],[111.56876,-8.04098],[111.56858,-8.04153],[111.56807,-8.04142],[111.56767,-8.04153],[111.56723,-8.04149],[111.56664,-8.04151],[111.56648,-8.04131],[111.56626,-8.0416],[111.56621,-8.0417],[111.566,-8.04155],[111.56585,-8.04155],[111.56563,-8.04166],[111.56564,-8.04188],[111.56572,-8.04202],[111.56605,-8.04209],[111.56626,-8.04254],[111.56719,-8.04294],[111.56762,-8.04209],[111.56805,-8.04225],[111.56885,-8.04226],[111.56885,-8.04286],[111.56963,-8.04316],[111.5699,-8.04319],[111.57002,-8.04347],[111.57,-8.04348],[111.56997,-8.04385],[111.57008,-8.04405],[111.5702,-8.04406],[111.57034,-8.04392],[111.57022,-8.04359],[111.57023,-8.04276],[111.57017,-8.04228],[111.56988,-8.04232],[111.56986,-8.04199],[111.56913,-8.04179],[111.56911,-8.04108]],[[111.56249,-8.04393],[111.56242,-8.04373],[111.56229,-8.0438],[111.56213,-8.04396],[111.56215,-8.04407],[111.56237,-8.04445],[111.56255,-8.04439],[111.56249,-8.04393]],[[111.56324,-8.04439],[111.56312,-8.04459],[111.56284,-8.04471],[111.56277,-8.0449],[111.56288,-8.04511],[111.56309,-8.0454],[111.56332,-8.0457],[111.56371,-8.04587],[111.56407,-8.04585],[111.56429,-8.04572],[111.56436,-8.04535],[111.56422,-8.04524],[111.56408,-8.04521],[111.56403,-8.0451],[111.56417,-8.04495],[111.5641,-8.04483],[111.56377,-8.04451],[111.56334,-8.04435],[111.56324,-8.04439]],[[111.55968,-8.04468],[111.55943,-8.04463],[111.55918,-8.04481],[111.55918,-8.04511],[111.55987,-8.04529],[111.56017,-8.0452],[111.56002,-8.04486],[111.55968,-8.04468]],[[111.55704,-8.04478],[111.55733,-8.04429],[111.5569,-8.04409],[111.55575,-8.0433],[111.55579,-8.04302],[111.55445,-8.04246],[111.55433,-8.04201],[111.55386,-8.0411],[111.55354,-8.04122],[111.55342,-8.04092],[111.55338,-8.04061],[111.55362,-8.04047],[111.55369,-8.04033],[111.55365,-8.0402],[111.55339,-8.04008],[111.55316,-8.03928],[111.55268,-8.03927],[111.5525,-8.03957],[111.55308,-8.04104],[111.55326,-8.04183],[111.55368,-8.04274],[111.55373,-8.04296],[111.55457,-8.04344],[111.55593,-8.04438],[111.55633,-8.04461],[111.55704,-8.04478]],[[111.56275,-8.04275],[111.5628,-8.04284],[111.56292,-8.0429],[111.56316,-8.04294],[111.56322,-8.04289],[111.56321,-8.04281],[111.56303,-8.0428],[111.56297,-8.04253],[111.56307,-8.04234],[111.56334,-8.04242],[111.5634,-8.04241],[111.56345,-8.04223],[111.56344,-8.04217],[111.56324,-8.04211],[111.56284,-8.04216],[111.56273,-8.04226],[111.56269,-8.0425],[111.56275,-8.04275]],[[111.56447,-8.04242],[111.56469,-8.04265],[111.56481,-8.04305],[111.56492,-8.04325],[111.56517,-8.04323],[111.56527,-8.0429],[111.56499,-8.04249],[111.56512,-8.04202],[111.56532,-8.04166],[111.56525,-8.0414],[111.56502,-8.04115],[111.56488,-8.0412],[111.56473,-8.04115],[111.56461,-8.04146],[111.56447,-8.04242]],[[111.56108,-8.04318],[111.56081,-8.04322],[111.56073,-8.04278],[111.56062,-8.04281],[111.56061,-8.0431],[111.56065,-8.04325],[111.56075,-8.04337],[111.561,-8.04331],[111.56113,-8.04357],[111.56131,-8.04372],[111.56144,-8.04366],[111.56138,-8.04354],[111.56117,-8.04336],[111.56115,-8.04325],[111.56108,-8.04318]],[[111.56418,-8.03665],[111.56435,-8.03689],[111.56511,-8.03646],[111.56552,-8.03643],[111.56608,-8.03593],[111.56662,-8.0356],[111.56704,-8.03539],[111.56701,-8.03501],[111.5668,-8.03464],[111.56474,-8.03512],[111.56411,-8.03592],[111.56432,-8.03631],[111.56418,-8.03665]],[[111.55541,-8.04669],[111.5555,-8.04703],[111.55525,-8.04705],[111.55502,-8.04693],[111.55482,-8.04689],[111.55479,-8.04704],[111.555,-8.04706],[111.55492,-8.04737],[111.55512,-8.0474],[111.5551,-8.04735],[111.55517,-8.04714],[111.55529,-8.04716],[111.55577,-8.04717],[111.55577,-8.04705],[111.55568,-8.04665],[111.55541,-8.04669]],[[111.55663,-8.04692],[111.55682,-8.04694],[111.55685,-8.04728],[111.55718,-8.0473],[111.55721,-8.04733],[111.55714,-8.04746],[111.55698,-8.04751],[111.55659,-8.0475],[111.55634,-8.04768],[111.5564,-8.04804],[111.55659,-8.04857],[111.55681,-8.04893],[111.55703,-8.04921],[111.5573,-8.04927],[111.55773,-8.04904],[111.55769,-8.0488],[111.55763,-8.04864],[111.55749,-8.04837],[111.55716,-8.04795],[111.55705,-8.04769],[111.55729,-8.04754],[111.55735,-8.04743],[111.55737,-8.0472],[111.5571,-8.04717],[111.55705,-8.04715],[111.55696,-8.04706],[111.5569,-8.04682],[111.55677,-8.04679],[111.55662,-8.04681],[111.55663,-8.04692]],[[111.55806,-8.04806],[111.55852,-8.04808],[111.55879,-8.04798],[111.55882,-8.0477],[111.55874,-8.04757],[111.55856,-8.04749],[111.55857,-8.04729],[111.5585,-8.04708],[111.5581,-8.04713],[111.55796,-8.04718],[111.55797,-8.04785],[111.55806,-8.04806]],[[111.55555,-8.04788],[111.55533,-8.04782],[111.55476,-8.04782],[111.55446,-8.04792],[111.55447,-8.04834],[111.55463,-8.04878],[111.55503,-8.04892],[111.5555,-8.04864],[111.55583,-8.04835],[111.55575,-8.04812],[111.55555,-8.04788]],[[111.56076,-8.02194],[111.56062,-8.02187],[111.56044,-8.02204],[111.56055,-8.02269],[111.56069,-8.02305],[111.56096,-8.02317],[111.56135,-8.02313],[111.56181,-8.02276],[111.56165,-8.02236],[111.56141,-8.02213],[111.56099,-8.02212],[111.56076,-8.02194]]]]}}]}