{"type":"FeatureCollection","features":[{"type":"Feature","properties":{"REMARK":"Pemakaman Bukan Umum","_cls":"Pemakaman Bukan Umum"},"geometry":{"type":"Point","coordinates":[111.63224,-7.96926]}},{"type":"Feature","properties":{"REMARK":"Pemakaman Bukan Umum","_cls":"Pemakaman Bukan Umum"},"geometry":{"type":"Point","coordinates":[111.63207,-7.96949]}},{"type":"Feature","properties":{"REMARK":"Pemakaman Bukan Umum","_cls":"Pemakaman Bukan Umum"},"geometry":{"type":"Point","coordinates":[111.63241,-7.96949]}},{"type":"Feature","properties":{"REMARK":"Pemakaman Bukan Umum","_cls":"Pemakaman Bukan Umum"},"geometry":{"type":"Point","coordinates":[111.64833,-7.97559]}},{"type":"Feature","properties":{"REMARK":"Pemakaman Bukan Umum","_cls":"Pemakaman Bukan Umum"},"geometry":{"type":"Point","coordinates":[111.6485,-7.97582]}},{"type":"Feature","properties":{"REMARK":"Pemakaman Bukan Umum","_cls":"Pemakaman Bukan Umum"},"geometry":{"type":"Point","coordinates":[111.64815,-7.97582]}},{"type":"Feature","properties":{"REMARK":"Pemakaman Bukan Umum","_cls":"Pemakaman Bukan Umum"},"geometry":{"type":"Point","coordinates":[111.63866,-7.9894]}},{"type":"Feature","properties":{"REMARK":"Pemakaman Bukan Umum","_cls":"Pemakaman Bukan Umum"},"geometry":{"type":"Point","coordinates":[111.63849,-7.98963]}},{"type":"Feature","properties":{"REMARK":"Pemakaman Bukan Umum","_cls":"Pemakaman Bukan Umum"},"geometry":{"type":"Point","coordinates":[111.63884,-7.98963]}},{"type":"Feature","properties":{"REMARK":"Pemakaman Umum","_cls":"Pemakaman Umum"},"geometry":{"type":"Point","coordinates":[111.65532,-7.99713]}},{"type":"Feature","properties":{"REMARK":"Pemakaman Umum","_cls":"Pemakaman Umum"},"geometry":{"type":"Point","coordinates":[111.65515,-7.99737]}},{"type":"Feature","properties":{"REMARK":"Pemakaman Umum","_cls":"Pemakaman Umum"},"geometry":{"type":"Point","coordinates":[111.65549,-7.99737]}},{"type":"Feature","properties":{"REMARK":"Pemakaman Umum","_cls":"Pemakaman Umum"},"geometry":{"type":"Point","coordinates":[111.65427,-7.99891]}},{"type":"Feature","properties":{"REMARK":"Pemakaman Bukan Umum","_cls":"Pemakaman Bukan Umum"},"geometry":{"type":"Point","coordinates":[111.53865,-7.93648]}},{"type":"Feature","properties":{"REMARK":"Pemakaman Bukan Umum","_cls":"Pemakaman Bukan Umum"},"geometry":{"type":"Point","coordinates":[111.53844,-7.93672]}},{"type":"Feature","properties":{"REMARK":"Pemakaman Bukan Umum","_cls":"Pemakaman Bukan Umum"},"geometry":{"type":"Point","coordinates":[111.53886,-7.93673]}},{"type":"Feature","properties":{"REMARK":"Pemakaman Bukan Umum","_cls":"Pemakaman Bukan Umum"},"geometry":{"type":"Point","coordinates":[111.55901,-7.94321]}},{"type":"Feature","properties":{"REMARK":"Pemakaman Bukan Umum","_cls":"Pemakaman Bukan Umum"},"geometry":{"type":"Point","coordinates":[111.5592,-7.94346]}},{"type":"Feature","properties":{"REMARK":"Pemakaman Bukan Umum","_cls":"Pemakaman Bukan Umum"},"geometry":{"type":"Point","coordinates":[111.5616,-7.94346]}},{"type":"Feature","properties":{"REMARK":"Pemakaman Bukan Umum","_cls":"Pemakaman Bukan Umum"},"geometry":{"type":"Point","coordinates":[111.55881,-7.94347]}},{"type":"Feature","properties":{"REMARK":"Pemakaman Bukan Umum","_cls":"Pemakaman Bukan Umum"},"geometry":{"type":"Point","coordinates":[111.56182,-7.94371]}},{"type":"Feature","properties":{"REMARK":"Pemakaman Bukan Umum","_cls":"Pemakaman Bukan Umum"},"geometry":{"type":"Point","coordinates":[111.56141,-7.94372]}},{"type":"Feature","properties":{"REMARK":"Pemakaman Bukan Umum","_cls":"Pemakaman Bukan Umum"},"geometry":{"type":"Point","coordinates":[111.55431,-7.94671]}},{"type":"Feature","properties":{"REMARK":"Pemakaman Bukan Umum","_cls":"Pemakaman Bukan Umum"},"geometry":{"type":"Point","coordinates":[111.53708,-7.94952]}},{"type":"Feature","properties":{"REMARK":"Pemakaman Bukan Umum","_cls":"Pemakaman Bukan Umum"},"geometry":{"type":"Point","coordinates":[111.53689,-7.94977]}},{"type":"Feature","properties":{"REMARK":"Pemakaman Bukan Umum","_cls":"Pemakaman Bukan Umum"},"geometry":{"type":"Point","coordinates":[111.53728,-7.94978]}},{"type":"Feature","properties":{"REMARK":"Pemakaman Bukan Umum","_cls":"Pemakaman Bukan Umum"},"geometry":{"type":"Point","coordinates":[111.61238,-7.95043]}},{"type":"Feature","properties":{"REMARK":"Pemakaman Bukan Umum","_cls":"Pemakaman Bukan Umum"},"geometry":{"type":"Point","coordinates":[111.6126,-7.95071]}},{"type":"Feature","properties":{"REMARK":"Pemakaman Bukan Umum","_cls":"Pemakaman Bukan Umum"},"geometry":{"type":"Point","coordinates":[111.61215,-7.95072]}},{"type":"Feature","properties":{"REMARK":"Pemakaman Bukan Umum","_cls":"Pemakaman Bukan Umum"},"geometry":{"type":"Point","coordinates":[111.53168,-7.95117]}},{"type":"Feature","properties":{"REMARK":"Pemakaman Bukan Umum","_cls":"Pemakaman Bukan Umum"},"geometry":{"type":"Point","coordinates":[111.53207,-7.95119]}},{"type":"Feature","properties":{"REMARK":"Pemakaman Bukan Umum","_cls":"Pemakaman Bukan Umum"},"geometry":{"type":"Point","coordinates":[111.5449,-7.95394]}},{"type":"Feature","properties":{"REMARK":"Pemakaman Bukan Umum","_cls":"Pemakaman Bukan Umum"},"geometry":{"type":"Point","coordinates":[111.56701,-7.96776]}},{"type":"Feature","properties":{"REMARK":"Pemakaman Bukan Umum","_cls":"Pemakaman Bukan Umum"},"geometry":{"type":"Point","coordinates":[111.54782,-7.96822]}},{"type":"Feature","properties":{"REMARK":"Pemakaman Bukan Umum","_cls":"Pemakaman Bukan Umum"},"geometry":{"type":"Point","coordinates":[111.54763,-7.96846]}},{"type":"Feature","properties":{"REMARK":"Pemakaman Bukan Umum","_cls":"Pemakaman Bukan Umum"},"geometry":{"type":"Point","coordinates":[111.54805,-7.96847]}},{"type":"Feature","properties":{"REMARK":"Pemakaman Bukan Umum","_cls":"Pemakaman Bukan Umum"},"geometry":{"type":"Point","coordinates":[111.5615,-7.97071]}},{"type":"Feature","properties":{"REMARK":"Pemakaman Bukan Umum","_cls":"Pemakaman Bukan Umum"},"geometry":{"type":"Point","coordinates":[111.61414,-7.97373]}},{"type":"Feature","properties":{"REMARK":"Pemakaman Bukan Umum","_cls":"Pemakaman Bukan Umum"},"geometry":{"type":"Point","coordinates":[111.61394,-7.97398]}},{"type":"Feature","properties":{"REMARK":"Pemakaman Bukan Umum","_cls":"Pemakaman Bukan Umum"},"geometry":{"type":"Point","coordinates":[111.61439,-7.974]}},{"type":"Feature","properties":{"REMARK":"Pemakaman Bukan Umum","_cls":"Pemakaman Bukan Umum"},"geometry":{"type":"Point","coordinates":[111.60942,-7.97562]}},{"type":"Feature","properties":{"REMARK":"Pemakaman Bukan Umum","_cls":"Pemakaman Bukan Umum"},"geometry":{"type":"Point","coordinates":[111.60962,-7.97586]}},{"type":"Feature","properties":{"REMARK":"Pemakaman Bukan Umum","_cls":"Pemakaman Bukan Umum"},"geometry":{"type":"Point","coordinates":[111.60921,-7.97588]}},{"type":"Feature","properties":{"REMARK":"Pemakaman Bukan Umum","_cls":"Pemakaman Bukan Umum"},"geometry":{"type":"Point","coordinates":[111.53198,-7.97689]}},{"type":"Feature","properties":{"REMARK":"Pemakaman Bukan Umum","_cls":"Pemakaman Bukan Umum"},"geometry":{"type":"Point","coordinates":[111.53177,-7.97712]}},{"type":"Feature","properties":{"REMARK":"Pemakaman Bukan Umum","_cls":"Pemakaman Bukan Umum"},"geometry":{"type":"Point","coordinates":[111.53219,-7.97712]}},{"type":"Feature","properties":{"REMARK":"Pemakaman Bukan Umum","_cls":"Pemakaman Bukan Umum"},"geometry":{"type":"Point","coordinates":[111.60479,-7.97759]}},{"type":"Feature","properties":{"REMARK":"Pemakaman Bukan Umum","_cls":"Pemakaman Bukan Umum"},"geometry":{"type":"Point","coordinates":[111.60459,-7.97781]}},{"type":"Feature","properties":{"REMARK":"Pemakaman Bukan Umum","_cls":"Pemakaman Bukan Umum"},"geometry":{"type":"Point","coordinates":[111.60498,-7.97782]}},{"type":"Feature","properties":{"REMARK":"Pemakaman Bukan Umum","_cls":"Pemakaman Bukan Umum"},"geometry":{"type":"Point","coordinates":[111.53756,-7.98696]}},{"type":"Feature","properties":{"REMARK":"Pemakaman Bukan Umum","_cls":"Pemakaman Bukan Umum"},"geometry":{"type":"Point","coordinates":[111.57987,-7.98921]}},{"type":"Feature","properties":{"REMARK":"Pemakaman Bukan Umum","_cls":"Pemakaman Bukan Umum"},"geometry":{"type":"Point","coordinates":[111.61134,-7.99255]}},{"type":"Feature","properties":{"REMARK":"Pemakaman Bukan Umum","_cls":"Pemakaman Bukan Umum"},"geometry":{"type":"Point","coordinates":[111.61114,-7.99279]}},{"type":"Feature","properties":{"REMARK":"Pemakaman Bukan Umum","_cls":"Pemakaman Bukan Umum"},"geometry":{"type":"Point","coordinates":[111.61154,-7.99279]}},{"type":"Feature","properties":{"REMARK":"Pemakaman Bukan Umum","_cls":"Pemakaman Bukan Umum"},"geometry":{"type":"Point","coordinates":[111.55684,-8.00395]}},{"type":"Feature","properties":{"REMARK":"Pemakaman Bukan Umum","_cls":"Pemakaman Bukan Umum"},"geometry":{"type":"Point","coordinates":[111.56686,-8.00641]}},{"type":"Feature","properties":{"REMARK":"Pemakaman Bukan Umum","_cls":"Pemakaman Bukan Umum"},"geometry":{"type":"Point","coordinates":[111.60425,-8.00788]}},{"type":"Feature","properties":{"REMARK":"Pemakaman Bukan Umum","_cls":"Pemakaman Bukan Umum"},"geometry":{"type":"Point","coordinates":[111.5587,-8.01071]}},{"type":"Feature","properties":{"REMARK":"Pemakaman Bukan Umum","_cls":"Pemakaman Bukan Umum"},"geometry":{"type":"Point","coordinates":[111.57084,-8.01301]}},{"type":"Feature","properties":{"REMARK":"Pemakaman Bukan Umum","_cls":"Pemakaman Bukan Umum"},"geometry":{"type":"Point","coordinates":[111.55058,-8.01371]}},{"type":"Feature","properties":{"REMARK":"Pemakaman Bukan Umum","_cls":"Pemakaman Bukan Umum"},"geometry":{"type":"Point","coordinates":[111.59489,-8.01557]}},{"type":"Feature","properties":{"REMARK":"Pemakaman Bukan Umum","_cls":"Pemakaman Bukan Umum"},"geometry":{"type":"Point","coordinates":[111.60301,-8.01708]}},{"type":"Feature","properties":{"REMARK":"Pemakaman Bukan Umum","_cls":"Pemakaman Bukan Umum"},"geometry":{"type":"Point","coordinates":[111.57174,-8.0213]}},{"type":"Feature","properties":{"REMARK":"Pemakaman Bukan Umum","_cls":"Pemakaman Bukan Umum"},"geometry":{"type":"Point","coordinates":[111.5805,-8.02479]}},{"type":"Feature","properties":{"REMARK":"Pemakaman Bukan Umum","_cls":"Pemakaman Bukan Umum"},"geometry":{"type":"Point","coordinates":[111.5547,-8.03928]}},{"type":"Feature","properties":{"REMARK":"Pemakaman Bukan Umum","_cls":"Pemakaman Bukan Umum"},"geometry":{"type":"Point","coordinates":[111.56779,-8.04223]}}]}