{"type":"FeatureCollection","features":[{"type":"Feature","properties":{"REMARK":"Pusat Bisnis dan Perdagangan Lainnya"},"geometry":{"type":"Point","coordinates":[111.63835,-7.98452]}},{"type":"Feature","properties":{"REMARK":"Pusat Bisnis dan Perdagangan Lainnya"},"geometry":{"type":"Point","coordinates":[111.62047,-7.96307]}},{"type":"Feature","properties":{"REMARK":"Pusat Bisnis dan Perdagangan Lainnya"},"geometry":{"type":"Point","coordinates":[111.57534,-7.97569]}},{"type":"Feature","properties":{"REMARK":"Pusat Bisnis dan Perdagangan Lainnya"},"geometry":{"type":"Point","coordinates":[111.53602,-7.97832]}},{"type":"Feature","properties":{"REMARK":"Pusat Bisnis dan Perdagangan Lainnya"},"geometry":{"type":"Point","coordinates":[111.60723,-7.98869]}}]}