{"type":"FeatureCollection","features":[{"type":"Feature","properties":{"simobj":"JM 42","namobj":"Tenggara Gunung Liman","jenispthn":"Aktif","pjgpthn":40,"remark":"Mendatar Mengiri","lokasi":"Kabupaten Tulungagung dan Kediri","geologi":"Mematahkan batuan Gunung Api tua - Muda Liman (Pleistosen - Holosen),","sjrhgempa":"Gempa bumi Campurdarat 7 Mei 1961 (V MMI di Campurdarat)"},"geometry":{"type":"LineString","coordinates":[[111.65624,-7.99345],[111.65509,-7.9945]]}},{"type":"Feature","properties":{"simobj":"JM 42","namobj":"Tenggara Gunung Liman","jenispthn":"Aktif","pjgpthn":40,"remark":"Mendatar Mengiri","lokasi":"Kabupaten Tulungagung dan Kediri","geologi":"Mematahkan batuan Gunung Api tua - Muda Liman (Pleistosen - Holosen),","sjrhgempa":"Gempa bumi Campurdarat 7 Mei 1961 (V MMI di Campurdarat)"},"geometry":{"type":"LineString","coordinates":[[111.56551,-8.00141],[111.53954,-8.03186]]}}]}