{"type":"FeatureCollection","features":[{"type":"Feature","properties":{"kode_prov":35},"geometry":{"type":"Polygon","coordinates":[[[111.57473,-7.94305],[111.57468,-7.94505],[111.57306,-7.94494],[111.57297,-7.94405],[111.57301,-7.94385],[111.57326,-7.9435],[111.57427,-7.94233],[111.57472,-7.94235],[111.57473,-7.94305]]]}},{"type":"Feature","properties":{"kode_prov":35},"geometry":{"type":"Polygon","coordinates":[[[111.57928,-7.93995],[111.57949,-7.94053],[111.57964,-7.94117],[111.57821,-7.94116],[111.57732,-7.94144],[111.57689,-7.94097],[111.57678,-7.94048],[111.57636,-7.94027],[111.57612,-7.9401],[111.57586,-7.94022],[111.57571,-7.94021],[111.57585,-7.93964],[111.57598,-7.93929],[111.5763,-7.93875],[111.57648,-7.93853],[111.57759,-7.93822],[111.57765,-7.93899],[111.57811,-7.9397],[111.57928,-7.93995]]]}},{"type":"Feature","properties":{"kode_prov":35},"geometry":{"type":"Polygon","coordinates":[[[111.57292,-7.94495],[111.57242,-7.94497],[111.5713,-7.94492],[111.56924,-7.94471],[111.56931,-7.94403],[111.5697,-7.94327],[111.57007,-7.94267],[111.57107,-7.94255],[111.57209,-7.94249],[111.5728,-7.9422],[111.57314,-7.94136],[111.57404,-7.94115],[111.57486,-7.94092],[111.57549,-7.94049],[111.57535,-7.93879],[111.57523,-7.93853],[111.57526,-7.93816],[111.57585,-7.93792],[111.57654,-7.93772],[111.57733,-7.93815],[111.57671,-7.93832],[111.57641,-7.93845],[111.5762,-7.93869],[111.57588,-7.93926],[111.57575,-7.93963],[111.57551,-7.94051],[111.57507,-7.94123],[111.5738,-7.94271],[111.57345,-7.94307],[111.57315,-7.94343],[111.57291,-7.94379],[111.57286,-7.94407],[111.57292,-7.94495]]]}}]}