{"type":"FeatureCollection","features":[{"type":"Feature","properties":{"REMARK":"Kantor Kepala Desa","_cls":"Kantor Kepala Desa"},"geometry":{"type":"Point","coordinates":[111.62767,-7.97806]}},{"type":"Feature","properties":{"REMARK":"Kantor Kepala Desa","_cls":"Kantor Kepala Desa"},"geometry":{"type":"Point","coordinates":[111.6374,-7.99228]}},{"type":"Feature","properties":{"REMARK":"Kantor Kepala Desa","_cls":"Kantor Kepala Desa"},"geometry":{"type":"Point","coordinates":[111.5379,-7.93869]}},{"type":"Feature","properties":{"REMARK":"Kantor Kepala Desa","_cls":"Kantor Kepala Desa"},"geometry":{"type":"Point","coordinates":[111.56048,-7.94591]}},{"type":"Feature","properties":{"REMARK":"Kantor Kepala Desa","_cls":"Kantor Kepala Desa"},"geometry":{"type":"Point","coordinates":[111.54451,-7.94751]}},{"type":"Feature","properties":{"REMARK":"Kantor Kepala Desa","_cls":"Kantor Kepala Desa"},"geometry":{"type":"Point","coordinates":[111.53643,-7.95095]}},{"type":"Feature","properties":{"REMARK":"Kantor Kepala Desa","_cls":"Kantor Kepala Desa"},"geometry":{"type":"Point","coordinates":[111.61705,-7.96512]}},{"type":"Feature","properties":{"REMARK":"Kantor Kepala Desa","_cls":"Kantor Kepala Desa"},"geometry":{"type":"Point","coordinates":[111.5573,-7.96815]}},{"type":"Feature","properties":{"REMARK":"Kantor Kepala Desa","_cls":"Kantor Kepala Desa"},"geometry":{"type":"Point","coordinates":[111.53565,-7.97453]}},{"type":"Feature","properties":{"REMARK":"Kantor Camat","_cls":"Kantor Camat"},"geometry":{"type":"Point","coordinates":[111.57525,-7.97628]}},{"type":"Feature","properties":{"REMARK":"Kantor Kepala Desa","_cls":"Kantor Kepala Desa"},"geometry":{"type":"Point","coordinates":[111.57434,-7.97663]}},{"type":"Feature","properties":{"REMARK":"Kantor Polisi","_cls":"Kantor Polisi"},"geometry":{"type":"Point","coordinates":[111.57521,-7.97682]}},{"type":"Feature","properties":{"REMARK":"Kantor Kepala Desa","_cls":"Kantor Kepala Desa"},"geometry":{"type":"Point","coordinates":[111.5437,-7.97849]}},{"type":"Feature","properties":{"REMARK":"Kantor Kepala Desa","_cls":"Kantor Kepala Desa"},"geometry":{"type":"Point","coordinates":[111.60769,-7.98844]}},{"type":"Feature","properties":{"REMARK":"Kantor Kepala Desa","_cls":"Kantor Kepala Desa"},"geometry":{"type":"Point","coordinates":[111.57921,-8.02231]}},{"type":"Feature","properties":{"REMARK":"Kantor Kepala Desa","_cls":"Kantor Kepala Desa"},"geometry":{"type":"Point","coordinates":[111.5609,-8.03088]}}]}