{"type":"FeatureCollection","features":[{"type":"Feature","properties":{"REMARK":"Pendidikan/Penelitian Lainnya","JJGPDF":999},"geometry":{"type":"Point","coordinates":[111.64011,-7.97361]}},{"type":"Feature","properties":{"REMARK":"Pendidikan/Penelitian Lainnya","JJGPDF":999},"geometry":{"type":"Point","coordinates":[111.62622,-7.97817]}},{"type":"Feature","properties":{"REMARK":"Pendidikan/Penelitian Lainnya","JJGPDF":999},"geometry":{"type":"Point","coordinates":[111.6273,-7.97846]}},{"type":"Feature","properties":{"REMARK":"Pendidikan/Penelitian Lainnya","JJGPDF":999},"geometry":{"type":"Point","coordinates":[111.63228,-7.99105]}},{"type":"Feature","properties":{"REMARK":"Pendidikan/Penelitian Lainnya","JJGPDF":999},"geometry":{"type":"Point","coordinates":[111.63661,-7.99114]}},{"type":"Feature","properties":{"REMARK":"Pendidikan/Penelitian Lainnya","JJGPDF":999},"geometry":{"type":"Point","coordinates":[111.55406,-7.928]}},{"type":"Feature","properties":{"REMARK":"Pendidikan/Penelitian Lainnya","JJGPDF":999},"geometry":{"type":"Point","coordinates":[111.53955,-7.93859]}},{"type":"Feature","properties":{"REMARK":"Pendidikan/Penelitian Lainnya","JJGPDF":999},"geometry":{"type":"Point","coordinates":[111.56561,-7.94147]}},{"type":"Feature","properties":{"REMARK":"Pendidikan/Penelitian Lainnya","JJGPDF":999},"geometry":{"type":"Point","coordinates":[111.54075,-7.94797]}},{"type":"Feature","properties":{"REMARK":"Pendidikan/Penelitian Lainnya","JJGPDF":999},"geometry":{"type":"Point","coordinates":[111.62172,-7.94893]}},{"type":"Feature","properties":{"REMARK":"Pendidikan/Penelitian Lainnya","JJGPDF":999},"geometry":{"type":"Point","coordinates":[111.53644,-7.95151]}},{"type":"Feature","properties":{"REMARK":"Pendidikan/Penelitian Lainnya","JJGPDF":999},"geometry":{"type":"Point","coordinates":[111.54683,-7.95474]}},{"type":"Feature","properties":{"REMARK":"Pendidikan/Penelitian Lainnya","JJGPDF":999},"geometry":{"type":"Point","coordinates":[111.61448,-7.96069]}},{"type":"Feature","properties":{"REMARK":"Pendidikan/Penelitian Lainnya","JJGPDF":999},"geometry":{"type":"Point","coordinates":[111.55826,-7.9621]}},{"type":"Feature","properties":{"REMARK":"Pendidikan/Penelitian Lainnya","JJGPDF":999},"geometry":{"type":"Point","coordinates":[111.61847,-7.96463]}},{"type":"Feature","properties":{"REMARK":"Pendidikan/Penelitian Lainnya","JJGPDF":999},"geometry":{"type":"Point","coordinates":[111.55767,-7.96915]}},{"type":"Feature","properties":{"REMARK":"Pendidikan/Penelitian Lainnya","JJGPDF":999},"geometry":{"type":"Point","coordinates":[111.54934,-7.9716]}},{"type":"Feature","properties":{"REMARK":"Pendidikan/Penelitian Lainnya","JJGPDF":999},"geometry":{"type":"Point","coordinates":[111.56959,-7.97273]}},{"type":"Feature","properties":{"REMARK":"Pendidikan/Penelitian Lainnya","JJGPDF":999},"geometry":{"type":"Point","coordinates":[111.53668,-7.97444]}},{"type":"Feature","properties":{"REMARK":"Pendidikan/Penelitian Lainnya","JJGPDF":999},"geometry":{"type":"Point","coordinates":[111.57513,-7.97815]}},{"type":"Feature","properties":{"REMARK":"Pendidikan/Penelitian Lainnya","JJGPDF":999},"geometry":{"type":"Point","coordinates":[111.53622,-7.98227]}},{"type":"Feature","properties":{"REMARK":"Pendidikan/Penelitian Lainnya","JJGPDF":999},"geometry":{"type":"Point","coordinates":[111.6096,-7.98332]}},{"type":"Feature","properties":{"REMARK":"Pendidikan/Penelitian Lainnya","JJGPDF":999},"geometry":{"type":"Point","coordinates":[111.58499,-7.98513]}},{"type":"Feature","properties":{"REMARK":"Pendidikan/Penelitian Lainnya","JJGPDF":999},"geometry":{"type":"Point","coordinates":[111.61208,-7.98572]}},{"type":"Feature","properties":{"REMARK":"Pendidikan/Penelitian Lainnya","JJGPDF":999},"geometry":{"type":"Point","coordinates":[111.53666,-7.98882]}},{"type":"Feature","properties":{"REMARK":"Pendidikan/Penelitian Lainnya","JJGPDF":999},"geometry":{"type":"Point","coordinates":[111.60658,-7.98895]}},{"type":"Feature","properties":{"REMARK":"Pendidikan/Penelitian Lainnya","JJGPDF":999},"geometry":{"type":"Point","coordinates":[111.61152,-7.98971]}},{"type":"Feature","properties":{"REMARK":"Pendidikan/Penelitian Lainnya","JJGPDF":999},"geometry":{"type":"Point","coordinates":[111.579,-7.99606]}},{"type":"Feature","properties":{"REMARK":"Pendidikan/Penelitian Lainnya","JJGPDF":999},"geometry":{"type":"Point","coordinates":[111.57756,-8.00114]}},{"type":"Feature","properties":{"REMARK":"Pendidikan/Penelitian Lainnya","JJGPDF":999},"geometry":{"type":"Point","coordinates":[111.57077,-8.00615]}},{"type":"Feature","properties":{"REMARK":"Pendidikan/Penelitian Lainnya","JJGPDF":999},"geometry":{"type":"Point","coordinates":[111.60607,-8.00731]}},{"type":"Feature","properties":{"REMARK":"Pendidikan/Penelitian Lainnya","JJGPDF":999},"geometry":{"type":"Point","coordinates":[111.54776,-8.01572]}},{"type":"Feature","properties":{"REMARK":"Pendidikan/Penelitian Lainnya","JJGPDF":999},"geometry":{"type":"Point","coordinates":[111.57841,-8.0169]}},{"type":"Feature","properties":{"REMARK":"Pendidikan/Penelitian Lainnya","JJGPDF":999},"geometry":{"type":"Point","coordinates":[111.58811,-8.02077]}},{"type":"Feature","properties":{"REMARK":"Pendidikan/Penelitian Lainnya","JJGPDF":999},"geometry":{"type":"Point","coordinates":[111.56674,-8.03286]}},{"type":"Feature","properties":{"REMARK":"Pendidikan/Penelitian Lainnya","JJGPDF":999},"geometry":{"type":"Point","coordinates":[111.56481,-8.03636]}}]}