{"type":"FeatureCollection","features":[{"type":"Feature","properties":{"REMARK":"Perkebunan/Kebun"},"geometry":{"type":"Polygon","coordinates":[[[111.59974,-7.93333],[111.59998,-7.93397],[111.60004,-7.93433],[111.60016,-7.93453],[111.60038,-7.93471],[111.60064,-7.93482],[111.60088,-7.93487],[111.60097,-7.93486],[111.6013,-7.93441],[111.60147,-7.93431],[111.60254,-7.93428],[111.60303,-7.93377],[111.60318,-7.93378],[111.60397,-7.93441],[111.60414,-7.9347],[111.60435,-7.93553],[111.60455,-7.93574],[111.60481,-7.93592],[111.6051,-7.93601],[111.60567,-7.93609],[111.60596,-7.93609],[111.60618,-7.93597],[111.6063,-7.93584],[111.60641,-7.93516],[111.60647,-7.93502],[111.60663,-7.93493],[111.60697,-7.93513],[111.60722,-7.93535],[111.60753,-7.93573],[111.6078,-7.93599],[111.60858,-7.93642],[111.60867,-7.93644],[111.60901,-7.93625],[111.60996,-7.93594],[111.61034,-7.93591],[111.61104,-7.93713],[111.61119,-7.9373],[111.61097,-7.93756],[111.61107,-7.93862],[111.61113,-7.93876],[111.61122,-7.93885],[111.61171,-7.93895],[111.61186,-7.93905],[111.61216,-7.93949],[111.6123,-7.93959],[111.6127,-7.94017],[111.61274,-7.94039],[111.61282,-7.94182],[111.6129,-7.94233],[111.61304,-7.94271],[111.61303,-7.94287],[111.61292,-7.94308],[111.61273,-7.94325],[111.61229,-7.94349],[111.61211,-7.94363],[111.61202,-7.94375],[111.612,-7.94393],[111.6121,-7.94431],[111.61226,-7.94471],[111.61229,-7.94531],[111.61215,-7.94586],[111.61228,-7.94625],[111.61227,-7.94648],[111.6122,-7.94665],[111.61185,-7.94719],[111.61152,-7.94782],[111.61119,-7.94826],[111.61103,-7.94856],[111.61063,-7.94887],[111.61006,-7.94944],[111.60995,-7.94957],[111.60988,-7.94974],[111.60978,-7.95011],[111.60951,-7.95012],[111.60955,-7.95024],[111.60955,-7.95031],[111.60895,-7.9508],[111.60845,-7.95113],[111.60768,-7.95138],[111.60733,-7.95152],[111.60676,-7.9516],[111.60616,-7.95161],[111.60496,-7.95152],[111.60465,-7.95162],[111.60454,-7.9517],[111.60442,-7.95166],[111.60391,-7.95132],[111.60297,-7.95115],[111.6025,-7.95123],[111.60148,-7.95165],[111.60129,-7.952],[111.60119,-7.95231],[111.60093,-7.95348],[111.60089,-7.95397],[111.60108,-7.95476],[111.60105,-7.95489],[111.60079,-7.95539],[111.60073,-7.95566],[111.60075,-7.95599],[111.60106,-7.95621],[111.60104,-7.9566],[111.60051,-7.95706],[111.60027,-7.95746],[111.60009,-7.95806],[111.60002,-7.95816],[111.59949,-7.95848],[111.59921,-7.95881],[111.59867,-7.95927],[111.59853,-7.95943],[111.59835,-7.95976],[111.5982,-7.9599],[111.59766,-7.96015],[111.59753,-7.96042],[111.59754,-7.96155],[111.59745,-7.96189],[111.59752,-7.96256],[111.59759,-7.96278],[111.59766,-7.9629],[111.59778,-7.96299],[111.59845,-7.96304],[111.59871,-7.96322],[111.59876,-7.96332],[111.59901,-7.96353],[111.59919,-7.96364],[111.59954,-7.96376],[111.60019,-7.96383],[111.5999,-7.9647],[111.59971,-7.96504],[111.59944,-7.96532],[111.59934,-7.9653],[111.59879,-7.96548],[111.5987,-7.96555],[111.5986,-7.96572],[111.59814,-7.96569],[111.59774,-7.96578],[111.59753,-7.96591],[111.59719,-7.96651],[111.597,-7.96664],[111.59674,-7.96674],[111.59582,-7.96693],[111.5954,-7.96694],[111.59518,-7.96686],[111.59488,-7.96665],[111.59463,-7.96638],[111.59418,-7.96572],[111.5938,-7.96507],[111.59378,-7.96484],[111.59414,-7.96385],[111.59419,-7.96336],[111.59416,-7.96289],[111.59406,-7.96265],[111.5938,-7.96226],[111.59363,-7.96212],[111.59326,-7.96189],[111.59229,-7.96161],[111.59212,-7.96146],[111.59206,-7.96133],[111.59204,-7.96111],[111.59205,-7.96022],[111.5921,-7.95968],[111.59264,-7.9586],[111.59334,-7.9583],[111.59342,-7.95816],[111.59373,-7.95706],[111.59396,-7.95675],[111.59415,-7.9566],[111.59492,-7.9562],[111.59508,-7.95605],[111.59509,-7.95595],[111.59503,-7.95572],[111.59461,-7.95488],[111.59461,-7.95467],[111.59476,-7.95399],[111.59469,-7.95313],[111.5946,-7.95294],[111.59447,-7.95285],[111.59433,-7.95282],[111.59414,-7.95286],[111.59379,-7.95315],[111.59359,-7.9532],[111.59348,-7.95318],[111.59338,-7.9531],[111.59267,-7.95193],[111.59249,-7.95149],[111.59245,-7.95131],[111.59257,-7.95068],[111.59255,-7.95009],[111.59186,-7.94774],[111.59142,-7.94668],[111.59131,-7.94655],[111.59077,-7.94617],[111.58994,-7.94568],[111.5897,-7.94547],[111.58949,-7.94512],[111.58929,-7.9449],[111.58841,-7.9441],[111.58834,-7.94391],[111.58832,-7.9437],[111.58851,-7.94228],[111.58855,-7.94138],[111.58846,-7.94116],[111.58829,-7.94088],[111.5875,-7.93993],[111.58717,-7.93924],[111.58663,-7.93839],[111.58662,-7.93821],[111.5867,-7.93803],[111.58722,-7.93735],[111.58747,-7.93727],[111.58759,-7.93748],[111.58779,-7.93771],[111.58821,-7.93797],[111.58844,-7.93806],[111.58877,-7.93806],[111.58937,-7.93748],[111.58975,-7.937],[111.59005,-7.93695],[111.59209,-7.93712],[111.59257,-7.93713],[111.5932,-7.93702],[111.59334,-7.93692],[111.59345,-7.93672],[111.59358,-7.93617],[111.5935,-7.93511],[111.59355,-7.93492],[111.59392,-7.93441],[111.59438,-7.93421],[111.59499,-7.93404],[111.59508,-7.93392],[111.59522,-7.9335],[111.59538,-7.93337],[111.59548,-7.93333],[111.59628,-7.9334],[111.59723,-7.93307],[111.59786,-7.933],[111.59955,-7.93311],[111.59974,-7.93333]]]}},{"type":"Feature","properties":{"REMARK":"Perkebunan/Kebun"},"geometry":{"type":"Polygon","coordinates":[[[111.56445,-7.96317],[111.56517,-7.96228],[111.56567,-7.96173],[111.56467,-7.96093],[111.56432,-7.9606],[111.56367,-7.95984],[111.56377,-7.95973],[111.56423,-7.95863],[111.56425,-7.95829],[111.56499,-7.95815],[111.56523,-7.95805],[111.56502,-7.95746],[111.56474,-7.95687],[111.56423,-7.95616],[111.56381,-7.95531],[111.56524,-7.9537],[111.56542,-7.95355],[111.56662,-7.95328],[111.56678,-7.95319],[111.56689,-7.95304],[111.56735,-7.95191],[111.56769,-7.95137],[111.5688,-7.95003],[111.56954,-7.94936],[111.5708,-7.94835],[111.57136,-7.94801],[111.57146,-7.9479],[111.57153,-7.94753],[111.57149,-7.94693],[111.57154,-7.94561],[111.57172,-7.94562],[111.57204,-7.9457],[111.57284,-7.94601],[111.57316,-7.94626],[111.57352,-7.94674],[111.57382,-7.94755],[111.57395,-7.94811],[111.57408,-7.95007],[111.57412,-7.95013],[111.57404,-7.95043],[111.57387,-7.95314],[111.57392,-7.95612],[111.57385,-7.95669],[111.57355,-7.95817],[111.57357,-7.95842],[111.57371,-7.95883],[111.57419,-7.95996],[111.5741,-7.96036],[111.57396,-7.96032],[111.57377,-7.96036],[111.57363,-7.96046],[111.57345,-7.96068],[111.57321,-7.96105],[111.57307,-7.96139],[111.57295,-7.96202],[111.57286,-7.96225],[111.57267,-7.96238],[111.57252,-7.96238],[111.57227,-7.96217],[111.5716,-7.96228],[111.57147,-7.96221],[111.57146,-7.96215],[111.57154,-7.96186],[111.57149,-7.96174],[111.57131,-7.96156],[111.57069,-7.96217],[111.57054,-7.96221],[111.57036,-7.96219],[111.5699,-7.96207],[111.56892,-7.96229],[111.56868,-7.96251],[111.56863,-7.96263],[111.56828,-7.96259],[111.56729,-7.96346],[111.56659,-7.96415],[111.56597,-7.96396],[111.56445,-7.96317]]]}},{"type":"Feature","properties":{"REMARK":"Perkebunan/Kebun"},"geometry":{"type":"Polygon","coordinates":[[[111.62102,-7.95571],[111.62057,-7.95645],[111.62001,-7.95756],[111.61986,-7.95775],[111.61911,-7.9574],[111.61825,-7.95708],[111.617,-7.95689],[111.61683,-7.95622],[111.61674,-7.95598],[111.61514,-7.95573],[111.61509,-7.95644],[111.61465,-7.95637],[111.61472,-7.95594],[111.61376,-7.95579],[111.61391,-7.95503],[111.61329,-7.95504],[111.61278,-7.95616],[111.6127,-7.95672],[111.61212,-7.95648],[111.61194,-7.95644],[111.61212,-7.95543],[111.61239,-7.95477],[111.61196,-7.95454],[111.61241,-7.95401],[111.61298,-7.95313],[111.6129,-7.95212],[111.61296,-7.9509],[111.613,-7.95066],[111.61323,-7.95039],[111.61325,-7.95011],[111.61277,-7.94909],[111.61271,-7.94891],[111.61277,-7.9486],[111.61284,-7.94846],[111.61335,-7.94796],[111.61373,-7.94825],[111.61431,-7.94792],[111.61456,-7.94784],[111.61498,-7.94785],[111.61539,-7.94792],[111.61551,-7.948],[111.61546,-7.94857],[111.61603,-7.94877],[111.61637,-7.94902],[111.6166,-7.9491],[111.61679,-7.94898],[111.61686,-7.94816],[111.61683,-7.94791],[111.61888,-7.94696],[111.61911,-7.9469],[111.6194,-7.94693],[111.61974,-7.94708],[111.6197,-7.94782],[111.61987,-7.94786],[111.61983,-7.94814],[111.61946,-7.94819],[111.61934,-7.9486],[111.61932,-7.94882],[111.62011,-7.94884],[111.62058,-7.94891],[111.62068,-7.94925],[111.62121,-7.9495],[111.62119,-7.94956],[111.62121,-7.9499],[111.62128,-7.95025],[111.62113,-7.95122],[111.62113,-7.95163],[111.62148,-7.95187],[111.62153,-7.95199],[111.62151,-7.95214],[111.62136,-7.95233],[111.62111,-7.95252],[111.6209,-7.95278],[111.62083,-7.95296],[111.62082,-7.95318],[111.62109,-7.95473],[111.62106,-7.95504],[111.62111,-7.95526],[111.62095,-7.95563],[111.62102,-7.95571]],[[111.61804,-7.95394],[111.61625,-7.95371],[111.61521,-7.95376],[111.61464,-7.95407],[111.61495,-7.95425],[111.6154,-7.9542],[111.6166,-7.95434],[111.61669,-7.95495],[111.61767,-7.95527],[111.6178,-7.95499],[111.61804,-7.95394]]]}},{"type":"Feature","properties":{"REMARK":"Perkebunan/Kebun"},"geometry":{"type":"Polygon","coordinates":[[[111.6241,-7.95057],[111.6235,-7.95088],[111.62336,-7.95106],[111.62315,-7.95108],[111.62295,-7.95134],[111.62269,-7.9515],[111.62256,-7.95151],[111.62283,-7.95086],[111.62296,-7.95065],[111.62357,-7.95002],[111.62393,-7.94973],[111.62408,-7.94951],[111.62428,-7.949],[111.62448,-7.9489],[111.62454,-7.94883],[111.62463,-7.949],[111.62464,-7.9496],[111.62461,-7.94976],[111.62435,-7.95005],[111.62445,-7.95014],[111.62442,-7.95033],[111.6241,-7.95057]]]}},{"type":"Feature","properties":{"REMARK":"Perkebunan/Kebun"},"geometry":{"type":"Polygon","coordinates":[[[111.61529,-7.96157],[111.61531,-7.96251],[111.61571,-7.9625],[111.61767,-7.96209],[111.61885,-7.962],[111.61925,-7.96114],[111.61992,-7.96163],[111.62056,-7.96234],[111.6202,-7.96276],[111.61991,-7.96303],[111.61943,-7.96332],[111.61898,-7.96366],[111.61879,-7.96376],[111.61847,-7.96414],[111.61771,-7.96491],[111.61721,-7.96472],[111.61613,-7.96441],[111.61614,-7.96413],[111.61525,-7.96389],[111.61526,-7.96354],[111.61428,-7.96337],[111.61413,-7.96363],[111.61347,-7.96369],[111.61332,-7.96424],[111.61428,-7.96466],[111.6151,-7.96485],[111.61501,-7.96542],[111.61613,-7.96578],[111.61602,-7.96627],[111.61634,-7.96681],[111.61676,-7.96689],[111.61657,-7.96768],[111.6164,-7.96787],[111.6159,-7.96821],[111.61567,-7.96831],[111.61526,-7.96839],[111.615,-7.96832],[111.61531,-7.96734],[111.61534,-7.96647],[111.61476,-7.9664],[111.61482,-7.96617],[111.61221,-7.96544],[111.61222,-7.96516],[111.61227,-7.96494],[111.61247,-7.96472],[111.61257,-7.96456],[111.61281,-7.96398],[111.61269,-7.96391],[111.61258,-7.96362],[111.61249,-7.96348],[111.61234,-7.96241],[111.6122,-7.96191],[111.61204,-7.96157],[111.61291,-7.96142],[111.61342,-7.96127],[111.61337,-7.96047],[111.61342,-7.96003],[111.61329,-7.95948],[111.61406,-7.95938],[111.61439,-7.96093],[111.61427,-7.96098],[111.61435,-7.96156],[111.61529,-7.96157]]]}},{"type":"Feature","properties":{"REMARK":"Perkebunan/Kebun"},"geometry":{"type":"Polygon","coordinates":[[[111.56445,-7.96317],[111.5643,-7.96336],[111.5636,-7.9632],[111.56316,-7.9639],[111.5622,-7.96368],[111.56113,-7.96355],[111.56117,-7.96286],[111.56018,-7.96268],[111.55943,-7.96149],[111.55856,-7.96149],[111.55811,-7.96041],[111.55718,-7.9605],[111.55709,-7.96033],[111.55702,-7.9601],[111.557,-7.95983],[111.55729,-7.95993],[111.5581,-7.96031],[111.55927,-7.9608],[111.56181,-7.96196],[111.56381,-7.96301],[111.56381,-7.96299],[111.56409,-7.96304],[111.56445,-7.96317]]]}},{"type":"Feature","properties":{"REMARK":"Perkebunan/Kebun"},"geometry":{"type":"Polygon","coordinates":[[[111.62444,-7.96304],[111.62477,-7.96322],[111.62503,-7.96322],[111.62536,-7.96314],[111.6255,-7.96306],[111.62564,-7.96344],[111.62569,-7.96397],[111.62565,-7.96467],[111.62558,-7.96484],[111.62545,-7.96499],[111.62519,-7.96517],[111.62497,-7.96523],[111.62382,-7.96503],[111.62356,-7.96446],[111.62333,-7.96443],[111.62311,-7.96446],[111.6229,-7.96453],[111.62246,-7.9651],[111.62199,-7.96607],[111.62176,-7.96633],[111.6216,-7.96645],[111.62131,-7.96659],[111.62088,-7.96663],[111.6206,-7.96659],[111.62012,-7.9659],[111.62115,-7.96515],[111.62184,-7.96449],[111.62124,-7.96322],[111.62188,-7.96237],[111.62237,-7.96147],[111.62256,-7.96154],[111.62279,-7.9617],[111.62363,-7.96248],[111.62444,-7.96304]]]}},{"type":"Feature","properties":{"REMARK":"Perkebunan/Kebun"},"geometry":{"type":"Polygon","coordinates":[[[111.6147,-7.9671],[111.61462,-7.96777],[111.61373,-7.96766],[111.61294,-7.96721],[111.61215,-7.96663],[111.61264,-7.96618],[111.61335,-7.96658],[111.6147,-7.9671]]]}},{"type":"Feature","properties":{"REMARK":"Perkebunan/Kebun"},"geometry":{"type":"Polygon","coordinates":[[[111.53093,-7.96932],[111.53017,-7.96936],[111.52975,-7.96933],[111.52969,-7.96905],[111.52967,-7.96754],[111.5299,-7.96756],[111.53018,-7.96764],[111.53078,-7.96806],[111.53091,-7.96807],[111.53093,-7.96932]]]}},{"type":"Feature","properties":{"REMARK":"Perkebunan/Kebun"},"geometry":{"type":"Polygon","coordinates":[[[111.52945,-7.96873],[111.52948,-7.97086],[111.52846,-7.97084],[111.52841,-7.96958],[111.52834,-7.96881],[111.52945,-7.96873]]]}},{"type":"Feature","properties":{"REMARK":"Perkebunan/Kebun"},"geometry":{"type":"Polygon","coordinates":[[[111.61564,-7.9693],[111.61591,-7.96932],[111.61692,-7.96928],[111.61707,-7.96934],[111.61774,-7.96971],[111.61807,-7.96963],[111.61781,-7.97012],[111.6177,-7.97039],[111.61756,-7.97096],[111.6174,-7.97104],[111.61658,-7.97157],[111.61633,-7.9716],[111.61619,-7.97157],[111.61586,-7.97132],[111.61538,-7.9712],[111.61616,-7.97082],[111.61564,-7.96964],[111.61463,-7.97003],[111.61424,-7.9696],[111.61478,-7.96874],[111.61564,-7.9693]]]}},{"type":"Feature","properties":{"REMARK":"Perkebunan/Kebun"},"geometry":{"type":"Polygon","coordinates":[[[111.58221,-7.97408],[111.58264,-7.97413],[111.58295,-7.97413],[111.5829,-7.97478],[111.58409,-7.97517],[111.58425,-7.97534],[111.58423,-7.97564],[111.58338,-7.97518],[111.58201,-7.97514],[111.58178,-7.975],[111.58157,-7.97476],[111.58153,-7.9746],[111.58221,-7.97408]]]}},{"type":"Feature","properties":{"REMARK":"Perkebunan/Kebun"},"geometry":{"type":"Polygon","coordinates":[[[111.62619,-7.97627],[111.62665,-7.97707],[111.62695,-7.97775],[111.62653,-7.97739],[111.62595,-7.97699],[111.62489,-7.97669],[111.62453,-7.97699],[111.62481,-7.97721],[111.62474,-7.97747],[111.62355,-7.97735],[111.62363,-7.97661],[111.624,-7.97605],[111.62488,-7.97631],[111.62514,-7.97597],[111.62424,-7.97521],[111.62435,-7.97511],[111.62523,-7.97575],[111.62619,-7.97627]]]}},{"type":"Feature","properties":{"REMARK":"Perkebunan/Kebun"},"geometry":{"type":"MultiPolygon","coordinates":[[[[111.62554,-7.9502],[111.62554,-7.9502],[111.62554,-7.9502],[111.62554,-7.9502]]],[[[111.62615,-7.94984],[111.62596,-7.95008],[111.626,-7.95018],[111.62594,-7.9502],[111.62574,-7.95002],[111.62559,-7.94998],[111.62563,-7.94982],[111.62563,-7.94951],[111.62556,-7.94935],[111.6254,-7.94917],[111.62574,-7.94926],[111.62586,-7.94954],[111.62612,-7.94965],[111.62615,-7.94971],[111.62615,-7.94984]]],[[[111.62532,-7.94861],[111.6252,-7.94887],[111.62515,-7.94864],[111.625,-7.94857],[111.625,-7.94842],[111.62511,-7.94841],[111.62519,-7.94852],[111.62525,-7.94853],[111.62532,-7.94861]]]]}},{"type":"Feature","properties":{"REMARK":"Perkebunan/Kebun"},"geometry":{"type":"Polygon","coordinates":[[[111.64831,-7.96014],[111.64837,-7.96037],[111.64878,-7.96081],[111.64744,-7.96068],[111.64683,-7.96083],[111.64667,-7.96079],[111.64602,-7.96041],[111.64578,-7.96037],[111.64525,-7.96049],[111.6444,-7.96028],[111.64448,-7.96023],[111.64459,-7.96026],[111.64731,-7.96017],[111.6476,-7.96024],[111.64762,-7.96016],[111.64831,-7.96014]]]}},{"type":"Feature","properties":{"REMARK":"Perkebunan/Kebun"},"geometry":{"type":"Polygon","coordinates":[[[111.63812,-7.95696],[111.63885,-7.95708],[111.63873,-7.95743],[111.63873,-7.95785],[111.63846,-7.95835],[111.63831,-7.95845],[111.63809,-7.95846],[111.63755,-7.95771],[111.63731,-7.95743],[111.63714,-7.9573],[111.63681,-7.95716],[111.6366,-7.95664],[111.6367,-7.95639],[111.63696,-7.95651],[111.63747,-7.95689],[111.63763,-7.95694],[111.63812,-7.95696]]]}},{"type":"Feature","properties":{"REMARK":"Perkebunan/Kebun"},"geometry":{"type":"Polygon","coordinates":[[[111.64091,-7.96025],[111.64076,-7.96053],[111.63991,-7.96014],[111.63968,-7.95996],[111.63973,-7.95981],[111.64007,-7.95987],[111.64035,-7.96009],[111.64091,-7.96025]]]}},{"type":"Feature","properties":{"REMARK":"Perkebunan/Kebun"},"geometry":{"type":"Polygon","coordinates":[[[111.6525,-7.96593],[111.65224,-7.96628],[111.65204,-7.96619],[111.65182,-7.966],[111.65172,-7.96576],[111.65168,-7.96541],[111.65162,-7.96522],[111.65149,-7.96396],[111.65132,-7.96329],[111.65127,-7.96269],[111.65137,-7.96263],[111.65156,-7.9626],[111.65175,-7.96315],[111.65216,-7.9637],[111.65237,-7.96389],[111.65285,-7.96397],[111.65302,-7.96405],[111.65319,-7.96427],[111.65317,-7.96437],[111.65349,-7.96448],[111.65354,-7.96513],[111.65355,-7.96578],[111.6527,-7.96585],[111.6525,-7.96593]]]}},{"type":"Feature","properties":{"REMARK":"Perkebunan/Kebun"},"geometry":{"type":"Polygon","coordinates":[[[111.63047,-7.96601],[111.63029,-7.9661],[111.62989,-7.96604],[111.62959,-7.96614],[111.6294,-7.96612],[111.62908,-7.96599],[111.62986,-7.96539],[111.63008,-7.96513],[111.63021,-7.96486],[111.63019,-7.96473],[111.63002,-7.96451],[111.62978,-7.96429],[111.62992,-7.96416],[111.63048,-7.96283],[111.63076,-7.9628],[111.63098,-7.96288],[111.63103,-7.96297],[111.63094,-7.96348],[111.63097,-7.96361],[111.63125,-7.96397],[111.63121,-7.96434],[111.63121,-7.96479],[111.63108,-7.9651],[111.63067,-7.96583],[111.63047,-7.96601]]]}},{"type":"Feature","properties":{"REMARK":"Perkebunan/Kebun"},"geometry":{"type":"Polygon","coordinates":[[[111.64336,-7.97088],[111.64415,-7.9709],[111.64422,-7.9707],[111.64436,-7.9706],[111.64462,-7.97051],[111.64478,-7.97037],[111.64491,-7.97111],[111.64463,-7.97122],[111.64471,-7.97154],[111.64503,-7.97148],[111.64525,-7.97329],[111.64586,-7.97316],[111.64664,-7.97308],[111.64673,-7.9735],[111.647,-7.97346],[111.6471,-7.97412],[111.64725,-7.9741],[111.64741,-7.97375],[111.64732,-7.97318],[111.64691,-7.97314],[111.64683,-7.97249],[111.64672,-7.97192],[111.64632,-7.97199],[111.6463,-7.97165],[111.64604,-7.97162],[111.64596,-7.97112],[111.64626,-7.97123],[111.64654,-7.97141],[111.64686,-7.97182],[111.64695,-7.972],[111.64752,-7.97345],[111.64757,-7.97365],[111.64757,-7.97404],[111.64753,-7.97422],[111.64686,-7.97478],[111.6466,-7.9749],[111.64619,-7.97494],[111.64603,-7.97487],[111.64585,-7.97473],[111.64571,-7.97433],[111.64557,-7.97404],[111.64546,-7.97392],[111.64507,-7.97395],[111.64494,-7.97394],[111.64487,-7.97387],[111.64471,-7.97283],[111.64458,-7.97251],[111.6444,-7.97188],[111.64431,-7.97169],[111.64415,-7.9715],[111.64393,-7.97139],[111.64356,-7.97133],[111.64333,-7.97122],[111.64283,-7.97116],[111.64219,-7.97118],[111.64136,-7.971],[111.64156,-7.97059],[111.64165,-7.97019],[111.64175,-7.96922],[111.64172,-7.96881],[111.64192,-7.96844],[111.64208,-7.96834],[111.64288,-7.96831],[111.64292,-7.96964],[111.6431,-7.97014],[111.64327,-7.97043],[111.64336,-7.97088]]]}},{"type":"Feature","properties":{"REMARK":"Perkebunan/Kebun"},"geometry":{"type":"MultiPolygon","coordinates":[[[[111.64978,-7.97273],[111.6498,-7.97254],[111.64992,-7.97226],[111.65023,-7.97215],[111.65028,-7.97179],[111.65009,-7.97113],[111.64979,-7.97102],[111.6495,-7.97104],[111.64943,-7.97143],[111.64901,-7.9714],[111.64887,-7.97142],[111.64857,-7.9714],[111.64852,-7.97113],[111.64856,-7.97091],[111.64865,-7.97085],[111.64889,-7.97079],[111.64907,-7.97056],[111.64993,-7.97045],[111.65034,-7.97054],[111.65046,-7.97061],[111.65071,-7.97098],[111.65082,-7.97102],[111.65095,-7.97097],[111.65114,-7.97074],[111.65121,-7.97098],[111.65118,-7.97112],[111.65109,-7.97131],[111.65061,-7.97176],[111.65027,-7.97219],[111.64992,-7.97248],[111.64982,-7.97259],[111.64978,-7.97273]]],[[[111.64978,-7.97273],[111.64971,-7.97296],[111.64965,-7.97336],[111.64929,-7.97334],[111.64891,-7.97353],[111.64869,-7.97354],[111.64768,-7.97213],[111.64731,-7.97095],[111.64741,-7.97063],[111.64757,-7.97043],[111.6479,-7.9702],[111.6479,-7.97095],[111.64834,-7.97094],[111.64833,-7.97141],[111.64855,-7.9721],[111.64883,-7.97216],[111.64954,-7.97277],[111.64978,-7.97273]]]]}},{"type":"Feature","properties":{"REMARK":"Perkebunan/Kebun"},"geometry":{"type":"Polygon","coordinates":[[[111.62962,-7.98412],[111.62967,-7.98299],[111.62797,-7.98297],[111.62778,-7.9818],[111.629,-7.98132],[111.62898,-7.98107],[111.62793,-7.98114],[111.62755,-7.9807],[111.62739,-7.98065],[111.6268,-7.98081],[111.6268,-7.98122],[111.62703,-7.98118],[111.62725,-7.9821],[111.62682,-7.98235],[111.62712,-7.98406],[111.62825,-7.98399],[111.62833,-7.98431],[111.62945,-7.98406],[111.62962,-7.98412],[111.62949,-7.98429],[111.62926,-7.98446],[111.62897,-7.98461],[111.62848,-7.98478],[111.62797,-7.98488],[111.62763,-7.98487],[111.62704,-7.98479],[111.62664,-7.98469],[111.62636,-7.98443],[111.62633,-7.98391],[111.62612,-7.98296],[111.62612,-7.9827],[111.62635,-7.98189],[111.62637,-7.98155],[111.6263,-7.98134],[111.62616,-7.98121],[111.62528,-7.98076],[111.625,-7.98056],[111.62534,-7.98044],[111.62575,-7.9804],[111.62585,-7.98033],[111.62611,-7.97961],[111.62684,-7.97942],[111.62777,-7.97937],[111.62788,-7.97832],[111.62797,-7.97825],[111.62874,-7.97845],[111.62896,-7.978],[111.62786,-7.97752],[111.62805,-7.97732],[111.62821,-7.97697],[111.62879,-7.97665],[111.62939,-7.97641],[111.62972,-7.97633],[111.63049,-7.97623],[111.6311,-7.9759],[111.63172,-7.97576],[111.632,-7.97563],[111.63221,-7.97549],[111.63248,-7.97478],[111.63283,-7.97437],[111.63308,-7.97456],[111.63332,-7.97456],[111.63376,-7.97443],[111.63385,-7.97447],[111.63404,-7.9747],[111.63406,-7.97488],[111.63366,-7.97563],[111.63361,-7.97581],[111.63383,-7.97626],[111.6338,-7.97686],[111.63291,-7.97745],[111.63277,-7.9776],[111.6327,-7.97762],[111.63249,-7.9778],[111.63227,-7.97787],[111.63172,-7.97783],[111.63156,-7.97791],[111.6312,-7.9784],[111.631,-7.97847],[111.63059,-7.97845],[111.63019,-7.97836],[111.62945,-7.97796],[111.62942,-7.97855],[111.62932,-7.97894],[111.62894,-7.98003],[111.62896,-7.98021],[111.62923,-7.98086],[111.62948,-7.98124],[111.6294,-7.98213],[111.62946,-7.98242],[111.62984,-7.98329],[111.62984,-7.9835],[111.62977,-7.98379],[111.62962,-7.98412]]]}},{"type":"Feature","properties":{"REMARK":"Perkebunan/Kebun"},"geometry":{"type":"Polygon","coordinates":[[[111.62897,-7.97583],[111.62876,-7.97588],[111.6283,-7.97579],[111.62847,-7.97564],[111.62944,-7.9754],[111.62922,-7.97566],[111.62897,-7.97583]]]}},{"type":"Feature","properties":{"REMARK":"Perkebunan/Kebun"},"geometry":{"type":"Polygon","coordinates":[[[111.64596,-7.98499],[111.64722,-7.98483],[111.64747,-7.98484],[111.64763,-7.98493],[111.64781,-7.98516],[111.64794,-7.9854],[111.64803,-7.98571],[111.64805,-7.98621],[111.64816,-7.98634],[111.64835,-7.98645],[111.6486,-7.9865],[111.64878,-7.98658],[111.64894,-7.98675],[111.64897,-7.98685],[111.64889,-7.98703],[111.64836,-7.98754],[111.6483,-7.98768],[111.64845,-7.98783],[111.64927,-7.98794],[111.65017,-7.98801],[111.65096,-7.98791],[111.65172,-7.98809],[111.65231,-7.98826],[111.65376,-7.98885],[111.65403,-7.98905],[111.65425,-7.98934],[111.65471,-7.98943],[111.65483,-7.9895],[111.65492,-7.98981],[111.65461,-7.99026],[111.65456,-7.99045],[111.65452,-7.99083],[111.65459,-7.99109],[111.65407,-7.99129],[111.65345,-7.99187],[111.65315,-7.9919],[111.65292,-7.992],[111.65288,-7.99183],[111.65295,-7.99167],[111.65296,-7.99155],[111.65288,-7.99126],[111.65331,-7.99118],[111.65324,-7.99049],[111.6532,-7.98946],[111.65303,-7.98949],[111.65296,-7.98918],[111.65244,-7.9892],[111.65227,-7.98903],[111.65166,-7.98903],[111.65097,-7.98898],[111.65088,-7.98868],[111.65032,-7.98882],[111.65038,-7.98994],[111.65059,-7.98992],[111.65079,-7.99036],[111.65078,-7.99051],[111.65071,-7.99078],[111.65048,-7.99114],[111.64974,-7.99066],[111.64953,-7.99056],[111.64893,-7.99042],[111.64869,-7.9903],[111.64844,-7.99007],[111.64834,-7.98989],[111.64823,-7.98948],[111.64795,-7.9889],[111.64767,-7.98853],[111.64667,-7.98759],[111.64648,-7.98732],[111.64645,-7.98714],[111.64654,-7.98715],[111.64671,-7.98691],[111.64677,-7.98676],[111.64675,-7.98664],[111.64666,-7.98655],[111.64658,-7.98653],[111.6465,-7.98658],[111.64617,-7.9869],[111.64594,-7.98706],[111.64572,-7.9871],[111.64546,-7.98706],[111.64496,-7.98687],[111.64483,-7.98687],[111.64472,-7.98695],[111.64456,-7.98729],[111.64439,-7.98753],[111.64414,-7.98774],[111.64402,-7.98781],[111.64371,-7.98784],[111.64337,-7.98772],[111.64327,-7.98759],[111.64324,-7.98717],[111.64328,-7.98675],[111.643,-7.98631],[111.64288,-7.98598],[111.64284,-7.98568],[111.6433,-7.98568],[111.64345,-7.98574],[111.64358,-7.98585],[111.64362,-7.98601],[111.64387,-7.98644],[111.64437,-7.98631],[111.64502,-7.9862],[111.64506,-7.98563],[111.64488,-7.98537],[111.64501,-7.98515],[111.64519,-7.98452],[111.64542,-7.98472],[111.64577,-7.98493],[111.64596,-7.98499]]]}},{"type":"Feature","properties":{"REMARK":"Perkebunan/Kebun"},"geometry":{"type":"Polygon","coordinates":[[[111.63853,-7.99222],[111.63822,-7.99227],[111.63798,-7.99225],[111.63784,-7.99217],[111.6374,-7.99141],[111.63723,-7.99041],[111.63727,-7.99013],[111.63749,-7.98972],[111.63782,-7.99002],[111.63816,-7.99043],[111.63836,-7.99084],[111.63837,-7.99141],[111.63832,-7.99187],[111.63835,-7.99202],[111.63844,-7.99216],[111.63853,-7.99222]]]}},{"type":"Feature","properties":{"REMARK":"Perkebunan/Kebun"},"geometry":{"type":"Polygon","coordinates":[[[111.63853,-7.99222],[111.63903,-7.99197],[111.63986,-7.99203],[111.64031,-7.99181],[111.64063,-7.99173],[111.64137,-7.99194],[111.64137,-7.99206],[111.64134,-7.99214],[111.64045,-7.99278],[111.64025,-7.99301],[111.64009,-7.99335],[111.64007,-7.99405],[111.64014,-7.99482],[111.63999,-7.99496],[111.63955,-7.99523],[111.63923,-7.99442],[111.63957,-7.99425],[111.63955,-7.99358],[111.63908,-7.99343],[111.63906,-7.99291],[111.63885,-7.99288],[111.63866,-7.99239],[111.63853,-7.99222]]]}},{"type":"Feature","properties":{"REMARK":"Perkebunan/Kebun"},"geometry":{"type":"Polygon","coordinates":[[[111.64432,-7.9923],[111.64506,-7.99295],[111.64545,-7.99348],[111.64584,-7.99354],[111.64471,-7.99369],[111.64418,-7.99344],[111.64378,-7.99315],[111.6439,-7.99252],[111.64414,-7.99261],[111.64432,-7.9923]]]}},{"type":"Feature","properties":{"REMARK":"Perkebunan/Kebun"},"geometry":{"type":"Polygon","coordinates":[[[111.65436,-7.99331],[111.65457,-7.99383],[111.65523,-7.99376],[111.65529,-7.9941],[111.65499,-7.99421],[111.65445,-7.99429],[111.65421,-7.99436],[111.65344,-7.99487],[111.65332,-7.99459],[111.65313,-7.99384],[111.65436,-7.99331]]]}},{"type":"Feature","properties":{"REMARK":"Perkebunan/Kebun"},"geometry":{"type":"Polygon","coordinates":[[[111.6279,-8.0],[111.62754,-8.0],[111.6279,-8.0],[111.6279,-8.0]]]}},{"type":"Feature","properties":{"REMARK":"Perkebunan/Kebun"},"geometry":{"type":"Polygon","coordinates":[[[111.63109,-8.0],[111.63082,-8.0],[111.63109,-8.0],[111.63109,-8.0]]]}},{"type":"Feature","properties":{"REMARK":"Perkebunan/Kebun"},"geometry":{"type":"Polygon","coordinates":[[[111.60618,-8.01853],[111.60642,-8.01853],[111.60673,-8.01834],[111.60688,-8.01807],[111.60694,-8.01755],[111.60698,-8.01748],[111.60713,-8.01742],[111.60726,-8.0178],[111.60753,-8.01805],[111.60778,-8.01816],[111.60746,-8.01857],[111.60704,-8.0189],[111.60665,-8.01909],[111.60627,-8.01935],[111.60596,-8.01944],[111.60575,-8.01944],[111.60531,-8.01929],[111.60489,-8.01921],[111.60449,-8.01906],[111.60387,-8.01868],[111.60346,-8.01859],[111.60333,-8.01829],[111.60335,-8.01816],[111.60345,-8.01803],[111.60418,-8.01743],[111.6046,-8.01734],[111.60518,-8.01736],[111.60531,-8.01742],[111.60537,-8.01751],[111.60556,-8.0181],[111.60563,-8.0182],[111.6059,-8.01845],[111.60618,-8.01853]]]}},{"type":"Feature","properties":{"REMARK":"Perkebunan/Kebun"},"geometry":{"type":"MultiPolygon","coordinates":[[[[111.65353,-8.0196],[111.65349,-8.01976],[111.65356,-8.01951],[111.65353,-8.0196]]],[[[111.65332,-8.01885],[111.65332,-8.01889],[111.65332,-8.01885],[111.65342,-8.0187],[111.65347,-8.01866],[111.65332,-8.01885]]],[[[111.65378,-8.01717],[111.65373,-8.01726],[111.65373,-8.01726],[111.65378,-8.01717]]],[[[111.65452,-8.01637],[111.65464,-8.01615],[111.65482,-8.01582],[111.65495,-8.0156],[111.65452,-8.01637]]],[[[111.65505,-8.01507],[111.65503,-8.01524],[111.65505,-8.01507],[111.65496,-8.01426],[111.65496,-8.01383],[111.65496,-8.01426],[111.65505,-8.01507]]],[[[111.65532,-8.01204],[111.65505,-8.01318],[111.65532,-8.01204],[111.65532,-8.01204]]]]}},{"type":"Feature","properties":{"REMARK":"Perkebunan/Kebun"},"geometry":{"type":"Polygon","coordinates":[[[111.63109,-8.0],[111.63114,-8.0003],[111.63154,-8.0002],[111.63175,-8.0001],[111.63194,-8.00013],[111.63221,-8.00022],[111.63247,-8.00037],[111.63302,-8.00101],[111.63323,-8.00108],[111.63342,-8.00109],[111.6334,-8.00091],[111.6337,-8.00171],[111.63368,-8.00184],[111.63405,-8.00194],[111.63433,-8.00196],[111.63498,-8.00177],[111.63566,-8.00144],[111.63593,-8.00105],[111.63601,-8.00084],[111.63611,-8.00091],[111.63618,-8.00109],[111.63618,-8.00127],[111.63605,-8.00149],[111.63573,-8.00178],[111.63444,-8.0026],[111.63421,-8.00279],[111.63385,-8.00319],[111.63378,-8.00339],[111.63376,-8.00353],[111.63334,-8.00395],[111.63304,-8.00461],[111.63254,-8.00479],[111.63243,-8.00506],[111.63245,-8.00457],[111.63241,-8.00446],[111.63234,-8.0044],[111.63229,-8.0042],[111.6324,-8.00382],[111.63249,-8.00363],[111.63246,-8.00344],[111.6323,-8.00317],[111.63249,-8.00266],[111.63246,-8.00254],[111.63234,-8.00248],[111.63211,-8.00223],[111.63196,-8.00183],[111.63189,-8.00151],[111.63108,-8.00111],[111.63043,-8.00066],[111.63082,-8.0],[111.63109,-8.0]]]}},{"type":"Feature","properties":{"REMARK":"Perkebunan/Kebun"},"geometry":{"type":"MultiPolygon","coordinates":[[[[111.62583,-8.01076],[111.62592,-8.01091],[111.62582,-8.01074],[111.62583,-8.01076]]],[[[111.62788,-8.00013],[111.62856,-8.00021],[111.62893,-8.00008],[111.629,-8.00029],[111.629,-8.00073],[111.62916,-8.00156],[111.62956,-8.00155],[111.63049,-8.00128],[111.63096,-8.00186],[111.63118,-8.00197],[111.63114,-8.0026],[111.63116,-8.00304],[111.6312,-8.00321],[111.6313,-8.00333],[111.6315,-8.00338],[111.63086,-8.00371],[111.6307,-8.0039],[111.63061,-8.00467],[111.6305,-8.00503],[111.63015,-8.00568],[111.63005,-8.006],[111.62987,-8.00619],[111.63005,-8.00639],[111.63027,-8.00644],[111.63028,-8.00654],[111.63079,-8.007],[111.63103,-8.0073],[111.63117,-8.00743],[111.63104,-8.00754],[111.6306,-8.00764],[111.62988,-8.00789],[111.62932,-8.00859],[111.62859,-8.00917],[111.62763,-8.00965],[111.62685,-8.01014],[111.62595,-8.0109],[111.62674,-8.00932],[111.62654,-8.00923],[111.62597,-8.00887],[111.62563,-8.00859],[111.62522,-8.00947],[111.62484,-8.00859],[111.62457,-8.00846],[111.62436,-8.00828],[111.62422,-8.00738],[111.62404,-8.00704],[111.62464,-8.00643],[111.62524,-8.0056],[111.62551,-8.0053],[111.62612,-8.00471],[111.62629,-8.00448],[111.62668,-8.0044],[111.6275,-8.00406],[111.62789,-8.00301],[111.62818,-8.00253],[111.62815,-8.00225],[111.62807,-8.0021],[111.62773,-8.00168],[111.62755,-8.00131],[111.62752,-8.00115],[111.62754,-8.0],[111.6279,-8.0],[111.62788,-8.00013]]],[[[111.6102,-7.97122],[111.61071,-7.97165],[111.6112,-7.97154],[111.61174,-7.97156],[111.61178,-7.97153],[111.61181,-7.97229],[111.61188,-7.97242],[111.61208,-7.97253],[111.61238,-7.97173],[111.61256,-7.97206],[111.61277,-7.97227],[111.61373,-7.97204],[111.61389,-7.97177],[111.61431,-7.97137],[111.61524,-7.97211],[111.61556,-7.97178],[111.61571,-7.97204],[111.61581,-7.97232],[111.61675,-7.97212],[111.61696,-7.97205],[111.61719,-7.97189],[111.61735,-7.97168],[111.61749,-7.97137],[111.6175,-7.97144],[111.61758,-7.97149],[111.61774,-7.97145],[111.61832,-7.97116],[111.61885,-7.97098],[111.61916,-7.97093],[111.6197,-7.97103],[111.61982,-7.97109],[111.61993,-7.97137],[111.62005,-7.97209],[111.62014,-7.97231],[111.62031,-7.97252],[111.62052,-7.97265],[111.62134,-7.97268],[111.62159,-7.97275],[111.62164,-7.97279],[111.62185,-7.97338],[111.62207,-7.9744],[111.62204,-7.97466],[111.62184,-7.97512],[111.62223,-7.97521],[111.62277,-7.97542],[111.62361,-7.97607],[111.62355,-7.97623],[111.62294,-7.97607],[111.62197,-7.97593],[111.62182,-7.97651],[111.62251,-7.97671],[111.62253,-7.97733],[111.62221,-7.97746],[111.62178,-7.97704],[111.62136,-7.97691],[111.62084,-7.97742],[111.6204,-7.97777],[111.62092,-7.97817],[111.62019,-7.97843],[111.6193,-7.97763],[111.619,-7.97786],[111.61911,-7.97822],[111.61894,-7.9785],[111.61832,-7.97912],[111.61901,-7.97998],[111.61836,-7.98037],[111.61771,-7.98105],[111.61769,-7.98116],[111.61771,-7.9812],[111.61754,-7.98122],[111.61727,-7.98144],[111.6169,-7.98126],[111.61634,-7.98138],[111.61482,-7.98205],[111.61398,-7.98205],[111.61402,-7.98264],[111.61436,-7.98268],[111.61484,-7.9828],[111.61484,-7.98287],[111.61531,-7.98376],[111.61537,-7.98396],[111.61545,-7.98399],[111.61576,-7.98399],[111.61587,-7.98409],[111.61676,-7.98413],[111.61768,-7.98448],[111.61804,-7.98467],[111.61853,-7.98481],[111.61885,-7.98485],[111.61971,-7.98468],[111.61991,-7.98471],[111.62016,-7.98482],[111.62067,-7.98515],[111.62135,-7.98572],[111.62177,-7.98622],[111.62227,-7.98672],[111.62338,-7.98722],[111.62351,-7.9873],[111.62368,-7.9875],[111.62384,-7.98785],[111.62343,-7.98827],[111.62392,-7.989],[111.62419,-7.98961],[111.62451,-7.98994],[111.62511,-7.98966],[111.62533,-7.98996],[111.6256,-7.99023],[111.62602,-7.99048],[111.62588,-7.99076],[111.62592,-7.9908],[111.62571,-7.99086],[111.62544,-7.99099],[111.62529,-7.99113],[111.62517,-7.99134],[111.62513,-7.99149],[111.6252,-7.99184],[111.62541,-7.99235],[111.62566,-7.99277],[111.62641,-7.99381],[111.62654,-7.9941],[111.62661,-7.99437],[111.62658,-7.99488],[111.62653,-7.99507],[111.6264,-7.99537],[111.626,-7.9959],[111.62602,-7.99632],[111.62625,-7.99726],[111.62643,-7.99739],[111.62646,-7.99735],[111.62634,-7.99775],[111.62634,-7.99789],[111.62638,-7.99802],[111.62562,-7.99833],[111.62545,-7.99836],[111.62533,-7.99833],[111.62523,-7.99824],[111.62505,-7.99766],[111.6248,-7.99732],[111.62462,-7.99717],[111.62411,-7.99699],[111.62345,-7.99686],[111.62308,-7.99681],[111.62258,-7.99685],[111.62246,-7.997],[111.6224,-7.99727],[111.62248,-7.99798],[111.62276,-7.99807],[111.62282,-7.99814],[111.62238,-7.99846],[111.62222,-7.99862],[111.62204,-7.99891],[111.62177,-7.99971],[111.62146,-8.0],[111.62036,-8.0],[111.62029,-8.0002],[111.62015,-8.00093],[111.62019,-8.0017],[111.62028,-8.00201],[111.62021,-8.00224],[111.62008,-8.00233],[111.61938,-8.00245],[111.61888,-8.00264],[111.61983,-8.00302],[111.62001,-8.0033],[111.62024,-8.00347],[111.62043,-8.00369],[111.62073,-8.00389],[111.6216,-8.00425],[111.62152,-8.00483],[111.62146,-8.00497],[111.62109,-8.00522],[111.62092,-8.00524],[111.62008,-8.005],[111.61972,-8.00481],[111.61923,-8.00447],[111.61885,-8.00439],[111.6187,-8.00407],[111.61849,-8.00375],[111.61821,-8.00351],[111.61787,-8.00362],[111.61728,-8.00353],[111.61725,-8.00342],[111.61671,-8.00331],[111.61672,-8.00379],[111.61686,-8.00433],[111.61749,-8.00467],[111.61773,-8.00476],[111.61863,-8.00596],[111.61903,-8.00659],[111.61967,-8.00728],[111.62011,-8.00761],[111.62018,-8.00773],[111.6202,-8.00791],[111.6194,-8.00823],[111.61858,-8.00849],[111.61818,-8.00896],[111.61767,-8.00926],[111.61728,-8.0089],[111.61717,-8.00883],[111.61702,-8.00882],[111.61607,-8.00933],[111.61564,-8.00948],[111.61515,-8.00979],[111.6149,-8.01003],[111.61482,-8.0102],[111.61437,-8.01068],[111.61429,-8.01073],[111.61443,-8.00992],[111.61434,-8.00954],[111.6142,-8.00922],[111.61404,-8.00899],[111.61382,-8.0088],[111.61395,-8.0085],[111.6145,-8.00764],[111.61484,-8.00683],[111.6146,-8.00673],[111.61408,-8.00658],[111.61389,-8.00659],[111.61301,-8.0068],[111.61265,-8.00684],[111.61229,-8.00678],[111.61186,-8.00666],[111.61238,-8.00624],[111.61281,-8.006],[111.6137,-8.00566],[111.61307,-8.00563],[111.61257,-8.00572],[111.61152,-8.0058],[111.61117,-8.00577],[111.61085,-8.00564],[111.6107,-8.00551],[111.61054,-8.00509],[111.61044,-8.00499],[111.61035,-8.00473],[111.61025,-8.00404],[111.61025,-8.00221],[111.61017,-8.0018],[111.61001,-8.00132],[111.60997,-8.00147],[111.60988,-8.00155],[111.60954,-8.00168],[111.60911,-8.00191],[111.60902,-8.00203],[111.60899,-8.00215],[111.60904,-8.00226],[111.60933,-8.00264],[111.60943,-8.00307],[111.60951,-8.00319],[111.60996,-8.0034],[111.61004,-8.00353],[111.60974,-8.00395],[111.60977,-8.0041],[111.61005,-8.0047],[111.61005,-8.00495],[111.60982,-8.00536],[111.60978,-8.00564],[111.60982,-8.00595],[111.60992,-8.00636],[111.60952,-8.00701],[111.60922,-8.00676],[111.60906,-8.00638],[111.60893,-8.0062],[111.60868,-8.00608],[111.60845,-8.00602],[111.60896,-8.00533],[111.6092,-8.00455],[111.6088,-8.00455],[111.60838,-8.00524],[111.6073,-8.00505],[111.60653,-8.00486],[111.60621,-8.00532],[111.60633,-8.00566],[111.60643,-8.0061],[111.60674,-8.00628],[111.60673,-8.00699],[111.60603,-8.00669],[111.60558,-8.00696],[111.60559,-8.00707],[111.60549,-8.00698],[111.60446,-8.00661],[111.60463,-8.00586],[111.60421,-8.00562],[111.60413,-8.00521],[111.60334,-8.00537],[111.60301,-8.00561],[111.60235,-8.00656],[111.60235,-8.0074],[111.6027,-8.00809],[111.60329,-8.00839],[111.60299,-8.00847],[111.60189,-8.0083],[111.60179,-8.00838],[111.60173,-8.00854],[111.60188,-8.00923],[111.60185,-8.00934],[111.60151,-8.00967],[111.60138,-8.00986],[111.60121,-8.01025],[111.60107,-8.01041],[111.60078,-8.01056],[111.60044,-8.01065],[111.60005,-8.0109],[111.59958,-8.01138],[111.59913,-8.01198],[111.59885,-8.01254],[111.59876,-8.01282],[111.59872,-8.01324],[111.59873,-8.01355],[111.59884,-8.01401],[111.59895,-8.01429],[111.59939,-8.01482],[111.59929,-8.01534],[111.59919,-8.01557],[111.59881,-8.01473],[111.59854,-8.01447],[111.5981,-8.01393],[111.59804,-8.01353],[111.59806,-8.01268],[111.59813,-8.01236],[111.59826,-8.01204],[111.5984,-8.01125],[111.59862,-8.01111],[111.59882,-8.01084],[111.59889,-8.01049],[111.59871,-8.00895],[111.59882,-8.00808],[111.5988,-8.00772],[111.59896,-8.00758],[111.59924,-8.00696],[111.59995,-8.00606],[111.60003,-8.00576],[111.59985,-8.00566],[111.60003,-8.00576],[111.60003,-8.00552],[111.59993,-8.00429],[111.6,-8.00407],[111.60015,-8.00381],[111.60123,-8.00373],[111.60163,-8.00454],[111.60195,-8.00531],[111.60216,-8.00562],[111.60234,-8.0056],[111.60258,-8.00549],[111.60299,-8.00521],[111.60367,-8.00501],[111.60439,-8.00459],[111.60458,-8.00437],[111.60491,-8.00369],[111.60502,-8.00365],[111.60526,-8.00361],[111.60623,-8.00365],[111.60629,-8.00325],[111.60627,-8.003],[111.6061,-8.00258],[111.60606,-8.00238],[111.60609,-8.00149],[111.60602,-8.00096],[111.60606,-8.0007],[111.60591,-8.00023],[111.60595,-8.00019],[111.6063,-8.0004],[111.60657,-8.00047],[111.60767,-8.00059],[111.60818,-8.0008],[111.60873,-8.00091],[111.60949,-8.00121],[111.60965,-8.00121],[111.60977,-8.00113],[111.60994,-8.00112],[111.60979,-8.00092],[111.60941,-8.00062],[111.60936,-8.00053],[111.60963,-8.00006],[111.60939,-7.99907],[111.60933,-7.99891],[111.6088,-7.99813],[111.6083,-7.99725],[111.60757,-7.99549],[111.60786,-7.99549],[111.60901,-7.99602],[111.60906,-7.99607],[111.6092,-7.99639],[111.6095,-7.99664],[111.60969,-7.99675],[111.61007,-7.99683],[111.61037,-7.99683],[111.6107,-7.99677],[111.61104,-7.99659],[111.61152,-7.99666],[111.61215,-7.99668],[111.61452,-7.99716],[111.61519,-7.9972],[111.61612,-7.99702],[111.61651,-7.99675],[111.61636,-7.99608],[111.61622,-7.99578],[111.61734,-7.99562],[111.61769,-7.99569],[111.61787,-7.99521],[111.61801,-7.99492],[111.61858,-7.99399],[111.61861,-7.99347],[111.61874,-7.99305],[111.61943,-7.99196],[111.61978,-7.99133],[111.61985,-7.99111],[111.61987,-7.9908],[111.61976,-7.99055],[111.61951,-7.99029],[111.61986,-7.98838],[111.61992,-7.98821],[111.62051,-7.98768],[111.62057,-7.98745],[111.62054,-7.98722],[111.62045,-7.98697],[111.62027,-7.98675],[111.61976,-7.9864],[111.61962,-7.9866],[111.61904,-7.98699],[111.6187,-7.98732],[111.61851,-7.98762],[111.61806,-7.98775],[111.61755,-7.98806],[111.61684,-7.98859],[111.61629,-7.98912],[111.61597,-7.98947],[111.61557,-7.99005],[111.61497,-7.9905],[111.61477,-7.99073],[111.61469,-7.99088],[111.61448,-7.99143],[111.61442,-7.9916],[111.61446,-7.99201],[111.61418,-7.99189],[111.614,-7.9917],[111.61385,-7.99183],[111.61361,-7.99178],[111.61354,-7.99166],[111.61291,-7.99166],[111.6127,-7.9917],[111.61276,-7.99181],[111.61319,-7.9918],[111.6135,-7.99194],[111.6136,-7.99205],[111.61324,-7.99237],[111.61371,-7.9928],[111.61426,-7.99252],[111.61449,-7.99231],[111.61452,-7.99267],[111.6145,-7.99308],[111.6144,-7.9933],[111.61431,-7.99337],[111.61345,-7.99346],[111.61329,-7.99354],[111.61275,-7.99443],[111.61254,-7.99462],[111.61232,-7.99469],[111.61204,-7.9947],[111.61149,-7.99452],[111.61175,-7.99397],[111.61172,-7.9938],[111.61077,-7.99371],[111.61081,-7.99324],[111.61098,-7.99216],[111.61127,-7.9909],[111.61138,-7.99066],[111.61173,-7.99015],[111.61223,-7.98964],[111.61229,-7.98959],[111.61286,-7.99013],[111.61344,-7.99109],[111.61376,-7.99142],[111.6141,-7.99144],[111.61439,-7.99119],[111.61448,-7.99097],[111.61433,-7.99047],[111.61422,-7.9902],[111.61428,-7.99001],[111.61427,-7.98981],[111.61444,-7.98958],[111.61448,-7.98913],[111.61511,-7.9889],[111.61513,-7.98863],[111.61574,-7.9887],[111.61594,-7.988],[111.6161,-7.98792],[111.61731,-7.98755],[111.61745,-7.9871],[111.61627,-7.98695],[111.61623,-7.98652],[111.61614,-7.98661],[111.61604,-7.98719],[111.61594,-7.98734],[111.61566,-7.98682],[111.61511,-7.98693],[111.61468,-7.98721],[111.61426,-7.9876],[111.61354,-7.98796],[111.61377,-7.98839],[111.61414,-7.98895],[111.61425,-7.98919],[111.61379,-7.98946],[111.61347,-7.98861],[111.61311,-7.98834],[111.61252,-7.98844],[111.61225,-7.98813],[111.61134,-7.98889],[111.61111,-7.98876],[111.61093,-7.98844],[111.61099,-7.98844],[111.61107,-7.98815],[111.61125,-7.98684],[111.61115,-7.98595],[111.61106,-7.98544],[111.6109,-7.98534],[111.61114,-7.98485],[111.61134,-7.98421],[111.61139,-7.98385],[111.61096,-7.98364],[111.61087,-7.98311],[111.60974,-7.9828],[111.60984,-7.98275],[111.60987,-7.98266],[111.61063,-7.98266],[111.61093,-7.98259],[111.61123,-7.98248],[111.61156,-7.9822],[111.61183,-7.98181],[111.61181,-7.98169],[111.61152,-7.9813],[111.61095,-7.98078],[111.6107,-7.98047],[111.61078,-7.97935],[111.61086,-7.9792],[111.61112,-7.97901],[111.61152,-7.97884],[111.61177,-7.97874],[111.61197,-7.97873],[111.61209,-7.97803],[111.61223,-7.97753],[111.61246,-7.97714],[111.61302,-7.97653],[111.61317,-7.9763],[111.61322,-7.97609],[111.61332,-7.97644],[111.61382,-7.97722],[111.61392,-7.97744],[111.61397,-7.97777],[111.61418,-7.97775],[111.6144,-7.97764],[111.61515,-7.97711],[111.61572,-7.97679],[111.61594,-7.97675],[111.61607,-7.97677],[111.61632,-7.97689],[111.61698,-7.97749],[111.61692,-7.97696],[111.61681,-7.97665],[111.61668,-7.97641],[111.61632,-7.976],[111.61584,-7.97556],[111.61571,-7.97537],[111.61559,-7.97505],[111.61533,-7.97385],[111.61525,-7.97319],[111.61538,-7.97313],[111.61553,-7.97265],[111.61563,-7.97246],[111.61543,-7.97239],[111.6149,-7.97203],[111.61464,-7.97189],[111.61437,-7.97182],[111.61424,-7.97183],[111.61411,-7.9719],[111.61403,-7.97202],[111.61401,-7.97218],[111.61406,-7.97235],[111.61417,-7.97248],[111.61424,-7.97252],[111.61397,-7.9725],[111.61373,-7.97255],[111.61302,-7.97258],[111.61291,-7.97265],[111.61253,-7.97311],[111.61233,-7.97325],[111.61204,-7.97337],[111.6119,-7.97306],[111.61195,-7.97284],[111.61164,-7.97287],[111.61096,-7.97309],[111.61005,-7.97357],[111.61007,-7.97342],[111.61014,-7.97332],[111.61044,-7.97307],[111.61054,-7.97294],[111.61065,-7.97266],[111.61062,-7.97213],[111.61072,-7.97181],[111.60999,-7.97176],[111.60964,-7.97181],[111.60942,-7.97257],[111.60909,-7.97266],[111.60907,-7.97252],[111.60915,-7.9718],[111.60911,-7.97126],[111.609,-7.97076],[111.60896,-7.97039],[111.60899,-7.97018],[111.60917,-7.97],[111.60894,-7.96972],[111.60882,-7.96927],[111.61062,-7.96897],[111.61074,-7.96911],[111.61115,-7.96974],[111.61061,-7.97],[111.60978,-7.97014],[111.60978,-7.97031],[111.6099,-7.97066],[111.6102,-7.97122]],[[111.6196,-7.97663],[111.62015,-7.97677],[111.62026,-7.97645],[111.62044,-7.97621],[111.62005,-7.97616],[111.6197,-7.97517],[111.61948,-7.97398],[111.6189,-7.97403],[111.61837,-7.9753],[111.61844,-7.97603],[111.6196,-7.97663]],[[111.6118,-7.9856],[111.61172,-7.98647],[111.61202,-7.98622],[111.61246,-7.9857],[111.61273,-7.98514],[111.61283,-7.98451],[111.61218,-7.98452],[111.6118,-7.98484],[111.6118,-7.9856]],[[111.6216,-7.99013],[111.62281,-7.99104],[111.62365,-7.99053],[111.62347,-7.98994],[111.62311,-7.98993],[111.62315,-7.98932],[111.62258,-7.98906],[111.62256,-7.98794],[111.62145,-7.98808],[111.62073,-7.98823],[111.62078,-7.98894],[111.62121,-7.98897],[111.62121,-7.98973],[111.6216,-7.99013]],[[111.61776,-7.99717],[111.61739,-7.99781],[111.61726,-7.99817],[111.61724,-7.99836],[111.61731,-7.99912],[111.61749,-7.9987],[111.61809,-7.99822],[111.61825,-7.99787],[111.61892,-7.99724],[111.61886,-7.99838],[111.61898,-7.99872],[111.61936,-7.9988],[111.62044,-7.99855],[111.62096,-7.99824],[111.62077,-7.99722],[111.62041,-7.99632],[111.61964,-7.99632],[111.61965,-7.99618],[111.61956,-7.99602],[111.61899,-7.99588],[111.61896,-7.99599],[111.61862,-7.99641],[111.61818,-7.99671],[111.61776,-7.99717]]]]}},{"type":"Feature","properties":{"REMARK":"Perkebunan/Kebun"},"geometry":{"type":"Polygon","coordinates":[[[111.63807,-7.98632],[111.63818,-7.98667],[111.63814,-7.98668],[111.63811,-7.98716],[111.63788,-7.98726],[111.63802,-7.98768],[111.63827,-7.988],[111.63833,-7.98813],[111.63848,-7.98805],[111.63868,-7.9881],[111.63943,-7.988],[111.63946,-7.98774],[111.6397,-7.98786],[111.64055,-7.9876],[111.6405,-7.9874],[111.63999,-7.9874],[111.63951,-7.98731],[111.63953,-7.9871],[111.63918,-7.98714],[111.63909,-7.98682],[111.63885,-7.9868],[111.63885,-7.98718],[111.63866,-7.98721],[111.63867,-7.98663],[111.63846,-7.98665],[111.6384,-7.98608],[111.63798,-7.9861],[111.63807,-7.98632],[111.63785,-7.98611],[111.63762,-7.98603],[111.63762,-7.98587],[111.63744,-7.98583],[111.63743,-7.98601],[111.63645,-7.98596],[111.63676,-7.9857],[111.63678,-7.9851],[111.63696,-7.98489],[111.63782,-7.98494],[111.63789,-7.9845],[111.63732,-7.98437],[111.63731,-7.98412],[111.63714,-7.98414],[111.63713,-7.98409],[111.6356,-7.98403],[111.63558,-7.98432],[111.63621,-7.98433],[111.63623,-7.98469],[111.63634,-7.98526],[111.63631,-7.98556],[111.63596,-7.98594],[111.63471,-7.98588],[111.63458,-7.98577],[111.63447,-7.98555],[111.63442,-7.98534],[111.63443,-7.98518],[111.63457,-7.98522],[111.63455,-7.98548],[111.63532,-7.98555],[111.63537,-7.98431],[111.63476,-7.98441],[111.63479,-7.98421],[111.63495,-7.98393],[111.63515,-7.98385],[111.63547,-7.98381],[111.63593,-7.98381],[111.63657,-7.98386],[111.63696,-7.9838],[111.63707,-7.9837],[111.63702,-7.98359],[111.63639,-7.98309],[111.63631,-7.98289],[111.63633,-7.98278],[111.63646,-7.98258],[111.63662,-7.98246],[111.63675,-7.98243],[111.63704,-7.98251],[111.63757,-7.98235],[111.63856,-7.9825],[111.6387,-7.98244],[111.6389,-7.9823],[111.63895,-7.98217],[111.6393,-7.98201],[111.63916,-7.98224],[111.63918,-7.98238],[111.63911,-7.98246],[111.63892,-7.98256],[111.63893,-7.98277],[111.6381,-7.98291],[111.63809,-7.98309],[111.63791,-7.98316],[111.63787,-7.98333],[111.63808,-7.98341],[111.63802,-7.98376],[111.63803,-7.98403],[111.6382,-7.9841],[111.6381,-7.98469],[111.63825,-7.98473],[111.6385,-7.98471],[111.63847,-7.98444],[111.63848,-7.98406],[111.63866,-7.98398],[111.63881,-7.98356],[111.63907,-7.98337],[111.63899,-7.98313],[111.63907,-7.98301],[111.63944,-7.98304],[111.63943,-7.98292],[111.64006,-7.98308],[111.63996,-7.98379],[111.64057,-7.98399],[111.64062,-7.98373],[111.64039,-7.98363],[111.64031,-7.98286],[111.64052,-7.98288],[111.64053,-7.98307],[111.64082,-7.98344],[111.64118,-7.98319],[111.64114,-7.98293],[111.64154,-7.98296],[111.64129,-7.98226],[111.64079,-7.98212],[111.64079,-7.98156],[111.64027,-7.98142],[111.63951,-7.9813],[111.63956,-7.98068],[111.63995,-7.98073],[111.64008,-7.97965],[111.64035,-7.97899],[111.64062,-7.97906],[111.64068,-7.97885],[111.64068,-7.97831],[111.64045,-7.97829],[111.64042,-7.97817],[111.63983,-7.97831],[111.63987,-7.97889],[111.6398,-7.97925],[111.63958,-7.97906],[111.63937,-7.97902],[111.63915,-7.97906],[111.63847,-7.97931],[111.6378,-7.98017],[111.63758,-7.98035],[111.63739,-7.98038],[111.63697,-7.98037],[111.63676,-7.98031],[111.63677,-7.98013],[111.63689,-7.97965],[111.63717,-7.97907],[111.63725,-7.97881],[111.63721,-7.97867],[111.63711,-7.97859],[111.63696,-7.97856],[111.63678,-7.97858],[111.63655,-7.97871],[111.63633,-7.97889],[111.63619,-7.97909],[111.63588,-7.97978],[111.63552,-7.98097],[111.6357,-7.98173],[111.63585,-7.98183],[111.63588,-7.98199],[111.63586,-7.98214],[111.63579,-7.98226],[111.63524,-7.98269],[111.63485,-7.98291],[111.6343,-7.98314],[111.63399,-7.98323],[111.6327,-7.98458],[111.63226,-7.98488],[111.63182,-7.98509],[111.63102,-7.9853],[111.63054,-7.98512],[111.63073,-7.98453],[111.63064,-7.98444],[111.62989,-7.98422],[111.63037,-7.98351],[111.6304,-7.98307],[111.63069,-7.98304],[111.63094,-7.98288],[111.63112,-7.98268],[111.63153,-7.98193],[111.63209,-7.9806],[111.63224,-7.97986],[111.6323,-7.97932],[111.63254,-7.97927],[111.63273,-7.97917],[111.63316,-7.97879],[111.6336,-7.97819],[111.63419,-7.97767],[111.63439,-7.97753],[111.63475,-7.97744],[111.63503,-7.97741],[111.63525,-7.97744],[111.63545,-7.97754],[111.63584,-7.97811],[111.63624,-7.97799],[111.63693,-7.97768],[111.63676,-7.97752],[111.63677,-7.9774],[111.63687,-7.97728],[111.63761,-7.9767],[111.63777,-7.97648],[111.63801,-7.97589],[111.63802,-7.97565],[111.63796,-7.97553],[111.63787,-7.97545],[111.63765,-7.97539],[111.63744,-7.97539],[111.63707,-7.97547],[111.63689,-7.97555],[111.63668,-7.97571],[111.63656,-7.97587],[111.63641,-7.97643],[111.63627,-7.97657],[111.63602,-7.97661],[111.63571,-7.97658],[111.63528,-7.97649],[111.63518,-7.97641],[111.63498,-7.9761],[111.63499,-7.97591],[111.63542,-7.97528],[111.63544,-7.97472],[111.63553,-7.97443],[111.6357,-7.97419],[111.63593,-7.97397],[111.63603,-7.97394],[111.63612,-7.97398],[111.63609,-7.97423],[111.6361,-7.97463],[111.63616,-7.97471],[111.63629,-7.97476],[111.63646,-7.97476],[111.63703,-7.97463],[111.63718,-7.97469],[111.63738,-7.97489],[111.6375,-7.97492],[111.63788,-7.97493],[111.63819,-7.97486],[111.63842,-7.97476],[111.63877,-7.97613],[111.63899,-7.97591],[111.63872,-7.97507],[111.6387,-7.97484],[111.63877,-7.97464],[111.63895,-7.97425],[111.63908,-7.97425],[111.63931,-7.97419],[111.63954,-7.97408],[111.63979,-7.97406],[111.64022,-7.97395],[111.64039,-7.97349],[111.64033,-7.97328],[111.6403,-7.97302],[111.64046,-7.97295],[111.64118,-7.97294],[111.64121,-7.97275],[111.64088,-7.97277],[111.64043,-7.97269],[111.64066,-7.97251],[111.64085,-7.9722],[111.64065,-7.97209],[111.64068,-7.97203],[111.64116,-7.9723],[111.64154,-7.97257],[111.64179,-7.9728],[111.64185,-7.9729],[111.64186,-7.97303],[111.64174,-7.97323],[111.6422,-7.97357],[111.64252,-7.97373],[111.64281,-7.9738],[111.64283,-7.97386],[111.64322,-7.97411],[111.64335,-7.97428],[111.64349,-7.97472],[111.64359,-7.97489],[111.64371,-7.975],[111.64446,-7.97529],[111.64462,-7.97543],[111.64473,-7.9756],[111.64477,-7.97579],[111.64492,-7.97582],[111.64509,-7.97581],[111.64509,-7.97595],[111.64502,-7.97608],[111.64444,-7.97639],[111.64385,-7.97662],[111.64376,-7.97673],[111.64367,-7.97695],[111.64392,-7.97758],[111.64395,-7.97828],[111.64376,-7.97893],[111.64377,-7.97908],[111.64392,-7.97923],[111.64402,-7.9794],[111.64408,-7.97963],[111.64403,-7.97984],[111.6436,-7.98051],[111.64277,-7.98134],[111.6426,-7.98156],[111.64253,-7.98176],[111.64254,-7.98192],[111.64307,-7.98274],[111.64316,-7.98297],[111.6431,-7.98321],[111.64284,-7.98356],[111.64257,-7.98376],[111.64249,-7.98355],[111.64248,-7.98338],[111.64223,-7.98318],[111.64163,-7.98355],[111.64154,-7.98368],[111.64132,-7.98415],[111.64119,-7.98427],[111.64093,-7.98463],[111.6407,-7.98475],[111.64055,-7.98477],[111.64036,-7.98474],[111.63911,-7.98399],[111.63894,-7.98402],[111.63875,-7.98417],[111.63867,-7.98448],[111.63922,-7.98474],[111.63905,-7.98487],[111.63959,-7.98526],[111.63971,-7.98543],[111.63961,-7.98575],[111.63942,-7.98597],[111.6389,-7.98584],[111.6387,-7.98633],[111.63886,-7.98651],[111.63903,-7.98652],[111.63922,-7.98631],[111.63948,-7.98643],[111.63955,-7.9864],[111.63965,-7.9861],[111.63981,-7.98619],[111.64005,-7.98642],[111.64015,-7.98671],[111.64028,-7.9868],[111.64038,-7.98679],[111.64069,-7.98661],[111.64096,-7.98649],[111.64109,-7.98648],[111.64124,-7.98655],[111.64168,-7.98704],[111.6422,-7.98742],[111.64223,-7.98757],[111.64221,-7.98766],[111.64206,-7.98776],[111.64185,-7.98784],[111.64167,-7.98807],[111.6417,-7.98823],[111.642,-7.98864],[111.64186,-7.98875],[111.64118,-7.98879],[111.64098,-7.98894],[111.64041,-7.98918],[111.64008,-7.98927],[111.63979,-7.98927],[111.63961,-7.98923],[111.63937,-7.98904],[111.63886,-7.98932],[111.63863,-7.98938],[111.63844,-7.98937],[111.63826,-7.98929],[111.63801,-7.98904],[111.63809,-7.98893],[111.63813,-7.98877],[111.63782,-7.98872],[111.63756,-7.98918],[111.63714,-7.98931],[111.63635,-7.98947],[111.6365,-7.99116],[111.63613,-7.99126],[111.63625,-7.99137],[111.63666,-7.99148],[111.63701,-7.99152],[111.6373,-7.99241],[111.63712,-7.99249],[111.63715,-7.99297],[111.63773,-7.99284],[111.63836,-7.99274],[111.63839,-7.99338],[111.63846,-7.99401],[111.63814,-7.99411],[111.63813,-7.99433],[111.63834,-7.99435],[111.63837,-7.99457],[111.63864,-7.99455],[111.63873,-7.99501],[111.63825,-7.99484],[111.63783,-7.99481],[111.63778,-7.99474],[111.63774,-7.99454],[111.63779,-7.99407],[111.6378,-7.99362],[111.63772,-7.99343],[111.6376,-7.99337],[111.63741,-7.99333],[111.63727,-7.99337],[111.63713,-7.99348],[111.63676,-7.99387],[111.63668,-7.99411],[111.63637,-7.99478],[111.63557,-7.99594],[111.63552,-7.99634],[111.63561,-7.99664],[111.63554,-7.99678],[111.63542,-7.99688],[111.63529,-7.99694],[111.63506,-7.99694],[111.63429,-7.99676],[111.63405,-7.99691],[111.63391,-7.99709],[111.63384,-7.99727],[111.63384,-7.99769],[111.63393,-7.99868],[111.63394,-7.99976],[111.6339,-8.00001],[111.63365,-8.00031],[111.63338,-8.0005],[111.63347,-7.99998],[111.63343,-7.99925],[111.63332,-7.99834],[111.63313,-7.99806],[111.63304,-7.99784],[111.63316,-7.99731],[111.63318,-7.99707],[111.63295,-7.99653],[111.63328,-7.99624],[111.6334,-7.99606],[111.63365,-7.99555],[111.63392,-7.99486],[111.63447,-7.99424],[111.63475,-7.99399],[111.63573,-7.99273],[111.63575,-7.99255],[111.63565,-7.99236],[111.63553,-7.99223],[111.63539,-7.99215],[111.63507,-7.99213],[111.63457,-7.99215],[111.63424,-7.99223],[111.63406,-7.99101],[111.63452,-7.99099],[111.63503,-7.99084],[111.63546,-7.99087],[111.63545,-7.99041],[111.63428,-7.99054],[111.63395,-7.9899],[111.63284,-7.99007],[111.63296,-7.99042],[111.63151,-7.99092],[111.63128,-7.99049],[111.63089,-7.99051],[111.63053,-7.98929],[111.63023,-7.98843],[111.6301,-7.98776],[111.63067,-7.9877],[111.63095,-7.98682],[111.63117,-7.98753],[111.63168,-7.98874],[111.63171,-7.98891],[111.63161,-7.9892],[111.63123,-7.98966],[111.6312,-7.98976],[111.63127,-7.98987],[111.63141,-7.98993],[111.63197,-7.98987],[111.63213,-7.98983],[111.6323,-7.98972],[111.63292,-7.98958],[111.63362,-7.98946],[111.63375,-7.9894],[111.63383,-7.98925],[111.63345,-7.98852],[111.63343,-7.9881],[111.63345,-7.98799],[111.63354,-7.98791],[111.63376,-7.98785],[111.63392,-7.98787],[111.63432,-7.98806],[111.63479,-7.98791],[111.63486,-7.98778],[111.63495,-7.98769],[111.63518,-7.9876],[111.6353,-7.98762],[111.6356,-7.98776],[111.63594,-7.98787],[111.63635,-7.9879],[111.63658,-7.98781],[111.63728,-7.98729],[111.63741,-7.9873],[111.63743,-7.98758],[111.63763,-7.98759],[111.63761,-7.98729],[111.63777,-7.98676],[111.63807,-7.98632]],[[111.64159,-7.98126],[111.64163,-7.98111],[111.64169,-7.98103],[111.64199,-7.98117],[111.64206,-7.98113],[111.64211,-7.98068],[111.64221,-7.98054],[111.64233,-7.98046],[111.64198,-7.97981],[111.64191,-7.97962],[111.64186,-7.97937],[111.64188,-7.9781],[111.64179,-7.97798],[111.64122,-7.97775],[111.64105,-7.97752],[111.6402,-7.97583],[111.63984,-7.97535],[111.63962,-7.97522],[111.63951,-7.97522],[111.63938,-7.97533],[111.63938,-7.9755],[111.63967,-7.97634],[111.63966,-7.97652],[111.63946,-7.97649],[111.6392,-7.9766],[111.63958,-7.97763],[111.63973,-7.97793],[111.64028,-7.9779],[111.64063,-7.97796],[111.64077,-7.97803],[111.64094,-7.97828],[111.64109,-7.97892],[111.64123,-7.97932],[111.64184,-7.9801],[111.64186,-7.98023],[111.64183,-7.9804],[111.64171,-7.98062],[111.64157,-7.98072],[111.64142,-7.98072],[111.64125,-7.98066],[111.64058,-7.97999],[111.64046,-7.98],[111.64037,-7.98007],[111.64033,-7.98021],[111.64037,-7.98044],[111.64063,-7.98086],[111.64104,-7.98141],[111.64145,-7.98208],[111.6416,-7.98214],[111.64176,-7.98214],[111.64166,-7.9818],[111.64159,-7.98126]],[[111.64242,-7.9757],[111.64243,-7.976],[111.64233,-7.97605],[111.64226,-7.97622],[111.64216,-7.97628],[111.64136,-7.97592],[111.64116,-7.97596],[111.64121,-7.97621],[111.6416,-7.97633],[111.64159,-7.97621],[111.64188,-7.97625],[111.64201,-7.9763],[111.64192,-7.97636],[111.64186,-7.97668],[111.64253,-7.9767],[111.64256,-7.97607],[111.64274,-7.97586],[111.64273,-7.97538],[111.64288,-7.97541],[111.64291,-7.97566],[111.64325,-7.9757],[111.64379,-7.97562],[111.64452,-7.97609],[111.64476,-7.97588],[111.64416,-7.97531],[111.64388,-7.97523],[111.64332,-7.97519],[111.64331,-7.97498],[111.64317,-7.97495],[111.64318,-7.97521],[111.64297,-7.97519],[111.64271,-7.97508],[111.642,-7.97498],[111.64171,-7.9747],[111.64159,-7.97454],[111.64132,-7.97431],[111.641,-7.97415],[111.64101,-7.97405],[111.64117,-7.97402],[111.64118,-7.97394],[111.64102,-7.97387],[111.64085,-7.97391],[111.64064,-7.97411],[111.64068,-7.97422],[111.64093,-7.97439],[111.6411,-7.9746],[111.64133,-7.97478],[111.64174,-7.97505],[111.64203,-7.97516],[111.64195,-7.97568],[111.64242,-7.9757]],[[111.64177,-7.97421],[111.64191,-7.97424],[111.642,-7.97403],[111.64216,-7.97414],[111.64226,-7.97412],[111.64213,-7.97386],[111.642,-7.9738],[111.64182,-7.97379],[111.64168,-7.97371],[111.64161,-7.97392],[111.64186,-7.97399],[111.64177,-7.97421]],[[111.64249,-7.97698],[111.64245,-7.97712],[111.64209,-7.97713],[111.64185,-7.97699],[111.64168,-7.97709],[111.64159,-7.97742],[111.64164,-7.97747],[111.64215,-7.97752],[111.64222,-7.97748],[111.64241,-7.97752],[111.64242,-7.97771],[111.64271,-7.97778],[111.64272,-7.97844],[111.6425,-7.97846],[111.64247,-7.97945],[111.64282,-7.97949],[111.64284,-7.97924],[111.64314,-7.97926],[111.64324,-7.97805],[111.64364,-7.97807],[111.64369,-7.97784],[111.64339,-7.97778],[111.64333,-7.97704],[111.64249,-7.97698]],[[111.63248,-7.98218],[111.6337,-7.9823],[111.63426,-7.98043],[111.63441,-7.98041],[111.63448,-7.98032],[111.63476,-7.97872],[111.63491,-7.97849],[111.63429,-7.97829],[111.63406,-7.97866],[111.63443,-7.97885],[111.63428,-7.97922],[111.63323,-7.97931],[111.63304,-7.97975],[111.63382,-7.97995],[111.63333,-7.98114],[111.63271,-7.98115],[111.63248,-7.98218]]]}},{"type":"Feature","properties":{"REMARK":"Perkebunan/Kebun"},"geometry":{"type":"Polygon","coordinates":[[[111.64386,-7.99379],[111.64438,-7.99432],[111.64365,-7.99401],[111.64376,-7.99436],[111.64332,-7.99447],[111.64344,-7.99496],[111.64363,-7.99496],[111.64366,-7.99516],[111.64416,-7.99615],[111.64423,-7.99577],[111.64452,-7.99583],[111.64482,-7.99606],[111.64509,-7.99655],[111.64469,-7.99674],[111.64531,-7.99767],[111.64495,-7.9978],[111.6451,-7.99812],[111.64565,-7.99802],[111.64558,-7.99771],[111.64584,-7.9976],[111.64558,-7.99717],[111.64576,-7.99707],[111.64548,-7.99663],[111.6457,-7.99654],[111.64605,-7.99698],[111.64639,-7.99716],[111.64659,-7.99719],[111.6468,-7.99717],[111.64689,-7.99713],[111.64683,-7.99747],[111.64672,-7.99775],[111.64625,-7.99836],[111.6461,-7.99866],[111.64605,-7.99909],[111.64605,-7.99942],[111.64615,-7.99979],[111.64632,-8.00008],[111.64687,-8.00071],[111.64694,-8.00087],[111.64691,-8.00096],[111.64673,-8.00111],[111.64635,-8.0012],[111.64568,-8.00158],[111.64543,-8.00177],[111.64525,-8.00197],[111.64519,-8.00218],[111.64522,-8.00236],[111.64547,-8.00291],[111.64547,-8.0031],[111.64523,-8.00371],[111.64438,-8.00321],[111.64435,-8.00216],[111.64394,-8.0021],[111.64374,-8.00179],[111.64369,-8.00133],[111.64364,-8.00126],[111.64393,-8.00122],[111.64383,-8.00022],[111.64357,-7.99878],[111.64333,-7.99836],[111.64306,-7.99854],[111.64271,-7.99871],[111.6423,-7.99882],[111.64172,-7.99888],[111.64147,-7.99886],[111.6413,-7.99879],[111.64056,-7.99839],[111.64043,-7.9982],[111.64038,-7.99807],[111.6412,-7.99776],[111.64262,-7.99729],[111.64313,-7.99669],[111.64322,-7.99637],[111.64326,-7.99545],[111.64319,-7.99525],[111.64263,-7.99455],[111.64279,-7.9944],[111.64292,-7.99419],[111.64294,-7.99402],[111.64281,-7.99351],[111.64239,-7.99269],[111.64236,-7.99247],[111.64246,-7.99161],[111.64314,-7.99155],[111.64333,-7.99159],[111.64347,-7.99172],[111.64354,-7.9921],[111.64351,-7.99309],[111.64354,-7.99339],[111.64386,-7.99379]]]}},{"type":"Feature","properties":{"REMARK":"Perkebunan/Kebun"},"geometry":{"type":"Polygon","coordinates":[[[111.65374,-7.9985],[111.6539,-7.99854],[111.65417,-7.99851],[111.65426,-7.99857],[111.65479,-7.9986],[111.65496,-7.99837],[111.65485,-7.99809],[111.65552,-7.99782],[111.6555,-7.99762],[111.65415,-7.99792],[111.65377,-7.99783],[111.65384,-7.99753],[111.65418,-7.99718],[111.65375,-7.99698],[111.65365,-7.99724],[111.65296,-7.99709],[111.65319,-7.99664],[111.65369,-7.99664],[111.654,-7.9966],[111.65503,-7.99645],[111.65567,-7.99631],[111.65621,-7.99637],[111.65631,-7.99633],[111.65599,-7.99767],[111.65573,-7.99777],[111.65513,-7.99811],[111.65499,-7.99828],[111.65487,-7.99884],[111.65435,-7.99909],[111.65418,-7.9993],[111.65403,-7.99966],[111.65376,-8.00079],[111.65364,-8.00108],[111.65353,-8.00125],[111.65352,-8.00185],[111.65328,-8.00252],[111.65269,-8.00298],[111.65265,-8.00309],[111.65267,-8.00329],[111.65296,-8.0042],[111.6531,-8.00446],[111.65314,-8.00467],[111.65309,-8.00478],[111.65295,-8.00483],[111.65277,-8.00483],[111.6522,-8.00468],[111.65189,-8.0047],[111.65173,-8.00477],[111.6513,-8.00404],[111.65095,-8.00352],[111.6507,-8.00273],[111.65044,-8.00231],[111.65012,-8.00204],[111.64992,-8.00194],[111.64963,-8.00192],[111.64969,-8.00163],[111.64968,-8.00111],[111.6501,-7.99972],[111.65049,-7.99897],[111.65091,-7.99827],[111.65106,-7.99796],[111.65115,-7.99747],[111.65111,-7.99726],[111.65103,-7.9971],[111.6505,-7.99659],[111.65038,-7.99643],[111.65034,-7.9963],[111.65038,-7.99611],[111.6505,-7.99599],[111.65089,-7.99575],[111.65107,-7.99587],[111.65113,-7.99592],[111.65122,-7.99621],[111.65142,-7.99643],[111.65162,-7.99656],[111.65215,-7.99668],[111.65211,-7.99722],[111.65193,-7.9976],[111.65283,-7.99788],[111.65336,-7.99815],[111.65374,-7.9985]]]}},{"type":"Feature","properties":{"REMARK":"Perkebunan/Kebun"},"geometry":{"type":"MultiPolygon","coordinates":[[[[111.54003,-8.04084],[111.53974,-8.04104],[111.53973,-8.04101],[111.54003,-8.04084]]],[[[111.53988,-8.00944],[111.53983,-8.00955],[111.53986,-8.00946],[111.53988,-8.00944]]],[[[111.54006,-8.00914],[111.54004,-8.00918],[111.54006,-8.00914],[111.54006,-8.00914]]],[[[111.53622,-8.00237],[111.5358,-8.00292],[111.53623,-8.00277],[111.53645,-8.00278],[111.53667,-8.00286],[111.53671,-8.00294],[111.53657,-8.00347],[111.5366,-8.00363],[111.53668,-8.00371],[111.53748,-8.00402],[111.53773,-8.00418],[111.53788,-8.00433],[111.5382,-8.0048],[111.53832,-8.00515],[111.53845,-8.0054],[111.53858,-8.00551],[111.53873,-8.00551],[111.53861,-8.00556],[111.5382,-8.00554],[111.53555,-8.00518],[111.53537,-8.00506],[111.53477,-8.00409],[111.53451,-8.00264],[111.5352,-8.00159],[111.53556,-8.00112],[111.53567,-8.00082],[111.53579,-8.00063],[111.53592,-8.00013],[111.53589,-8.0],[111.53566,-7.99986],[111.53535,-7.99974],[111.53413,-7.99957],[111.53428,-7.99933],[111.53458,-7.99902],[111.53482,-7.99888],[111.53545,-7.99868],[111.53591,-7.99845],[111.53612,-7.99828],[111.53632,-7.99834],[111.53673,-7.99836],[111.53684,-7.99844],[111.53694,-7.99865],[111.53707,-7.99913],[111.53708,-7.99975],[111.5371,-7.99984],[111.53721,-7.99994],[111.53765,-8.0],[111.53745,-8.00035],[111.53725,-8.00058],[111.53715,-8.00087],[111.53709,-8.00121],[111.53708,-8.00157],[111.53622,-8.00237]]],[[[111.55638,-7.97278],[111.5561,-7.97344],[111.5562,-7.97352],[111.55712,-7.97399],[111.55716,-7.97408],[111.5572,-7.97478],[111.55726,-7.97509],[111.5574,-7.97537],[111.55809,-7.97616],[111.55823,-7.97633],[111.55836,-7.97662],[111.55878,-7.97703],[111.55894,-7.97727],[111.5591,-7.97762],[111.55914,-7.97779],[111.55912,-7.9784],[111.55928,-7.97893],[111.55935,-7.97958],[111.56006,-7.98092],[111.56008,-7.98133],[111.56065,-7.9818],[111.56092,-7.98217],[111.56097,-7.9828],[111.56113,-7.98306],[111.56158,-7.98415],[111.56168,-7.98423],[111.56189,-7.98432],[111.56214,-7.98434],[111.56289,-7.98425],[111.56321,-7.98428],[111.56342,-7.98437],[111.56348,-7.98448],[111.56349,-7.98463],[111.56351,-7.98522],[111.5634,-7.98576],[111.56372,-7.9855],[111.56381,-7.98521],[111.56387,-7.98445],[111.56384,-7.98408],[111.56379,-7.98391],[111.56288,-7.98303],[111.56289,-7.98265],[111.56265,-7.98248],[111.56254,-7.98232],[111.56257,-7.98222],[111.56283,-7.982],[111.56284,-7.98188],[111.56272,-7.98136],[111.56265,-7.98052],[111.56271,-7.98033],[111.56284,-7.9802],[111.56314,-7.9802],[111.56353,-7.97978],[111.56442,-7.97924],[111.56487,-7.97877],[111.56538,-7.97805],[111.56554,-7.97773],[111.56618,-7.97602],[111.56662,-7.97553],[111.56704,-7.97523],[111.56716,-7.9752],[111.56773,-7.97528],[111.56783,-7.97534],[111.568,-7.97553],[111.56839,-7.97615],[111.56846,-7.97637],[111.56845,-7.97653],[111.56836,-7.97666],[111.56816,-7.97677],[111.56757,-7.97693],[111.56734,-7.97706],[111.5672,-7.97721],[111.56695,-7.97758],[111.5669,-7.97776],[111.56694,-7.97824],[111.56704,-7.97834],[111.56762,-7.97877],[111.56778,-7.97902],[111.56807,-7.97965],[111.56816,-7.98002],[111.56818,-7.98033],[111.56814,-7.9806],[111.56766,-7.98176],[111.56775,-7.98249],[111.56763,-7.98263],[111.56733,-7.98273],[111.56722,-7.98282],[111.56715,-7.98294],[111.56725,-7.98342],[111.56774,-7.98435],[111.56792,-7.98464],[111.56794,-7.9848],[111.56784,-7.98547],[111.56786,-7.98561],[111.56808,-7.98605],[111.56815,-7.98633],[111.56811,-7.9867],[111.56912,-7.98815],[111.56916,-7.98829],[111.56911,-7.98856],[111.56901,-7.98879],[111.56865,-7.98917],[111.56848,-7.9894],[111.56838,-7.99],[111.56828,-7.99022],[111.56817,-7.99034],[111.56799,-7.99044],[111.56777,-7.99116],[111.56767,-7.9917],[111.56767,-7.99193],[111.56794,-7.99256],[111.56811,-7.99313],[111.56817,-7.99319],[111.56907,-7.99316],[111.57061,-7.99318],[111.57245,-7.99339],[111.57308,-7.99342],[111.57356,-7.99351],[111.57374,-7.9936],[111.57402,-7.99396],[111.57404,-7.99405],[111.57399,-7.99416],[111.57348,-7.99463],[111.57333,-7.99485],[111.57332,-7.99494],[111.57437,-7.9956],[111.5749,-7.99606],[111.57494,-7.99679],[111.57461,-7.99692],[111.57412,-7.99699],[111.57372,-7.99721],[111.57373,-7.99754],[111.57382,-7.998],[111.57383,-7.99817],[111.57368,-7.99846],[111.57356,-7.99859],[111.5733,-7.99867],[111.57262,-7.99876],[111.57227,-7.9989],[111.57177,-7.99905],[111.57111,-7.99918],[111.57096,-7.9993],[111.57084,-7.99953],[111.57081,-7.9997],[111.57087,-7.99984],[111.57098,-7.99994],[111.57122,-7.99999],[111.57154,-8.0],[111.57167,-8.00004],[111.57193,-8.00062],[111.57216,-8.00069],[111.57237,-8.00085],[111.5725,-8.00106],[111.57266,-8.00183],[111.57263,-8.00211],[111.57241,-8.00236],[111.57233,-8.0024],[111.57205,-8.00243],[111.57173,-8.00243],[111.57129,-8.00271],[111.57079,-8.00285],[111.57058,-8.00287],[111.57012,-8.00269],[111.56996,-8.00269],[111.56936,-8.00288],[111.56797,-8.00274],[111.56753,-8.00264],[111.56711,-8.00244],[111.56689,-8.00247],[111.56633,-8.00288],[111.56546,-8.00436],[111.56537,-8.00468],[111.56539,-8.00505],[111.56567,-8.00599],[111.566,-8.00653],[111.56639,-8.00699],[111.56651,-8.00706],[111.56672,-8.00707],[111.5677,-8.00688],[111.56813,-8.00686],[111.56843,-8.0069],[111.5684,-8.007],[111.56805,-8.00727],[111.56778,-8.00742],[111.56676,-8.00788],[111.56518,-8.00839],[111.56458,-8.0085],[111.56409,-8.00848],[111.56391,-8.00847],[111.56333,-8.0082],[111.56262,-8.00778],[111.5612,-8.00714],[111.56011,-8.00679],[111.55948,-8.00652],[111.55907,-8.00648],[111.55898,-8.00674],[111.55888,-8.00643],[111.55854,-8.00579],[111.55836,-8.00516],[111.55793,-8.00445],[111.55787,-8.00428],[111.55843,-8.00414],[111.55868,-8.00395],[111.55912,-8.00352],[111.55958,-8.00285],[111.55976,-8.00231],[111.55992,-8.00193],[111.56,-8.00168],[111.56004,-8.00136],[111.56003,-7.99939],[111.55994,-7.99888],[111.55983,-7.99877],[111.55964,-7.99875],[111.55908,-7.99886],[111.55876,-7.99905],[111.5579,-7.99972],[111.55735,-7.99983],[111.55719,-7.99995],[111.55719,-8.00001],[111.55689,-8.0],[111.55681,-8.00005],[111.55637,-8.00051],[111.55611,-8.00066],[111.55547,-8.0007],[111.55484,-8.00084],[111.55462,-8.00069],[111.55455,-8.00061],[111.55422,-7.99906],[111.55401,-7.99868],[111.55417,-7.99846],[111.55416,-7.99809],[111.55394,-7.99723],[111.55364,-7.9964],[111.55358,-7.99631],[111.55344,-7.99625],[111.55312,-7.99624],[111.55253,-7.99632],[111.55224,-7.99621],[111.55179,-7.99582],[111.55165,-7.99575],[111.55155,-7.99574],[111.55151,-7.9958],[111.55155,-7.99601],[111.55165,-7.99619],[111.55182,-7.99633],[111.55237,-7.99669],[111.55236,-7.99676],[111.55217,-7.997],[111.55205,-7.99731],[111.55187,-7.99758],[111.55177,-7.99781],[111.5513,-7.99852],[111.55105,-7.99883],[111.55061,-7.99923],[111.55057,-7.99931],[111.55054,-7.99959],[111.55068,-8.00007],[111.55079,-8.00028],[111.55108,-8.00054],[111.55171,-8.00085],[111.55276,-8.00123],[111.5536,-8.00179],[111.55382,-8.0019],[111.55433,-8.00227],[111.55465,-8.00246],[111.55504,-8.0026],[111.55529,-8.00273],[111.55572,-8.00303],[111.55577,-8.00309],[111.55569,-8.00376],[111.55567,-8.00475],[111.55555,-8.0054],[111.55457,-8.00635],[111.55436,-8.00649],[111.55413,-8.00655],[111.55371,-8.00675],[111.55315,-8.00682],[111.55297,-8.00697],[111.55231,-8.00784],[111.5523,-8.00793],[111.55262,-8.00819],[111.55237,-8.00826],[111.55217,-8.00841],[111.55198,-8.00859],[111.55195,-8.00869],[111.55151,-8.00865],[111.5511,-8.00841],[111.5501,-8.00819],[111.54957,-8.00818],[111.54937,-8.00831],[111.54919,-8.00857],[111.54923,-8.00869],[111.54934,-8.00885],[111.54953,-8.00904],[111.55011,-8.00931],[111.55107,-8.00934],[111.55183,-8.0093],[111.55153,-8.00949],[111.55118,-8.00966],[111.55065,-8.01001],[111.55039,-8.01005],[111.5496,-8.01002],[111.54943,-8.01045],[111.54926,-8.01056],[111.54892,-8.0107],[111.54835,-8.01089],[111.54824,-8.011],[111.54814,-8.01138],[111.54814,-8.01189],[111.54849,-8.0123],[111.54859,-8.01247],[111.54868,-8.01277],[111.54873,-8.01318],[111.54871,-8.01348],[111.54862,-8.01384],[111.54833,-8.01438],[111.54802,-8.01442],[111.54785,-8.01455],[111.54754,-8.01497],[111.54748,-8.01515],[111.54754,-8.01542],[111.54775,-8.01576],[111.54792,-8.01594],[111.54858,-8.0164],[111.54837,-8.01672],[111.54832,-8.01685],[111.54832,-8.01703],[111.5484,-8.01733],[111.54835,-8.01785],[111.5484,-8.01805],[111.54846,-8.01812],[111.5493,-8.01802],[111.55006,-8.01807],[111.55036,-8.01844],[111.55052,-8.01879],[111.5506,-8.01912],[111.55113,-8.01918],[111.55132,-8.0184],[111.55063,-8.01795],[111.55048,-8.01713],[111.55076,-8.01705],[111.55135,-8.01698],[111.55169,-8.0168],[111.55192,-8.01663],[111.55215,-8.01616],[111.55237,-8.01591],[111.55306,-8.01538],[111.55325,-8.0152],[111.55397,-8.01388],[111.55466,-8.01218],[111.55467,-8.01187],[111.55461,-8.01152],[111.55428,-8.01049],[111.5541,-8.01016],[111.55379,-8.00995],[111.55355,-8.00988],[111.55284,-8.00917],[111.55282,-8.00906],[111.55285,-8.00888],[111.553,-8.00855],[111.55322,-8.00833],[111.55338,-8.00829],[111.55534,-8.00848],[111.55593,-8.00859],[111.55623,-8.00855],[111.55646,-8.00846],[111.55686,-8.0084],[111.55763,-8.0084],[111.55781,-8.00829],[111.55791,-8.00815],[111.55794,-8.008],[111.55793,-8.00783],[111.55776,-8.00719],[111.55784,-8.00695],[111.55869,-8.00678],[111.55897,-8.00682],[111.55895,-8.00704],[111.55899,-8.00773],[111.55909,-8.00839],[111.55908,-8.00857],[111.55798,-8.01],[111.55791,-8.01016],[111.55791,-8.0105],[111.55848,-8.01137],[111.55864,-8.01172],[111.55871,-8.01201],[111.55872,-8.01252],[111.5588,-8.01263],[111.55913,-8.01291],[111.55965,-8.01321],[111.56043,-8.01343],[111.56098,-8.01378],[111.56113,-8.01386],[111.56127,-8.01389],[111.56188,-8.01385],[111.56263,-8.01389],[111.56309,-8.01371],[111.56347,-8.01367],[111.56363,-8.01369],[111.56401,-8.01384],[111.56435,-8.01391],[111.56468,-8.01391],[111.56465,-8.01407],[111.56468,-8.01413],[111.56492,-8.0146],[111.56507,-8.01477],[111.56528,-8.01491],[111.56538,-8.01495],[111.56568,-8.01485],[111.56569,-8.01475],[111.56574,-8.0147],[111.5669,-8.01545],[111.56786,-8.01615],[111.5682,-8.01658],[111.56897,-8.01769],[111.56917,-8.01814],[111.5692,-8.01838],[111.56918,-8.01849],[111.56889,-8.01932],[111.56873,-8.01965],[111.5684,-8.02022],[111.56803,-8.02055],[111.56789,-8.02085],[111.56776,-8.02132],[111.56776,-8.02205],[111.5677,-8.02213],[111.56709,-8.02249],[111.5667,-8.02284],[111.56651,-8.02306],[111.56642,-8.02332],[111.56626,-8.02475],[111.56615,-8.02481],[111.56572,-8.02479],[111.56561,-8.02472],[111.5656,-8.02447],[111.56556,-8.02437],[111.56522,-8.02376],[111.56501,-8.02381],[111.5647,-8.02376],[111.56452,-8.02378],[111.56398,-8.02401],[111.56367,-8.02404],[111.56349,-8.02403],[111.56338,-8.02398],[111.56328,-8.02377],[111.56317,-8.02324],[111.56283,-8.02255],[111.56188,-8.02104],[111.56172,-8.02089],[111.56159,-8.02081],[111.56137,-8.02082],[111.56113,-8.02096],[111.56088,-8.02119],[111.56044,-8.02101],[111.55954,-8.02029],[111.55889,-8.01998],[111.55877,-8.01996],[111.55847,-8.0203],[111.55838,-8.02051],[111.5583,-8.02104],[111.55785,-8.02299],[111.55776,-8.02325],[111.5577,-8.02333],[111.55754,-8.02344],[111.5574,-8.02347],[111.55709,-8.02322],[111.55704,-8.02319],[111.55695,-8.0232],[111.55687,-8.0229],[111.55653,-8.02241],[111.55632,-8.02186],[111.55619,-8.02113],[111.55622,-8.01971],[111.5562,-8.01929],[111.55572,-8.01968],[111.55557,-8.01983],[111.55524,-8.02039],[111.55504,-8.02107],[111.55519,-8.02258],[111.55552,-8.02338],[111.5558,-8.02393],[111.55589,-8.02426],[111.5559,-8.02447],[111.55572,-8.02464],[111.55573,-8.02562],[111.55586,-8.02614],[111.55563,-8.02646],[111.55534,-8.02626],[111.55486,-8.02606],[111.55458,-8.02561],[111.55431,-8.02548],[111.55324,-8.02505],[111.55302,-8.02499],[111.55259,-8.02504],[111.55188,-8.02453],[111.5516,-8.0247],[111.55164,-8.02501],[111.55248,-8.02573],[111.55271,-8.02604],[111.55278,-8.02631],[111.55273,-8.02648],[111.55256,-8.02666],[111.55242,-8.02671],[111.55202,-8.02657],[111.55184,-8.02654],[111.55147,-8.02674],[111.55125,-8.02696],[111.55116,-8.02713],[111.55113,-8.0274],[111.55129,-8.02817],[111.55148,-8.02885],[111.55163,-8.02908],[111.55185,-8.0293],[111.55299,-8.02972],[111.55337,-8.03009],[111.55408,-8.03057],[111.55519,-8.03155],[111.55526,-8.0317],[111.5552,-8.03177],[111.55504,-8.03185],[111.55378,-8.03203],[111.55347,-8.03214],[111.55274,-8.03264],[111.55252,-8.03272],[111.55234,-8.03265],[111.55211,-8.03263],[111.55186,-8.03243],[111.55153,-8.03225],[111.55144,-8.03217],[111.55125,-8.03181],[111.55105,-8.03209],[111.55051,-8.03159],[111.55016,-8.03145],[111.54981,-8.03139],[111.54993,-8.03101],[111.54986,-8.03036],[111.54973,-8.02972],[111.54969,-8.02937],[111.54959,-8.02896],[111.54929,-8.02824],[111.54927,-8.02812],[111.5492,-8.02803],[111.54883,-8.02781],[111.54837,-8.02768],[111.54773,-8.02772],[111.54715,-8.02781],[111.54666,-8.02795],[111.54585,-8.02831],[111.54566,-8.02855],[111.54507,-8.02908],[111.54497,-8.02923],[111.54475,-8.02988],[111.54448,-8.03084],[111.54433,-8.03193],[111.54436,-8.0332],[111.54458,-8.03395],[111.54468,-8.03421],[111.54489,-8.03449],[111.54527,-8.03519],[111.54548,-8.03549],[111.54557,-8.03571],[111.54558,-8.03596],[111.54524,-8.03761],[111.54521,-8.03787],[111.54528,-8.03809],[111.54524,-8.0382],[111.54507,-8.03842],[111.54558,-8.03849],[111.54605,-8.03859],[111.54612,-8.03846],[111.54618,-8.03843],[111.54645,-8.03839],[111.54703,-8.03843],[111.54716,-8.03837],[111.5473,-8.03822],[111.54738,-8.03819],[111.54814,-8.03833],[111.5485,-8.03829],[111.54858,-8.03812],[111.54865,-8.03757],[111.54897,-8.03754],[111.55007,-8.03808],[111.55108,-8.03813],[111.55224,-8.03835],[111.55229,-8.03863],[111.55225,-8.03894],[111.55214,-8.0392],[111.55168,-8.03977],[111.55135,-8.04007],[111.55125,-8.04012],[111.55101,-8.04018],[111.55087,-8.04012],[111.54977,-8.03951],[111.54938,-8.03912],[111.54886,-8.03934],[111.5484,-8.03939],[111.54834,-8.03943],[111.54832,-8.0396],[111.54854,-8.03962],[111.54962,-8.04017],[111.55007,-8.04125],[111.55037,-8.04173],[111.55038,-8.04213],[111.55026,-8.04267],[111.55016,-8.04294],[111.54999,-8.04317],[111.54982,-8.04323],[111.54965,-8.04316],[111.54896,-8.04263],[111.54878,-8.04256],[111.54859,-8.04253],[111.54835,-8.04242],[111.54792,-8.0421],[111.54779,-8.04185],[111.54771,-8.04179],[111.54734,-8.04169],[111.54653,-8.04175],[111.54596,-8.04171],[111.54581,-8.04165],[111.54553,-8.0413],[111.5451,-8.04123],[111.54488,-8.04125],[111.5448,-8.04121],[111.54443,-8.04089],[111.54402,-8.04038],[111.54362,-8.04018],[111.54328,-8.03987],[111.54286,-8.03966],[111.54265,-8.03966],[111.54232,-8.03974],[111.54211,-8.03983],[111.5415,-8.04024],[111.54115,-8.04061],[111.54092,-8.04067],[111.54042,-8.04048],[111.54058,-8.04026],[111.54085,-8.03893],[111.5404,-8.03757],[111.53998,-8.03677],[111.53986,-8.0366],[111.53969,-8.03646],[111.53854,-8.03685],[111.53913,-8.03557],[111.53873,-8.03527],[111.53861,-8.03507],[111.53864,-8.03472],[111.53919,-8.03392],[111.53953,-8.03316],[111.53963,-8.03281],[111.53964,-8.03241],[111.53956,-8.03192],[111.5393,-8.03113],[111.53907,-8.0306],[111.53863,-8.02982],[111.53804,-8.02886],[111.5375,-8.02769],[111.53726,-8.02686],[111.53719,-8.02646],[111.53712,-8.02528],[111.53719,-8.02303],[111.53712,-8.02265],[111.53717,-8.0222],[111.53745,-8.02129],[111.53748,-8.02085],[111.5376,-8.02024],[111.53772,-8.01991],[111.53812,-8.01922],[111.53817,-8.01906],[111.53814,-8.01875],[111.53791,-8.01814],[111.53779,-8.01759],[111.53764,-8.01667],[111.53766,-8.01618],[111.53794,-8.01487],[111.53809,-8.01443],[111.53833,-8.01403],[111.53859,-8.01349],[111.53926,-8.01183],[111.53981,-8.01163],[111.5404,-8.01136],[111.541,-8.01152],[111.54137,-8.01157],[111.54166,-8.01134],[111.54168,-8.01118],[111.54131,-8.0105],[111.5412,-8.01017],[111.54122,-8.00989],[111.54137,-8.00926],[111.54135,-8.00881],[111.54118,-8.00842],[111.54102,-8.0073],[111.54085,-8.0067],[111.54069,-8.0066],[111.54049,-8.00638],[111.54032,-8.0057],[111.54012,-8.00518],[111.53986,-8.00487],[111.5397,-8.0045],[111.53969,-8.00426],[111.53977,-8.00408],[111.53979,-8.00394],[111.54,-8.00381],[111.54008,-8.00369],[111.54051,-8.00274],[111.54056,-8.00242],[111.53995,-8.00154],[111.54024,-8.00093],[111.54046,-8.00067],[111.54138,-7.99988],[111.54164,-7.99976],[111.54204,-7.99962],[111.54231,-7.9996],[111.54325,-7.99964],[111.54354,-7.99975],[111.54405,-8.00007],[111.54417,-8.00022],[111.54428,-8.00053],[111.54436,-8.00086],[111.54438,-8.0027],[111.54465,-8.00284],[111.54536,-8.00291],[111.54565,-8.00303],[111.54581,-8.00318],[111.54605,-8.00364],[111.54659,-8.00407],[111.54678,-8.00418],[111.54772,-8.00429],[111.54843,-8.00453],[111.54861,-8.00448],[111.54898,-8.00425],[111.54907,-8.00408],[111.54909,-8.00389],[111.549,-8.00373],[111.54884,-8.00359],[111.54823,-8.00329],[111.54809,-8.00314],[111.54761,-8.00242],[111.54745,-8.0023],[111.54691,-8.00201],[111.54665,-8.00177],[111.54653,-8.00159],[111.54693,-8.00172],[111.54733,-8.0018],[111.54813,-8.00177],[111.54813,-8.00184],[111.54821,-8.00199],[111.54837,-8.00226],[111.54855,-8.00245],[111.54889,-8.00256],[111.54921,-8.00259],[111.5499,-8.00259],[111.55004,-8.00254],[111.5501,-8.00245],[111.55008,-8.00225],[111.54995,-8.002],[111.54904,-8.00089],[111.54894,-8.0008],[111.54884,-8.0008],[111.5485,-8.00108],[111.54799,-8.00087],[111.54765,-8.00067],[111.54744,-7.99997],[111.54721,-7.9995],[111.54711,-7.99941],[111.5464,-7.99925],[111.54626,-7.99917],[111.54611,-7.99901],[111.5459,-7.99768],[111.54584,-7.9966],[111.54578,-7.99635],[111.54505,-7.99505],[111.54475,-7.9944],[111.54469,-7.99398],[111.5447,-7.99329],[111.54481,-7.99238],[111.54496,-7.99208],[111.5453,-7.99158],[111.54532,-7.99149],[111.54616,-7.99139],[111.54635,-7.99139],[111.5465,-7.99145],[111.5467,-7.99163],[111.54715,-7.99281],[111.54769,-7.99436],[111.54799,-7.99489],[111.54836,-7.99545],[111.54925,-7.99663],[111.54974,-7.99816],[111.54988,-7.99845],[111.55005,-7.99861],[111.55016,-7.99864],[111.55029,-7.99858],[111.5506,-7.99817],[111.55098,-7.99719],[111.55117,-7.99668],[111.55121,-7.99623],[111.55115,-7.99608],[111.55093,-7.99585],[111.55047,-7.99569],[111.55,-7.99567],[111.54942,-7.99575],[111.54923,-7.99515],[111.54903,-7.99471],[111.549,-7.99453],[111.54905,-7.994],[111.54922,-7.99389],[111.54935,-7.9936],[111.54956,-7.99281],[111.54966,-7.99258],[111.5498,-7.99238],[111.55001,-7.99223],[111.55038,-7.99211],[111.55081,-7.99217],[111.55119,-7.99232],[111.55189,-7.99366],[111.55192,-7.99385],[111.55264,-7.99346],[111.55293,-7.99335],[111.55335,-7.99334],[111.5535,-7.99331],[111.55373,-7.99317],[111.55384,-7.99303],[111.55386,-7.99286],[111.55381,-7.99273],[111.55356,-7.99243],[111.55323,-7.99218],[111.55284,-7.99195],[111.55259,-7.99176],[111.55249,-7.99164],[111.55247,-7.99157],[111.55259,-7.99139],[111.55335,-7.99102],[111.55267,-7.9909],[111.55219,-7.99088],[111.55195,-7.99083],[111.54987,-7.98978],[111.54965,-7.98962],[111.54951,-7.98946],[111.54949,-7.98937],[111.54955,-7.98902],[111.54951,-7.9889],[111.54939,-7.98877],[111.54902,-7.98861],[111.54862,-7.98804],[111.54809,-7.98755],[111.54793,-7.98748],[111.54739,-7.98735],[111.54717,-7.98719],[111.54648,-7.98649],[111.54674,-7.98591],[111.54687,-7.9855],[111.5469,-7.98525],[111.547,-7.98497],[111.54727,-7.98464],[111.54738,-7.98457],[111.54805,-7.98436],[111.54884,-7.9842],[111.54908,-7.98409],[111.54934,-7.98389],[111.54987,-7.98318],[111.55003,-7.98292],[111.55001,-7.9827],[111.55009,-7.9825],[111.55006,-7.98174],[111.55029,-7.98047],[111.55065,-7.97899],[111.55033,-7.97806],[111.55034,-7.97786],[111.5504,-7.97764],[111.55056,-7.97742],[111.55116,-7.97677],[111.55128,-7.97655],[111.55169,-7.97606],[111.5523,-7.9754],[111.55283,-7.97494],[111.55294,-7.97477],[111.55222,-7.97376],[111.55215,-7.97352],[111.55218,-7.97331],[111.55229,-7.97314],[111.55243,-7.97302],[111.55314,-7.97303],[111.55324,-7.97293],[111.55328,-7.97282],[111.55327,-7.9726],[111.55281,-7.97148],[111.55265,-7.9713],[111.55217,-7.97091],[111.55137,-7.97021],[111.55183,-7.96977],[111.55188,-7.96976],[111.55308,-7.97],[111.55434,-7.97014],[111.55455,-7.97027],[111.55469,-7.97042],[111.55484,-7.9708],[111.55493,-7.97095],[111.55509,-7.97106],[111.55524,-7.9711],[111.55581,-7.97113],[111.55621,-7.97133],[111.55666,-7.97149],[111.55691,-7.97166],[111.5569,-7.97184],[111.55684,-7.97188],[111.55594,-7.97212],[111.55601,-7.97226],[111.55623,-7.97244],[111.55639,-7.97266],[111.55638,-7.97278]],[[111.55119,-8.02062],[111.55317,-8.02126],[111.55327,-8.02156],[111.5533,-8.02181],[111.55351,-8.0226],[111.55345,-8.02368],[111.55358,-8.02413],[111.55375,-8.02424],[111.55426,-8.02444],[111.55468,-8.02453],[111.55497,-8.02454],[111.55491,-8.02415],[111.55455,-8.02324],[111.5546,-8.02258],[111.55451,-8.02181],[111.5543,-8.02137],[111.55408,-8.02078],[111.55388,-8.02019],[111.55386,-8.01995],[111.55356,-8.01908],[111.55327,-8.01872],[111.55274,-8.01864],[111.55166,-8.01861],[111.55121,-8.0191],[111.55102,-8.01939],[111.55085,-8.01975],[111.55077,-8.02026],[111.55088,-8.02044],[111.55119,-8.02062]],[[111.54358,-8.02129],[111.54329,-8.0212],[111.54246,-8.02137],[111.54158,-8.02138],[111.54156,-8.02173],[111.54161,-8.02204],[111.54186,-8.02259],[111.54244,-8.02336],[111.54294,-8.02385],[111.54352,-8.02421],[111.54391,-8.02441],[111.54417,-8.0245],[111.54439,-8.0245],[111.54455,-8.02445],[111.5448,-8.0242],[111.54496,-8.02389],[111.54507,-8.0233],[111.5451,-8.02164],[111.54413,-8.02155],[111.54358,-8.02129]]]]}},{"type":"Feature","properties":{"REMARK":"Perkebunan/Kebun"},"geometry":{"type":"Polygon","coordinates":[[[111.62102,-7.95571],[111.62107,-7.95563],[111.62159,-7.95524],[111.62197,-7.95429],[111.62204,-7.95338],[111.6222,-7.95284],[111.62239,-7.95196],[111.62272,-7.95186],[111.62311,-7.95163],[111.62323,-7.95151],[111.62293,-7.95183],[111.62275,-7.95208],[111.62294,-7.95229],[111.6229,-7.95256],[111.62312,-7.95267],[111.62364,-7.95285],[111.62417,-7.95278],[111.62417,-7.95332],[111.6241,-7.95345],[111.62395,-7.95356],[111.62379,-7.95385],[111.62378,-7.95404],[111.62388,-7.9541],[111.62403,-7.95411],[111.6241,-7.95394],[111.62415,-7.95392],[111.62445,-7.95405],[111.62455,-7.95398],[111.6246,-7.95404],[111.62474,-7.95407],[111.62474,-7.95347],[111.62498,-7.95306],[111.625,-7.95291],[111.62521,-7.95298],[111.62555,-7.95347],[111.62573,-7.95403],[111.62576,-7.95424],[111.62583,-7.95424],[111.6258,-7.95437],[111.62585,-7.95448],[111.62588,-7.95494],[111.62583,-7.955],[111.62589,-7.95521],[111.62605,-7.95521],[111.62614,-7.95525],[111.62618,-7.95528],[111.62619,-7.95535],[111.62636,-7.95544],[111.62642,-7.95556],[111.62643,-7.95581],[111.62656,-7.956],[111.62659,-7.95612],[111.6269,-7.95618],[111.62736,-7.95657],[111.62753,-7.95685],[111.62754,-7.95746],[111.62746,-7.95748],[111.62727,-7.95727],[111.62716,-7.95696],[111.62703,-7.95669],[111.62683,-7.95641],[111.62633,-7.95589],[111.62641,-7.95659],[111.62641,-7.9569],[111.62621,-7.95683],[111.62601,-7.95642],[111.62554,-7.95602],[111.62535,-7.95552],[111.62467,-7.95504],[111.62441,-7.95494],[111.62429,-7.95504],[111.62408,-7.95534],[111.62375,-7.95604],[111.62353,-7.95667],[111.62278,-7.95624],[111.6225,-7.9567],[111.62209,-7.95757],[111.62091,-7.95727],[111.62097,-7.95686],[111.6213,-7.95602],[111.62102,-7.95571]]]}},{"type":"Feature","properties":{"REMARK":"Perkebunan/Kebun"},"geometry":{"type":"Polygon","coordinates":[[[111.62529,-7.96935],[111.62576,-7.96939],[111.62576,-7.96922],[111.62673,-7.96937],[111.62678,-7.97058],[111.6272,-7.97098],[111.6279,-7.97053],[111.62858,-7.97097],[111.62883,-7.9712],[111.62891,-7.97151],[111.62886,-7.97161],[111.62856,-7.97172],[111.62889,-7.97207],[111.6291,-7.97216],[111.62926,-7.9722],[111.62974,-7.97206],[111.62986,-7.97207],[111.62997,-7.97215],[111.62989,-7.97253],[111.62962,-7.97285],[111.62993,-7.97328],[111.63034,-7.97292],[111.63044,-7.97297],[111.63126,-7.97298],[111.6316,-7.97294],[111.63198,-7.97302],[111.63222,-7.97311],[111.63241,-7.97291],[111.63305,-7.9726],[111.63313,-7.97246],[111.63228,-7.97198],[111.63181,-7.97214],[111.63161,-7.97224],[111.63158,-7.97221],[111.63172,-7.97207],[111.6318,-7.97206],[111.63215,-7.97186],[111.63248,-7.97139],[111.63255,-7.97127],[111.63251,-7.97104],[111.63227,-7.97056],[111.6326,-7.97039],[111.63327,-7.97031],[111.63287,-7.97036],[111.63283,-7.97046],[111.6328,-7.97057],[111.63293,-7.97069],[111.63307,-7.97069],[111.63316,-7.97065],[111.63302,-7.97118],[111.63289,-7.9711],[111.6328,-7.97113],[111.63275,-7.97126],[111.63286,-7.97144],[111.63307,-7.97138],[111.63342,-7.97138],[111.63347,-7.97121],[111.6336,-7.97121],[111.63457,-7.97142],[111.63487,-7.9714],[111.63529,-7.97117],[111.63555,-7.97093],[111.63587,-7.97103],[111.63611,-7.97118],[111.6364,-7.97126],[111.63628,-7.97165],[111.63613,-7.97186],[111.63546,-7.97228],[111.63515,-7.9726],[111.63501,-7.97289],[111.63414,-7.97251],[111.63368,-7.97262],[111.63328,-7.97276],[111.63295,-7.97293],[111.63261,-7.97328],[111.63351,-7.97368],[111.6331,-7.97374],[111.63246,-7.97359],[111.63193,-7.97331],[111.63146,-7.97328],[111.63087,-7.97342],[111.63034,-7.97385],[111.63027,-7.97406],[111.63028,-7.9742],[111.63036,-7.97433],[111.63052,-7.97445],[111.63117,-7.97457],[111.6302,-7.97477],[111.63,-7.97485],[111.62951,-7.9753],[111.62933,-7.97481],[111.62913,-7.97459],[111.62811,-7.97465],[111.6275,-7.97449],[111.62751,-7.97487],[111.62668,-7.97462],[111.6261,-7.97419],[111.62613,-7.97381],[111.62564,-7.97347],[111.62484,-7.9731],[111.625,-7.97286],[111.62492,-7.97266],[111.6249,-7.97236],[111.62507,-7.97185],[111.62521,-7.97169],[111.62554,-7.97161],[111.6256,-7.97156],[111.62564,-7.97141],[111.62605,-7.97152],[111.62622,-7.97089],[111.62614,-7.9704],[111.62593,-7.96991],[111.62584,-7.96979],[111.62561,-7.96981],[111.62556,-7.96965],[111.62551,-7.96959],[111.62518,-7.96934],[111.62506,-7.96923],[111.62504,-7.96915],[111.62529,-7.96935]],[[111.63535,-7.9718],[111.63496,-7.97155],[111.63456,-7.97157],[111.63382,-7.97167],[111.63358,-7.97154],[111.63342,-7.97154],[111.63326,-7.97181],[111.63329,-7.97202],[111.63377,-7.97217],[111.63463,-7.9721],[111.63501,-7.97197],[111.63535,-7.9718]]]}},{"type":"Feature","properties":{"REMARK":"Perkebunan/Kebun"},"geometry":{"type":"Polygon","coordinates":[[[111.6351,-7.96502],[111.63531,-7.96604],[111.63539,-7.96599],[111.63574,-7.9659],[111.63621,-7.96587],[111.63662,-7.96593],[111.63664,-7.96606],[111.63743,-7.9666],[111.63816,-7.96722],[111.63864,-7.96743],[111.63909,-7.96768],[111.63933,-7.96786],[111.63959,-7.96819],[111.63975,-7.96856],[111.63951,-7.96885],[111.63878,-7.9693],[111.63839,-7.96958],[111.63775,-7.96971],[111.63758,-7.97016],[111.63751,-7.97062],[111.63751,-7.97106],[111.63745,-7.9713],[111.63641,-7.97121],[111.63635,-7.97112],[111.6359,-7.97082],[111.6357,-7.97062],[111.63553,-7.9705],[111.63508,-7.96999],[111.63496,-7.96995],[111.63465,-7.97],[111.63453,-7.96996],[111.6344,-7.96977],[111.63494,-7.96971],[111.63501,-7.96893],[111.63512,-7.96864],[111.6354,-7.96829],[111.63542,-7.96716],[111.63526,-7.96693],[111.63476,-7.96646],[111.63456,-7.96672],[111.63441,-7.96705],[111.63435,-7.96734],[111.63404,-7.96792],[111.63334,-7.96872],[111.63276,-7.96901],[111.63258,-7.96885],[111.63281,-7.96796],[111.63274,-7.96777],[111.63265,-7.96769],[111.63252,-7.9677],[111.63172,-7.96795],[111.63158,-7.96792],[111.63145,-7.96772],[111.63137,-7.96739],[111.63131,-7.96676],[111.63122,-7.96648],[111.6319,-7.96587],[111.63306,-7.96507],[111.63339,-7.96534],[111.63348,-7.96546],[111.6335,-7.96565],[111.63218,-7.96637],[111.63221,-7.96667],[111.63248,-7.96674],[111.63363,-7.96663],[111.63368,-7.96638],[111.63306,-7.96637],[111.63307,-7.96613],[111.63331,-7.96601],[111.6335,-7.96595],[111.63476,-7.96561],[111.63494,-7.96548],[111.63487,-7.96524],[111.6351,-7.96502]],[[111.63563,-7.96979],[111.63568,-7.97046],[111.63621,-7.97085],[111.63637,-7.97084],[111.63673,-7.97064],[111.63705,-7.97059],[111.63724,-7.97042],[111.63693,-7.96979],[111.63659,-7.96967],[111.63665,-7.96927],[111.63702,-7.96931],[111.63712,-7.96902],[111.63695,-7.96887],[111.63626,-7.96865],[111.63611,-7.96817],[111.63628,-7.96799],[111.63684,-7.9681],[111.63716,-7.96789],[111.63729,-7.96724],[111.63698,-7.96702],[111.63655,-7.96681],[111.63621,-7.96705],[111.63587,-7.96722],[111.63587,-7.96742],[111.6357,-7.96814],[111.63549,-7.9687],[111.63537,-7.96921],[111.63563,-7.96979]]]}},{"type":"Feature","properties":{"REMARK":"Perkebunan/Kebun"},"geometry":{"type":"MultiPolygon","coordinates":[[[[111.61116,-7.93649],[111.61125,-7.93683],[111.61119,-7.93679],[111.61116,-7.93649]]],[[[111.60931,-7.93579],[111.60914,-7.93585],[111.6092,-7.93583],[111.60931,-7.93579]]],[[[111.60528,-7.93583],[111.60525,-7.93583],[111.60514,-7.93579],[111.60528,-7.93583]]],[[[111.61115,-7.93644],[111.6109,-7.93592],[111.61077,-7.93579],[111.61049,-7.93567],[111.61069,-7.93571],[111.61107,-7.93594],[111.61115,-7.93644]]],[[[111.60941,-7.93575],[111.60954,-7.93567],[111.60969,-7.93569],[111.60941,-7.93575]]],[[[111.60458,-7.93517],[111.60459,-7.93519],[111.60458,-7.93517],[111.60458,-7.93517]]],[[[111.6127,-7.93512],[111.61247,-7.93523],[111.6126,-7.93511],[111.6127,-7.93512]]],[[[111.60651,-7.93464],[111.60629,-7.9348],[111.60627,-7.93473],[111.60633,-7.93465],[111.60651,-7.93464]]],[[[111.6044,-7.93458],[111.6044,-7.93458],[111.6044,-7.93458],[111.6044,-7.93458]]],[[[111.59444,-7.93401],[111.5938,-7.93427],[111.594,-7.93409],[111.59444,-7.93401]]],[[[111.60182,-7.93402],[111.60151,-7.93408],[111.6017,-7.93399],[111.60182,-7.93402]]],[[[111.60026,-7.93352],[111.60019,-7.93361],[111.60008,-7.93333],[111.59985,-7.93306],[111.60008,-7.93313],[111.60014,-7.93319],[111.60026,-7.93343],[111.60026,-7.93352]]],[[[111.587,-7.9313],[111.58803,-7.93159],[111.58904,-7.93157],[111.58783,-7.9316],[111.58752,-7.93157],[111.587,-7.9313]]],[[[111.57542,-7.92494],[111.57664,-7.92581],[111.57818,-7.92709],[111.57898,-7.92795],[111.58067,-7.93001],[111.58188,-7.9299],[111.58244,-7.93003],[111.58296,-7.93006],[111.58459,-7.93005],[111.58544,-7.93023],[111.58635,-7.93073],[111.58699,-7.9313],[111.58561,-7.93051],[111.5853,-7.93127],[111.58516,-7.93178],[111.58518,-7.93206],[111.58556,-7.93235],[111.58594,-7.93255],[111.5869,-7.93296],[111.58728,-7.93316],[111.58875,-7.93408],[111.58911,-7.93424],[111.58937,-7.93425],[111.58963,-7.93419],[111.58987,-7.93406],[111.58998,-7.93392],[111.59007,-7.93369],[111.59019,-7.93324],[111.59025,-7.93245],[111.58994,-7.93154],[111.59112,-7.9314],[111.59139,-7.93144],[111.59139,-7.9315],[111.59158,-7.9315],[111.59245,-7.93167],[111.59246,-7.93677],[111.59187,-7.93672],[111.59029,-7.93647],[111.59003,-7.93648],[111.5898,-7.93659],[111.58882,-7.93772],[111.58869,-7.93774],[111.58831,-7.93766],[111.58815,-7.93758],[111.58794,-7.93734],[111.58781,-7.9371],[111.58761,-7.93597],[111.5873,-7.93539],[111.58713,-7.93518],[111.586,-7.93419],[111.58562,-7.93391],[111.58406,-7.93329],[111.58316,-7.93285],[111.5829,-7.93261],[111.58236,-7.93158],[111.5824,-7.93129],[111.58229,-7.93101],[111.58213,-7.93083],[111.58191,-7.93066],[111.58176,-7.93063],[111.58061,-7.93085],[111.58043,-7.93097],[111.57955,-7.93178],[111.5782,-7.93284],[111.57797,-7.93312],[111.57772,-7.93355],[111.57759,-7.93362],[111.5769,-7.93357],[111.5764,-7.93366],[111.5757,-7.93394],[111.57434,-7.93542],[111.57387,-7.93579],[111.57355,-7.93591],[111.5733,-7.93592],[111.57177,-7.93573],[111.57056,-7.93596],[111.57063,-7.93577],[111.57168,-7.93525],[111.57202,-7.93503],[111.57221,-7.93483],[111.57222,-7.93429],[111.57207,-7.93414],[111.57185,-7.93404],[111.57162,-7.93405],[111.57045,-7.93449],[111.56919,-7.93491],[111.5688,-7.93497],[111.56752,-7.93503],[111.56741,-7.93487],[111.56738,-7.93465],[111.56744,-7.93435],[111.56755,-7.93421],[111.56807,-7.93384],[111.56815,-7.93375],[111.56821,-7.93348],[111.5682,-7.93303],[111.56813,-7.93274],[111.56777,-7.93267],[111.5674,-7.93268],[111.56656,-7.93295],[111.56587,-7.93299],[111.56545,-7.93306],[111.565,-7.93326],[111.56342,-7.93381],[111.56285,-7.93391],[111.56256,-7.93405],[111.56143,-7.93446],[111.56059,-7.93472],[111.56051,-7.93461],[111.56024,-7.93399],[111.55994,-7.93358],[111.55966,-7.93329],[111.55946,-7.93301],[111.55945,-7.93286],[111.55952,-7.93271],[111.55968,-7.93255],[111.55985,-7.93246],[111.56023,-7.93236],[111.56118,-7.93218],[111.56159,-7.93219],[111.56332,-7.93235],[111.56362,-7.9323],[111.5684,-7.93102],[111.56875,-7.93084],[111.5684,-7.9303],[111.56787,-7.92985],[111.56768,-7.92958],[111.56749,-7.92918],[111.56723,-7.92887],[111.56706,-7.92878],[111.56688,-7.92875],[111.56669,-7.92879],[111.56651,-7.92863],[111.56613,-7.92938],[111.56601,-7.92943],[111.56588,-7.9294],[111.56529,-7.92885],[111.56519,-7.9289],[111.56504,-7.92906],[111.5648,-7.92984],[111.56471,-7.92985],[111.56461,-7.92978],[111.56442,-7.92933],[111.56433,-7.92933],[111.56426,-7.92941],[111.56404,-7.92999],[111.56389,-7.93014],[111.56378,-7.93015],[111.56312,-7.92996],[111.56292,-7.93001],[111.56285,-7.93008],[111.5626,-7.93052],[111.56249,-7.93058],[111.5623,-7.93056],[111.56194,-7.93045],[111.56141,-7.93016],[111.56125,-7.93],[111.56117,-7.92985],[111.56115,-7.92921],[111.56107,-7.92911],[111.56092,-7.92905],[111.56031,-7.92904],[111.56009,-7.92894],[111.5599,-7.92875],[111.55937,-7.92808],[111.559,-7.92782],[111.55932,-7.9276],[111.55968,-7.9275],[111.56069,-7.92679],[111.56105,-7.92662],[111.56143,-7.92653],[111.56241,-7.92667],[111.563,-7.92681],[111.56353,-7.92683],[111.56414,-7.92671],[111.56604,-7.9257],[111.56691,-7.92538],[111.56735,-7.92528],[111.56779,-7.92523],[111.56858,-7.92527],[111.56909,-7.92527],[111.56969,-7.9252],[111.57102,-7.92495],[111.57216,-7.92422],[111.57263,-7.92376],[111.57177,-7.92313],[111.5716,-7.92287],[111.57155,-7.92265],[111.57145,-7.92161],[111.57137,-7.92126],[111.57115,-7.92084],[111.57099,-7.91984],[111.57085,-7.91934],[111.57073,-7.91915],[111.57078,-7.91897],[111.57089,-7.91883],[111.57178,-7.91848],[111.57188,-7.91851],[111.57197,-7.91862],[111.57208,-7.91897],[111.57179,-7.91909],[111.57154,-7.91925],[111.57156,-7.91971],[111.57173,-7.92009],[111.57203,-7.92103],[111.57242,-7.9218],[111.57285,-7.92236],[111.57472,-7.9242],[111.57542,-7.92494]],[[111.5746,-7.93198],[111.57498,-7.93202],[111.57611,-7.93191],[111.57678,-7.93175],[111.57702,-7.93164],[111.57751,-7.93123],[111.5788,-7.9303],[111.57913,-7.92996],[111.57936,-7.92965],[111.57849,-7.92959],[111.57822,-7.92953],[111.57784,-7.92931],[111.57747,-7.92915],[111.5771,-7.92914],[111.57703,-7.92921],[111.57662,-7.93008],[111.57601,-7.93026],[111.57517,-7.93069],[111.57463,-7.93112],[111.57371,-7.93147],[111.57351,-7.93161],[111.57351,-7.93167],[111.5746,-7.93198]]]]}}]}