{"type":"FeatureCollection","features":[{"type":"Feature","properties":{"pippib":"PIPPIB KAWASAN"},"geometry":{"type":"MultiPolygon","coordinates":[[[[111.5425,-8.04189],[111.54235,-8.04195],[111.54218,-8.04184],[111.54239,-8.0417],[111.54251,-8.04171],[111.54259,-8.04175],[111.5425,-8.04189]]],[[[111.54431,-8.04138],[111.5442,-8.04141],[111.54374,-8.04127],[111.54368,-8.04122],[111.54388,-8.04095],[111.54406,-8.04096],[111.54417,-8.0411],[111.54431,-8.04138]]]]}},{"type":"Feature","properties":{"pippib":"PIPPIB KAWASAN"},"geometry":{"type":"Polygon","coordinates":[[[111.57655,-8.03864],[111.57652,-8.03865],[111.5765,-8.03862],[111.57652,-8.03864],[111.57655,-8.03864]]]}},{"type":"Feature","properties":{"pippib":"PIPPIB KAWASAN"},"geometry":{"type":"Polygon","coordinates":[[[111.57628,-8.03846],[111.57587,-8.03839],[111.57568,-8.03825],[111.57562,-8.03814],[111.57554,-8.03778],[111.57568,-8.03825],[111.57586,-8.03837],[111.57628,-8.03846]]]}},{"type":"Feature","properties":{"pippib":"PIPPIB KAWASAN"},"geometry":{"type":"Polygon","coordinates":[[[111.57544,-8.03747],[111.57542,-8.03742],[111.57542,-8.0374],[111.57543,-8.03741],[111.57544,-8.03747]]]}},{"type":"Feature","properties":{"pippib":"PIPPIB KAWASAN"},"geometry":{"type":"Polygon","coordinates":[[[111.5742,-8.03701],[111.57436,-8.03692],[111.57436,-8.03692],[111.57428,-8.03697],[111.5742,-8.03701]]]}},{"type":"Feature","properties":{"pippib":"PIPPIB KAWASAN"},"geometry":{"type":"Polygon","coordinates":[[[111.57508,-8.03699],[111.5747,-8.03683],[111.57467,-8.03684],[111.5747,-8.03683],[111.57508,-8.03699]]]}},{"type":"Feature","properties":{"pippib":"PIPPIB KAWASAN"},"geometry":{"type":"Polygon","coordinates":[[[111.54817,-8.03105],[111.54833,-8.03139],[111.54851,-8.03167],[111.54858,-8.03188],[111.54811,-8.03148],[111.54788,-8.03121],[111.54774,-8.03118],[111.54756,-8.03108],[111.54725,-8.03111],[111.54711,-8.03103],[111.54703,-8.03091],[111.5468,-8.03029],[111.54685,-8.03011],[111.54685,-8.02987],[111.54696,-8.02955],[111.54695,-8.02923],[111.54711,-8.02905],[111.54757,-8.02932],[111.54787,-8.02986],[111.54795,-8.03003],[111.54792,-8.03082],[111.54817,-8.03105]]]}},{"type":"Feature","properties":{"pippib":"PIPPIB KAWASAN"},"geometry":{"type":"Polygon","coordinates":[[[111.57399,-8.03717],[111.57398,-8.03717],[111.574,-8.03717],[111.57399,-8.03717]]]}},{"type":"Feature","properties":{"pippib":"PIPPIB KAWASAN"},"geometry":{"type":"MultiPolygon","coordinates":[[[[111.55964,-8.04938],[111.55987,-8.04928],[111.56001,-8.04929],[111.56008,-8.04934],[111.55964,-8.04938]]],[[[111.56143,-8.04887],[111.56186,-8.04914],[111.5623,-8.04912],[111.56251,-8.04919],[111.5629,-8.04956],[111.56315,-8.04967],[111.56286,-8.04967],[111.56263,-8.04957],[111.56239,-8.04932],[111.56164,-8.04916],[111.56147,-8.04904],[111.56112,-8.04892],[111.56132,-8.04886],[111.56143,-8.04887]]],[[[111.56964,-8.0487],[111.56927,-8.04871],[111.56947,-8.04865],[111.56964,-8.0487]]],[[[111.57178,-8.04823],[111.57199,-8.04835],[111.57189,-8.04837],[111.57092,-8.04834],[111.57063,-8.04837],[111.57078,-8.04816],[111.57096,-8.04803],[111.57128,-8.04808],[111.57178,-8.04823]]],[[[111.56606,-8.04785],[111.56723,-8.04854],[111.56758,-8.04865],[111.56824,-8.04865],[111.56838,-8.0487],[111.56866,-8.04887],[111.56851,-8.04892],[111.56828,-8.04891],[111.56761,-8.0488],[111.56716,-8.04869],[111.56577,-8.04796],[111.56542,-8.04795],[111.56485,-8.04799],[111.56493,-8.04793],[111.56506,-8.0479],[111.56547,-8.04789],[111.56578,-8.0478],[111.56606,-8.04785]]],[[[111.57413,-8.03085],[111.57413,-8.03115],[111.57479,-8.0315],[111.57444,-8.03173],[111.57437,-8.03187],[111.57436,-8.03212],[111.57442,-8.03225],[111.57451,-8.0323],[111.5747,-8.03229],[111.57535,-8.03208],[111.57551,-8.03207],[111.57563,-8.03211],[111.57571,-8.03217],[111.57555,-8.03228],[111.57557,-8.03217],[111.57553,-8.03223],[111.57552,-8.0322],[111.57546,-8.03235],[111.57528,-8.03251],[111.5754,-8.03276],[111.57514,-8.03286],[111.57507,-8.03292],[111.57505,-8.03306],[111.57508,-8.03328],[111.57515,-8.03344],[111.57548,-8.0338],[111.5757,-8.03452],[111.57597,-8.03484],[111.57637,-8.03518],[111.57674,-8.03589],[111.57692,-8.03616],[111.577,-8.03626],[111.57722,-8.03633],[111.57746,-8.03607],[111.57758,-8.03601],[111.57759,-8.0365],[111.57747,-8.0371],[111.57714,-8.03784],[111.57667,-8.03818],[111.57652,-8.03784],[111.57655,-8.03764],[111.57638,-8.03757],[111.57631,-8.0374],[111.5759,-8.037],[111.57579,-8.037],[111.57558,-8.03653],[111.57537,-8.03642],[111.57536,-8.03624],[111.57517,-8.03624],[111.57476,-8.03561],[111.57453,-8.03539],[111.57433,-8.03496],[111.57389,-8.035],[111.57386,-8.03476],[111.57375,-8.03458],[111.57236,-8.03491],[111.57239,-8.03504],[111.57224,-8.03507],[111.57226,-8.03525],[111.57267,-8.03548],[111.5731,-8.03549],[111.57369,-8.03566],[111.57374,-8.03572],[111.57374,-8.03585],[111.574,-8.03607],[111.57418,-8.03638],[111.57424,-8.0367],[111.5744,-8.03686],[111.57402,-8.03706],[111.57401,-8.0371],[111.57393,-8.03714],[111.57385,-8.03737],[111.57404,-8.03764],[111.57397,-8.03783],[111.57404,-8.03808],[111.57431,-8.03823],[111.57425,-8.0384],[111.57444,-8.03855],[111.57453,-8.0389],[111.57425,-8.03969],[111.57416,-8.0399],[111.57416,-8.04022],[111.57404,-8.04033],[111.57372,-8.04157],[111.57377,-8.04182],[111.5737,-8.04186],[111.5737,-8.04192],[111.57365,-8.04195],[111.57363,-8.04224],[111.57394,-8.04243],[111.57375,-8.04283],[111.57366,-8.0431],[111.57359,-8.04369],[111.57384,-8.04466],[111.5735,-8.0463],[111.57352,-8.0468],[111.57345,-8.04763],[111.57339,-8.04782],[111.57327,-8.04795],[111.57268,-8.04823],[111.57222,-8.04831],[111.57188,-8.04754],[111.57175,-8.04735],[111.57145,-8.04706],[111.57139,-8.04686],[111.57125,-8.04664],[111.57101,-8.0466],[111.57042,-8.04666],[111.57033,-8.04652],[111.57053,-8.04594],[111.57087,-8.04513],[111.57044,-8.0448],[111.56977,-8.04454],[111.56937,-8.04455],[111.56936,-8.04428],[111.56953,-8.04427],[111.57025,-8.04434],[111.57053,-8.04443],[111.57051,-8.04416],[111.57041,-8.04385],[111.57051,-8.0436],[111.57078,-8.04335],[111.57087,-8.04293],[111.57086,-8.04271],[111.57102,-8.04222],[111.57127,-8.04216],[111.57157,-8.04158],[111.57169,-8.04144],[111.5717,-8.04115],[111.57241,-8.04076],[111.57241,-8.04043],[111.57231,-8.03988],[111.57267,-8.03964],[111.57283,-8.03926],[111.57317,-8.03947],[111.57337,-8.03951],[111.57348,-8.03909],[111.57365,-8.0388],[111.57364,-8.03857],[111.57349,-8.03824],[111.57341,-8.03792],[111.57306,-8.03739],[111.57287,-8.03698],[111.57246,-8.03641],[111.57224,-8.03604],[111.57131,-8.03598],[111.57074,-8.03563],[111.57018,-8.03521],[111.56979,-8.03503],[111.56948,-8.03473],[111.56952,-8.03417],[111.56974,-8.0336],[111.56942,-8.033],[111.56897,-8.03303],[111.56872,-8.03299],[111.56845,-8.03299],[111.56859,-8.03275],[111.56858,-8.03254],[111.56874,-8.03196],[111.56904,-8.03179],[111.56933,-8.03196],[111.5695,-8.03198],[111.56967,-8.03196],[111.56972,-8.03185],[111.56988,-8.03192],[111.57057,-8.03265],[111.57043,-8.03283],[111.57042,-8.03299],[111.57063,-8.03317],[111.57135,-8.0334],[111.57189,-8.03375],[111.57209,-8.03369],[111.57221,-8.03351],[111.57207,-8.03318],[111.57221,-8.03276],[111.5725,-8.03247],[111.57286,-8.03234],[111.57291,-8.03216],[111.57319,-8.03169],[111.5732,-8.03159],[111.57315,-8.03149],[111.57288,-8.03116],[111.5729,-8.03106],[111.57317,-8.03109],[111.57413,-8.03085]]]]}},{"type":"Feature","properties":{"pippib":"PIPPIB KAWASAN"},"geometry":{"type":"Polygon","coordinates":[[[111.57778,-8.01584],[111.57765,-8.01619],[111.57764,-8.01632],[111.57809,-8.01633],[111.57827,-8.01583],[111.5779,-8.01569],[111.57794,-8.01566],[111.57809,-8.01564],[111.57816,-8.01574],[111.57825,-8.01551],[111.57827,-8.01497],[111.5782,-8.01434],[111.57801,-8.01394],[111.57828,-8.01372],[111.57907,-8.01324],[111.57932,-8.01257],[111.57994,-8.0126],[111.57963,-8.01304],[111.57978,-8.013],[111.58,-8.01301],[111.58012,-8.01311],[111.58052,-8.01303],[111.5811,-8.01242],[111.58134,-8.01222],[111.5816,-8.01187],[111.5815,-8.01157],[111.5816,-8.01157],[111.58217,-8.01199],[111.58252,-8.01235],[111.58273,-8.01271],[111.58286,-8.01276],[111.583,-8.01285],[111.58317,-8.01309],[111.58349,-8.01324],[111.58353,-8.01336],[111.58382,-8.01356],[111.58426,-8.01324],[111.58423,-8.01278],[111.58434,-8.01262],[111.58474,-8.01224],[111.58506,-8.01149],[111.5851,-8.01121],[111.58468,-8.01086],[111.58456,-8.01067],[111.5845,-8.01036],[111.58439,-8.01009],[111.58429,-8.00967],[111.58426,-8.00929],[111.58429,-8.00902],[111.5846,-8.00907],[111.58489,-8.00917],[111.58541,-8.00943],[111.58597,-8.00983],[111.58662,-8.00977],[111.58675,-8.01006],[111.58737,-8.01],[111.58732,-8.00989],[111.58758,-8.00969],[111.58745,-8.00964],[111.58737,-8.00951],[111.58737,-8.00926],[111.58721,-8.00811],[111.58746,-8.00789],[111.58713,-8.00735],[111.58743,-8.0075],[111.58771,-8.00757],[111.588,-8.00735],[111.58863,-8.0071],[111.58891,-8.00683],[111.58905,-8.00645],[111.58936,-8.00617],[111.59132,-8.01141],[111.59144,-8.01161],[111.59166,-8.01171],[111.59206,-8.01173],[111.59199,-8.01213],[111.59178,-8.0125],[111.5917,-8.01282],[111.59138,-8.01263],[111.59106,-8.01274],[111.59083,-8.0129],[111.59071,-8.01307],[111.59069,-8.01322],[111.59072,-8.01338],[111.5907,-8.01352],[111.59058,-8.01359],[111.59006,-8.01346],[111.58974,-8.01346],[111.58943,-8.01357],[111.58899,-8.01388],[111.58887,-8.01404],[111.58881,-8.01433],[111.58865,-8.01452],[111.58838,-8.01478],[111.58831,-8.01495],[111.58876,-8.01508],[111.58916,-8.01524],[111.58931,-8.01534],[111.58959,-8.01562],[111.58984,-8.01573],[111.58963,-8.01616],[111.58952,-8.01627],[111.58943,-8.0163],[111.5893,-8.01631],[111.58913,-8.01613],[111.58853,-8.01566],[111.58837,-8.0157],[111.58809,-8.01607],[111.58806,-8.01625],[111.5881,-8.01676],[111.58803,-8.017],[111.58789,-8.01721],[111.58769,-8.01742],[111.58712,-8.01792],[111.58701,-8.01808],[111.58701,-8.01824],[111.5871,-8.01833],[111.5873,-8.01835],[111.58752,-8.01831],[111.58839,-8.01853],[111.58857,-8.01859],[111.58854,-8.01873],[111.58796,-8.01914],[111.58747,-8.01981],[111.58716,-8.0201],[111.58702,-8.02014],[111.58631,-8.02015],[111.58458,-8.01973],[111.58431,-8.01969],[111.58417,-8.01974],[111.58406,-8.01942],[111.58387,-8.0192],[111.5842,-8.0192],[111.5844,-8.01901],[111.58452,-8.01896],[111.58482,-8.019],[111.585,-8.01894],[111.58525,-8.01864],[111.58573,-8.01855],[111.58584,-8.01823],[111.5855,-8.01811],[111.58507,-8.01806],[111.58451,-8.01771],[111.58474,-8.01742],[111.58512,-8.01732],[111.58514,-8.01711],[111.58522,-8.01691],[111.58551,-8.01655],[111.58575,-8.01635],[111.58628,-8.01627],[111.58639,-8.01634],[111.5866,-8.01633],[111.58688,-8.0161],[111.58702,-8.01596],[111.58718,-8.01558],[111.58721,-8.01538],[111.58708,-8.01549],[111.58696,-8.01553],[111.5864,-8.01555],[111.58625,-8.0156],[111.58587,-8.01592],[111.58581,-8.01599],[111.58574,-8.01625],[111.58564,-8.01632],[111.5855,-8.01627],[111.58541,-8.0162],[111.58525,-8.01622],[111.58498,-8.01633],[111.58475,-8.01627],[111.58415,-8.01627],[111.58346,-8.01607],[111.58272,-8.016],[111.58277,-8.01539],[111.58242,-8.01518],[111.58257,-8.01501],[111.58197,-8.01476],[111.58156,-8.01462],[111.58152,-8.01484],[111.58131,-8.01487],[111.58117,-8.01488],[111.58052,-8.0148],[111.58042,-8.01475],[111.58032,-8.01478],[111.58022,-8.01502],[111.58027,-8.01516],[111.58047,-8.01534],[111.58047,-8.01544],[111.58036,-8.01583],[111.58045,-8.01595],[111.58088,-8.01615],[111.58096,-8.01626],[111.58098,-8.01653],[111.58105,-8.01669],[111.58101,-8.01699],[111.58105,-8.01747],[111.58102,-8.01765],[111.58076,-8.01776],[111.58067,-8.01775],[111.58059,-8.01759],[111.58029,-8.01788],[111.58028,-8.01768],[111.5801,-8.01761],[111.58007,-8.01743],[111.58016,-8.01726],[111.58015,-8.01673],[111.58002,-8.01661],[111.57967,-8.01651],[111.57958,-8.01641],[111.57972,-8.01621],[111.57968,-8.01604],[111.57958,-8.01588],[111.57923,-8.01569],[111.57849,-8.01618],[111.57783,-8.01651],[111.57751,-8.01683],[111.57728,-8.01747],[111.5773,-8.01774],[111.57706,-8.01805],[111.57642,-8.0181],[111.57586,-8.01801],[111.57507,-8.01806],[111.57494,-8.01792],[111.57487,-8.01744],[111.57542,-8.01692],[111.57551,-8.01623],[111.57614,-8.01616],[111.57674,-8.01639],[111.57696,-8.01638],[111.57721,-8.01632],[111.57736,-8.01624],[111.57778,-8.01584]],[[111.58967,-8.01116],[111.58986,-8.01088],[111.58911,-8.01084],[111.58931,-8.01106],[111.58967,-8.01116]],[[111.5901,-8.01088],[111.59052,-8.01108],[111.59063,-8.01105],[111.59076,-8.01096],[111.59028,-8.01052],[111.59001,-8.01054],[111.59003,-8.01071],[111.5901,-8.01088]]]}},{"type":"Feature","properties":{"pippib":"PIPPIB KAWASAN"},"geometry":{"type":"Polygon","coordinates":[[[111.61458,-7.99731],[111.61489,-7.99763],[111.61523,-7.99751],[111.61562,-7.99751],[111.61616,-7.99761],[111.61638,-7.9977],[111.61652,-7.99733],[111.6167,-7.99751],[111.61697,-7.99792],[111.61726,-7.99817],[111.61738,-7.99842],[111.61752,-7.99856],[111.61742,-7.99944],[111.61675,-7.99941],[111.61629,-8.00082],[111.61644,-8.00109],[111.61648,-8.00164],[111.61649,-8.00216],[111.6166,-8.00239],[111.61688,-8.00279],[111.61692,-8.00292],[111.61689,-8.00376],[111.61696,-8.00403],[111.61713,-8.00436],[111.61624,-8.00523],[111.61614,-8.00561],[111.61603,-8.00581],[111.61577,-8.00595],[111.6154,-8.00597],[111.61442,-8.00595],[111.61403,-8.00597],[111.61368,-8.00605],[111.61224,-8.00684],[111.61204,-8.00691],[111.61193,-8.00679],[111.61203,-8.00667],[111.61223,-8.00671],[111.6123,-8.00658],[111.61234,-8.00638],[111.61243,-8.00626],[111.6126,-8.00629],[111.61264,-8.00615],[111.61276,-8.00611],[111.61292,-8.00593],[111.61314,-8.00591],[111.61311,-8.0058],[111.61262,-8.00585],[111.61238,-8.00594],[111.61225,-8.00603],[111.6121,-8.00607],[111.61192,-8.00592],[111.61132,-8.00593],[111.61098,-8.00586],[111.61067,-8.00568],[111.61065,-8.00553],[111.61068,-8.00538],[111.61062,-8.00529],[111.61015,-8.00509],[111.61022,-8.00487],[111.61019,-8.00479],[111.60982,-8.00444],[111.60974,-8.00428],[111.60974,-8.00416],[111.6098,-8.00406],[111.61007,-8.00386],[111.61014,-8.00374],[111.61017,-8.00359],[111.61014,-8.00347],[111.61005,-8.00336],[111.60987,-8.00326],[111.6095,-8.00312],[111.60981,-8.00307],[111.60995,-8.00299],[111.60975,-8.00275],[111.60999,-8.0024],[111.61012,-8.00235],[111.61023,-8.00224],[111.61025,-8.00189],[111.61051,-8.00151],[111.61031,-8.00099],[111.61029,-8.00079],[111.61044,-8.00048],[111.61029,-8.00018],[111.6102,-7.9997],[111.61021,-7.99954],[111.61018,-7.99942],[111.61027,-7.99894],[111.61036,-7.99882],[111.61044,-7.99864],[111.61048,-7.99843],[111.61034,-7.99771],[111.61056,-7.9972],[111.61066,-7.99705],[111.61167,-7.997],[111.61195,-7.99692],[111.61268,-7.99685],[111.61289,-7.99686],[111.61368,-7.99722],[111.61422,-7.99725],[111.61458,-7.99731]],[[111.61407,-8.00493],[111.61379,-8.00525],[111.61361,-8.00524],[111.61356,-8.00547],[111.61355,-8.00575],[111.61384,-8.00563],[111.61396,-8.00543],[111.61417,-8.00531],[111.61418,-8.00508],[111.61423,-8.00501],[111.61407,-8.00493]]]}},{"type":"Feature","properties":{"pippib":"PIPPIB KAWASAN"},"geometry":{"type":"Polygon","coordinates":[[[111.59492,-7.99546],[111.59529,-7.99547],[111.59538,-7.99557],[111.59545,-7.99576],[111.59558,-7.99584],[111.59608,-7.99579],[111.59635,-7.9959],[111.59654,-7.99612],[111.5966,-7.99634],[111.5966,-7.99654],[111.59666,-7.99662],[111.59707,-7.99669],[111.59748,-7.99695],[111.59755,-7.99704],[111.59763,-7.99762],[111.59775,-7.99797],[111.59823,-7.99873],[111.59878,-7.99916],[111.59905,-7.99924],[111.5994,-7.99919],[111.59975,-7.99937],[111.59932,-8.00021],[111.59906,-8.00102],[111.59893,-8.00173],[111.59871,-8.00236],[111.59867,-8.00264],[111.59868,-8.00324],[111.59846,-8.00303],[111.59826,-8.00276],[111.59793,-8.00261],[111.59774,-8.00238],[111.59759,-8.00226],[111.5974,-8.00217],[111.59722,-8.00179],[111.5967,-8.00181],[111.59647,-8.00177],[111.5965,-8.00152],[111.59631,-8.00143],[111.59615,-8.00141],[111.59599,-8.00148],[111.59596,-8.00159],[111.59502,-8.00138],[111.5947,-8.00096],[111.59427,-8.00105],[111.59401,-8.00152],[111.5938,-8.00175],[111.59375,-8.00201],[111.59352,-8.00232],[111.59397,-8.00242],[111.59447,-8.00214],[111.59475,-8.00242],[111.59452,-8.00265],[111.5943,-8.00271],[111.59415,-8.00285],[111.59389,-8.00318],[111.59433,-8.00314],[111.59491,-8.00301],[111.59509,-8.00327],[111.59487,-8.00331],[111.59503,-8.00356],[111.59527,-8.00379],[111.59534,-8.00404],[111.59546,-8.00427],[111.59549,-8.00445],[111.59569,-8.00453],[111.5956,-8.00504],[111.59537,-8.00563],[111.59565,-8.00582],[111.59579,-8.006],[111.59581,-8.00633],[111.59564,-8.00681],[111.59533,-8.00719],[111.59522,-8.0074],[111.59527,-8.00762],[111.59502,-8.0077],[111.59477,-8.0077],[111.59459,-8.00778],[111.59469,-8.008],[111.59467,-8.0081],[111.59455,-8.0083],[111.59391,-8.00841],[111.59355,-8.00857],[111.59314,-8.00833],[111.59313,-8.00855],[111.59279,-8.00876],[111.59258,-8.00898],[111.59251,-8.00919],[111.59254,-8.0096],[111.59247,-8.00975],[111.59234,-8.00984],[111.59187,-8.00998],[111.59169,-8.01008],[111.59162,-8.01031],[111.59165,-8.01081],[111.59155,-8.01098],[111.59132,-8.01046],[111.59108,-8.00967],[111.59048,-8.00814],[111.58976,-8.0062],[111.59018,-8.00567],[111.59049,-8.00557],[111.5909,-8.00534],[111.59077,-8.00509],[111.59088,-8.00492],[111.59121,-8.0049],[111.59137,-8.00465],[111.59163,-8.00475],[111.59213,-8.00528],[111.59242,-8.00497],[111.59221,-8.00495],[111.59199,-8.00448],[111.59194,-8.004],[111.59204,-8.00354],[111.59204,-8.00329],[111.59231,-8.00274],[111.5924,-8.00266],[111.59177,-8.00205],[111.59188,-8.00166],[111.592,-8.00102],[111.59135,-8.00085],[111.59129,-8.00067],[111.59137,-8.00014],[111.59127,-7.99986],[111.59189,-7.99988],[111.59276,-7.99985],[111.59301,-7.99995],[111.59319,-7.99985],[111.59365,-7.99988],[111.59413,-7.99976],[111.59419,-7.99961],[111.59458,-7.99948],[111.59477,-7.99972],[111.59481,-7.99946],[111.59504,-7.99911],[111.59553,-7.99883],[111.59536,-7.9986],[111.59537,-7.99839],[111.59529,-7.9982],[111.59533,-7.99798],[111.59583,-7.99796],[111.59583,-7.99669],[111.59557,-7.99649],[111.59543,-7.99633],[111.59481,-7.99605],[111.59452,-7.99607],[111.59444,-7.99559],[111.59455,-7.99528],[111.59467,-7.99511],[111.59485,-7.9954],[111.59492,-7.99546]],[[111.59337,-8.00518],[111.59338,-8.00535],[111.59347,-8.00564],[111.59366,-8.00578],[111.59382,-8.00582],[111.59396,-8.00589],[111.59402,-8.006],[111.59416,-8.00664],[111.59438,-8.00704],[111.59434,-8.00649],[111.5945,-8.00637],[111.59431,-8.00595],[111.5938,-8.00549],[111.59359,-8.00522],[111.59337,-8.00518]],[[111.59236,-8.00572],[111.59219,-8.00563],[111.59219,-8.00594],[111.59211,-8.00624],[111.59191,-8.0067],[111.59194,-8.00684],[111.59216,-8.00704],[111.59244,-8.00714],[111.5926,-8.00734],[111.59279,-8.00738],[111.59296,-8.00728],[111.59316,-8.00727],[111.59284,-8.00666],[111.59278,-8.00642],[111.5926,-8.00601],[111.59236,-8.00572]]]}},{"type":"Feature","properties":{"pippib":"PIPPIB KAWASAN"},"geometry":{"type":"MultiPolygon","coordinates":[[[[111.53983,-8.00992],[111.53968,-8.01008],[111.53986,-8.00946],[111.53995,-8.00932],[111.5399,-8.00942],[111.53987,-8.00977],[111.53983,-8.00992]]],[[[111.54004,-8.0092],[111.53995,-8.00931],[111.54004,-8.00918],[111.54004,-8.0092]]],[[[111.53834,-8.00545],[111.53832,-8.00555],[111.53813,-8.00553],[111.53834,-8.00545]]],[[[111.56626,-8.01508],[111.5658,-8.01516],[111.56599,-8.01578],[111.56609,-8.01599],[111.56633,-8.01595],[111.56626,-8.01508],[111.56659,-8.01532],[111.56771,-8.0159],[111.56785,-8.01606],[111.56816,-8.01646],[111.56815,-8.01726],[111.56884,-8.01758],[111.56922,-8.0174],[111.56959,-8.0173],[111.5699,-8.01746],[111.56958,-8.01771],[111.56928,-8.0187],[111.56885,-8.01944],[111.56876,-8.01985],[111.56879,-8.02014],[111.56807,-8.02062],[111.56796,-8.02133],[111.56799,-8.02167],[111.56797,-8.02182],[111.56781,-8.02215],[111.56769,-8.02224],[111.56736,-8.02234],[111.567,-8.0224],[111.56686,-8.02264],[111.56673,-8.02313],[111.56668,-8.0239],[111.56661,-8.0241],[111.56668,-8.02428],[111.56661,-8.02478],[111.56654,-8.02499],[111.56639,-8.02517],[111.56631,-8.02522],[111.56619,-8.02517],[111.56585,-8.0249],[111.56573,-8.02432],[111.56538,-8.024],[111.56546,-8.02366],[111.56521,-8.02355],[111.56502,-8.02371],[111.56485,-8.02402],[111.56496,-8.02443],[111.5652,-8.02459],[111.5653,-8.02475],[111.56514,-8.02491],[111.56489,-8.02505],[111.56469,-8.02508],[111.56478,-8.02561],[111.56483,-8.02569],[111.56475,-8.02587],[111.56453,-8.02599],[111.56425,-8.02587],[111.56408,-8.02514],[111.56391,-8.02525],[111.56366,-8.0252],[111.56347,-8.02507],[111.56316,-8.02475],[111.56288,-8.02494],[111.56267,-8.02465],[111.56238,-8.02384],[111.56232,-8.02339],[111.56259,-8.0219],[111.56229,-8.02144],[111.56226,-8.02107],[111.56217,-8.02084],[111.56131,-8.02054],[111.56096,-8.02017],[111.56047,-8.02005],[111.56023,-8.01972],[111.55983,-8.01959],[111.55907,-8.01909],[111.5588,-8.01887],[111.55864,-8.01866],[111.55806,-8.01842],[111.55732,-8.01903],[111.55692,-8.0193],[111.55652,-8.01943],[111.55606,-8.01933],[111.55579,-8.01893],[111.55575,-8.0193],[111.55557,-8.01983],[111.55528,-8.02054],[111.55506,-8.02089],[111.55512,-8.02169],[111.55516,-8.02193],[111.55516,-8.02238],[111.55531,-8.02284],[111.55568,-8.02333],[111.55594,-8.02434],[111.55586,-8.02451],[111.55569,-8.02446],[111.55544,-8.02428],[111.55496,-8.02323],[111.55495,-8.02306],[111.55463,-8.02295],[111.55468,-8.0234],[111.55461,-8.02354],[111.55459,-8.02366],[111.55464,-8.02382],[111.55501,-8.02431],[111.55503,-8.02455],[111.55494,-8.02462],[111.55508,-8.02484],[111.55506,-8.02496],[111.55501,-8.02505],[111.55489,-8.02515],[111.55481,-8.02535],[111.55456,-8.02581],[111.55443,-8.02565],[111.55418,-8.02566],[111.55401,-8.02563],[111.5539,-8.02558],[111.55374,-8.02545],[111.55363,-8.02562],[111.55368,-8.02586],[111.55402,-8.02629],[111.55461,-8.02649],[111.55488,-8.02672],[111.55497,-8.02692],[111.55523,-8.02715],[111.5553,-8.02751],[111.55554,-8.02745],[111.5556,-8.02775],[111.55581,-8.0279],[111.55605,-8.02826],[111.55574,-8.02835],[111.55545,-8.02831],[111.55529,-8.0277],[111.5551,-8.0276],[111.55455,-8.02685],[111.55431,-8.02679],[111.55405,-8.02668],[111.55389,-8.02637],[111.55351,-8.02591],[111.55343,-8.02631],[111.5531,-8.02654],[111.55238,-8.02633],[111.5522,-8.02631],[111.55187,-8.02611],[111.55146,-8.02611],[111.55066,-8.02648],[111.55048,-8.02662],[111.55044,-8.02678],[111.54931,-8.02709],[111.54909,-8.02718],[111.54894,-8.02734],[111.54876,-8.02767],[111.54875,-8.02788],[111.54791,-8.02783],[111.54691,-8.02813],[111.54639,-8.02821],[111.54568,-8.02878],[111.54536,-8.02913],[111.54506,-8.02931],[111.5449,-8.02961],[111.54483,-8.02993],[111.54457,-8.03066],[111.54463,-8.03109],[111.54461,-8.03169],[111.54437,-8.03209],[111.54444,-8.03231],[111.5445,-8.03274],[111.54447,-8.03317],[111.54436,-8.03356],[111.54487,-8.03402],[111.54501,-8.03425],[111.54509,-8.03453],[111.54539,-8.03482],[111.54553,-8.03501],[111.5455,-8.03533],[111.54557,-8.03558],[111.54574,-8.03583],[111.54585,-8.0362],[111.54618,-8.03635],[111.54553,-8.03641],[111.5455,-8.03671],[111.54558,-8.03711],[111.54534,-8.0374],[111.54536,-8.03789],[111.54514,-8.03815],[111.54526,-8.03854],[111.54488,-8.03862],[111.54344,-8.03813],[111.54319,-8.03811],[111.54286,-8.03803],[111.54266,-8.03789],[111.54241,-8.0376],[111.54224,-8.03753],[111.54119,-8.03733],[111.54054,-8.03713],[111.54064,-8.03697],[111.54073,-8.03691],[111.54111,-8.03682],[111.5412,-8.0367],[111.54123,-8.03655],[111.54103,-8.03663],[111.54075,-8.03658],[111.5405,-8.03641],[111.54006,-8.03598],[111.53983,-8.03587],[111.53943,-8.03586],[111.5393,-8.03581],[111.53925,-8.03569],[111.53933,-8.0355],[111.53931,-8.03496],[111.53944,-8.03445],[111.53925,-8.03394],[111.53926,-8.03376],[111.53936,-8.03364],[111.53959,-8.03347],[111.53961,-8.03331],[111.53955,-8.0331],[111.53963,-8.03281],[111.53964,-8.03241],[111.53961,-8.03223],[111.53973,-8.03199],[111.53979,-8.03176],[111.53979,-8.03156],[111.53965,-8.03131],[111.53934,-8.0309],[111.53926,-8.03069],[111.53923,-8.03029],[111.53917,-8.03008],[111.53897,-8.02975],[111.5389,-8.0293],[111.53877,-8.02911],[111.53872,-8.02888],[111.53892,-8.02834],[111.53923,-8.02809],[111.53931,-8.02796],[111.53934,-8.02777],[111.53929,-8.02754],[111.53912,-8.02738],[111.53867,-8.02709],[111.53849,-8.02689],[111.53839,-8.02674],[111.53833,-8.02642],[111.53816,-8.02624],[111.53815,-8.0261],[111.53828,-8.02573],[111.5384,-8.0256],[111.53844,-8.0252],[111.5383,-8.02475],[111.53794,-8.02411],[111.53786,-8.02393],[111.53779,-8.02384],[111.53766,-8.02379],[111.53716,-8.02381],[111.53719,-8.02303],[111.53712,-8.02265],[111.53717,-8.0222],[111.53745,-8.02129],[111.53748,-8.02085],[111.5376,-8.02024],[111.53772,-8.01991],[111.53812,-8.01922],[111.53817,-8.01906],[111.53814,-8.01875],[111.53791,-8.01814],[111.53779,-8.01759],[111.53764,-8.01667],[111.53766,-8.01618],[111.53794,-8.01487],[111.53805,-8.01453],[111.53822,-8.0143],[111.53821,-8.01423],[111.5384,-8.01387],[111.53856,-8.01368],[111.5387,-8.01344],[111.53867,-8.01334],[111.53869,-8.01322],[111.53891,-8.01275],[111.53905,-8.01254],[111.53911,-8.01237],[111.53912,-8.01217],[111.53918,-8.01199],[111.53936,-8.01232],[111.53948,-8.01226],[111.53959,-8.01191],[111.54024,-8.01149],[111.5402,-8.01121],[111.54046,-8.01135],[111.54062,-8.0117],[111.54123,-8.01154],[111.54174,-8.01128],[111.54166,-8.01109],[111.54133,-8.01096],[111.54109,-8.01079],[111.54099,-8.01054],[111.54093,-8.01026],[111.54106,-8.00983],[111.54121,-8.00899],[111.5415,-8.00866],[111.54168,-8.0086],[111.54176,-8.00864],[111.54218,-8.00855],[111.54232,-8.00847],[111.54252,-8.00821],[111.54267,-8.00813],[111.54286,-8.00809],[111.54334,-8.00783],[111.54364,-8.0076],[111.54384,-8.00735],[111.54381,-8.00664],[111.54387,-8.0063],[111.54404,-8.00632],[111.54432,-8.00625],[111.54461,-8.00644],[111.54481,-8.00639],[111.54493,-8.00653],[111.54513,-8.00691],[111.54518,-8.00742],[111.54513,-8.0078],[111.54533,-8.00805],[111.54543,-8.00844],[111.54549,-8.0089],[111.5457,-8.00902],[111.54579,-8.00919],[111.54592,-8.00934],[111.54597,-8.00944],[111.54585,-8.00974],[111.546,-8.00968],[111.54608,-8.0098],[111.54609,-8.01006],[111.54627,-8.01003],[111.54618,-8.01021],[111.54618,-8.01057],[111.54633,-8.01045],[111.54645,-8.01086],[111.54668,-8.01124],[111.54677,-8.01132],[111.54691,-8.01138],[111.54715,-8.01142],[111.5475,-8.01181],[111.54751,-8.01164],[111.54769,-8.01162],[111.5481,-8.01201],[111.54833,-8.01205],[111.54844,-8.01213],[111.5485,-8.0123],[111.54875,-8.01275],[111.54871,-8.01312],[111.54875,-8.01371],[111.54872,-8.01386],[111.54856,-8.01415],[111.54833,-8.01441],[111.54784,-8.01426],[111.54781,-8.01485],[111.54762,-8.01511],[111.54759,-8.01549],[111.54776,-8.01577],[111.54817,-8.01603],[111.54838,-8.01624],[111.54858,-8.0165],[111.54831,-8.01688],[111.54826,-8.01702],[111.54827,-8.01721],[111.5484,-8.01758],[111.54829,-8.01799],[111.54831,-8.0181],[111.548,-8.01818],[111.54789,-8.01817],[111.54808,-8.01862],[111.54806,-8.01899],[111.54787,-8.01934],[111.54735,-8.01923],[111.54708,-8.01901],[111.54672,-8.01855],[111.54654,-8.01841],[111.54628,-8.01832],[111.54578,-8.01795],[111.54553,-8.01767],[111.54535,-8.01764],[111.54519,-8.0177],[111.54518,-8.01789],[111.54522,-8.01804],[111.5452,-8.01886],[111.54514,-8.01893],[111.54489,-8.01869],[111.54461,-8.01875],[111.54446,-8.01887],[111.54436,-8.01907],[111.54422,-8.01972],[111.54412,-8.01982],[111.5439,-8.01983],[111.54365,-8.01992],[111.54344,-8.02009],[111.54331,-8.02029],[111.54315,-8.02074],[111.54322,-8.02087],[111.54384,-8.02107],[111.54355,-8.02119],[111.54309,-8.02106],[111.54302,-8.02131],[111.54274,-8.02171],[111.54266,-8.02157],[111.54233,-8.02158],[111.54218,-8.02154],[111.54224,-8.02177],[111.54225,-8.02224],[111.54209,-8.02267],[111.54209,-8.02292],[111.5422,-8.02294],[111.54243,-8.02308],[111.5427,-8.02378],[111.54295,-8.02413],[111.54321,-8.02419],[111.54346,-8.02421],[111.54395,-8.02451],[111.54478,-8.02388],[111.54479,-8.02426],[111.54476,-8.02438],[111.54446,-8.02449],[111.54442,-8.02459],[111.54439,-8.02472],[111.54446,-8.02477],[111.54446,-8.0249],[111.54437,-8.02502],[111.54434,-8.02511],[111.54432,-8.02544],[111.54472,-8.02545],[111.54487,-8.02538],[111.54495,-8.02526],[111.54502,-8.02506],[111.54519,-8.02484],[111.54636,-8.02414],[111.54682,-8.02393],[111.54753,-8.02369],[111.54813,-8.02358],[111.54849,-8.02364],[111.54902,-8.02384],[111.54925,-8.02386],[111.54941,-8.02378],[111.54969,-8.02373],[111.54996,-8.02377],[111.55003,-8.0237],[111.55054,-8.02263],[111.55053,-8.02245],[111.55043,-8.02227],[111.55016,-8.02209],[111.55,-8.02201],[111.54954,-8.02193],[111.5488,-8.02202],[111.5473,-8.02202],[111.54685,-8.02195],[111.54656,-8.02176],[111.54655,-8.02112],[111.54668,-8.02089],[111.54713,-8.02044],[111.54754,-8.01992],[111.54778,-8.02015],[111.54823,-8.02008],[111.54875,-8.02021],[111.54979,-8.02011],[111.55011,-8.02016],[111.55035,-8.02038],[111.55062,-8.02039],[111.55083,-8.0205],[111.55106,-8.02067],[111.55169,-8.02072],[111.552,-8.0209],[111.55235,-8.02087],[111.553,-8.02125],[111.55316,-8.02199],[111.55336,-8.02246],[111.55337,-8.02333],[111.55314,-8.02416],[111.55303,-8.02417],[111.55286,-8.02412],[111.55252,-8.02427],[111.55251,-8.02403],[111.55243,-8.02373],[111.55234,-8.02407],[111.55219,-8.02408],[111.55213,-8.02429],[111.55189,-8.02442],[111.55177,-8.02434],[111.55156,-8.0243],[111.55151,-8.02411],[111.55141,-8.02405],[111.55126,-8.02405],[111.55117,-8.024],[111.5511,-8.02364],[111.55074,-8.02472],[111.55062,-8.02498],[111.55096,-8.02503],[111.55153,-8.02491],[111.55166,-8.02481],[111.55178,-8.0248],[111.55227,-8.0249],[111.55236,-8.02497],[111.55246,-8.02518],[111.55268,-8.02518],[111.55292,-8.02498],[111.55305,-8.02497],[111.5533,-8.02499],[111.55371,-8.02469],[111.5541,-8.02453],[111.5542,-8.02431],[111.55421,-8.02359],[111.5543,-8.02297],[111.55445,-8.02267],[111.55461,-8.02259],[111.55458,-8.02228],[111.55451,-8.02205],[111.55433,-8.02181],[111.55418,-8.02152],[111.55403,-8.0208],[111.55378,-8.02019],[111.55336,-8.01961],[111.5534,-8.01939],[111.55342,-8.01871],[111.55292,-8.01864],[111.55242,-8.01839],[111.55216,-8.01844],[111.55208,-8.01836],[111.55198,-8.01836],[111.55191,-8.01846],[111.5517,-8.01842],[111.55158,-8.01838],[111.5514,-8.01822],[111.55124,-8.01815],[111.55087,-8.01809],[111.55057,-8.01812],[111.5501,-8.0181],[111.54992,-8.01855],[111.54997,-8.01887],[111.5495,-8.01869],[111.54949,-8.01814],[111.54943,-8.0178],[111.54967,-8.0177],[111.55002,-8.01792],[111.55019,-8.0178],[111.55036,-8.01757],[111.55037,-8.01709],[111.55018,-8.01704],[111.55014,-8.01696],[111.55013,-8.01674],[111.55021,-8.0166],[111.55022,-8.01649],[111.55031,-8.01641],[111.55043,-8.01641],[111.5506,-8.01634],[111.55108,-8.01663],[111.55151,-8.01701],[111.55212,-8.01732],[111.55258,-8.01741],[111.55301,-8.01666],[111.55315,-8.0166],[111.55345,-8.01628],[111.55355,-8.01585],[111.55318,-8.01561],[111.55316,-8.01535],[111.55282,-8.01456],[111.55291,-8.0144],[111.5533,-8.01395],[111.55379,-8.01405],[111.5542,-8.01342],[111.55481,-8.01205],[111.55466,-8.01155],[111.5544,-8.01098],[111.55445,-8.01047],[111.55325,-8.0095],[111.55303,-8.00942],[111.5527,-8.00943],[111.55256,-8.00935],[111.55236,-8.00937],[111.55257,-8.00892],[111.55254,-8.00881],[111.55161,-8.00872],[111.55145,-8.00869],[111.55134,-8.00862],[111.55123,-8.0085],[111.55101,-8.0081],[111.55023,-8.00725],[111.54988,-8.00677],[111.54969,-8.00646],[111.54944,-8.00579],[111.54924,-8.00548],[111.54898,-8.00515],[111.5485,-8.00474],[111.54858,-8.00468],[111.54871,-8.00467],[111.54881,-8.00458],[111.5489,-8.00436],[111.54919,-8.0042],[111.54925,-8.00413],[111.54969,-8.0041],[111.54952,-8.004],[111.54879,-8.00387],[111.54808,-8.00348],[111.54786,-8.00305],[111.54746,-8.00242],[111.54701,-8.00217],[111.54671,-8.00176],[111.54722,-8.00201],[111.54742,-8.00193],[111.54756,-8.00197],[111.54793,-8.00193],[111.5482,-8.00193],[111.54837,-8.00201],[111.54848,-8.00238],[111.54874,-8.00269],[111.54931,-8.0025],[111.54968,-8.00258],[111.54996,-8.0027],[111.55033,-8.00255],[111.55004,-8.00231],[111.54992,-8.00168],[111.54958,-8.00167],[111.54923,-8.00121],[111.54916,-8.00079],[111.54897,-8.00066],[111.54856,-8.00093],[111.54795,-8.00108],[111.54782,-8.001],[111.54749,-8.00066],[111.54776,-8.00047],[111.54764,-8.00037],[111.54744,-7.99948],[111.54673,-7.99938],[111.54669,-7.9997],[111.54635,-7.99943],[111.54595,-7.99896],[111.54593,-7.99856],[111.54575,-7.99797],[111.54573,-7.99777],[111.54598,-7.9978],[111.54586,-7.99728],[111.54599,-7.9968],[111.546,-7.99647],[111.54585,-7.99609],[111.54547,-7.99577],[111.54522,-7.99525],[111.54481,-7.99511],[111.54463,-7.99464],[111.5446,-7.99406],[111.54482,-7.99325],[111.54464,-7.99239],[111.54526,-7.99229],[111.54536,-7.99173],[111.54548,-7.99155],[111.54574,-7.99162],[111.54586,-7.9916],[111.5461,-7.99142],[111.5462,-7.99141],[111.54663,-7.99156],[111.5467,-7.99162],[111.54682,-7.99199],[111.54694,-7.9921],[111.54701,-7.99238],[111.54729,-7.99269],[111.54751,-7.99309],[111.54756,-7.99339],[111.54758,-7.99374],[111.54769,-7.99408],[111.54794,-7.99447],[111.54823,-7.99484],[111.54868,-7.99559],[111.549,-7.99574],[111.54957,-7.99623],[111.54986,-7.99663],[111.54996,-7.997],[111.54985,-7.99727],[111.5499,-7.99748],[111.5497,-7.99756],[111.5497,-7.99805],[111.54987,-7.99857],[111.55005,-7.99896],[111.55048,-7.99855],[111.55051,-7.99821],[111.55062,-7.99799],[111.55073,-7.99725],[111.55082,-7.99695],[111.55113,-7.9967],[111.55123,-7.99657],[111.55069,-7.99655],[111.55058,-7.9965],[111.5505,-7.99641],[111.55059,-7.99618],[111.55074,-7.99596],[111.55012,-7.99591],[111.5498,-7.99584],[111.54962,-7.99571],[111.54945,-7.99544],[111.54915,-7.99504],[111.5491,-7.99462],[111.54923,-7.99428],[111.54917,-7.99405],[111.54928,-7.99391],[111.54946,-7.99341],[111.54959,-7.99273],[111.54974,-7.99228],[111.55001,-7.99206],[111.55035,-7.99227],[111.55112,-7.99252],[111.5513,-7.99248],[111.55159,-7.9932],[111.55183,-7.99358],[111.55198,-7.99391],[111.55233,-7.99369],[111.55263,-7.99366],[111.55281,-7.99327],[111.55322,-7.99315],[111.55357,-7.99314],[111.55393,-7.9932],[111.55372,-7.99262],[111.55331,-7.99233],[111.5525,-7.992],[111.55234,-7.99196],[111.5522,-7.99188],[111.55241,-7.99169],[111.55261,-7.99144],[111.55279,-7.9913],[111.55297,-7.99101],[111.55273,-7.99099],[111.55246,-7.99081],[111.55225,-7.99084],[111.55284,-7.9897],[111.55366,-7.98831],[111.55372,-7.98782],[111.55358,-7.98733],[111.55335,-7.98729],[111.55318,-7.9873],[111.55284,-7.98744],[111.55269,-7.9874],[111.55242,-7.98725],[111.55211,-7.987],[111.55175,-7.98624],[111.55165,-7.98616],[111.55115,-7.98609],[111.55074,-7.98543],[111.55064,-7.98532],[111.55025,-7.98508],[111.55022,-7.98493],[111.55029,-7.98456],[111.55018,-7.98418],[111.55022,-7.98406],[111.55057,-7.98365],[111.55069,-7.98348],[111.5509,-7.98339],[111.5511,-7.98313],[111.55141,-7.98303],[111.55147,-7.98296],[111.55149,-7.98285],[111.55146,-7.98267],[111.55147,-7.98254],[111.55159,-7.98242],[111.55177,-7.98231],[111.55182,-7.98209],[111.55216,-7.9817],[111.55223,-7.98158],[111.55228,-7.9814],[111.55226,-7.98122],[111.5523,-7.98091],[111.55226,-7.98072],[111.55204,-7.98028],[111.55212,-7.97992],[111.55196,-7.97935],[111.552,-7.97912],[111.55192,-7.97901],[111.55193,-7.97881],[111.55186,-7.97859],[111.55169,-7.97844],[111.5511,-7.9784],[111.55094,-7.97835],[111.55072,-7.9781],[111.55046,-7.97811],[111.55057,-7.97782],[111.551,-7.97724],[111.5514,-7.97686],[111.55195,-7.97646],[111.55227,-7.97632],[111.55263,-7.97628],[111.55355,-7.97636],[111.55371,-7.97629],[111.55433,-7.97554],[111.55461,-7.97513],[111.55503,-7.97465],[111.55522,-7.97528],[111.55521,-7.97551],[111.55518,-7.97573],[111.55524,-7.97607],[111.55523,-7.97646],[111.55533,-7.97696],[111.55542,-7.97775],[111.55548,-7.97791],[111.55566,-7.97816],[111.5562,-7.97875],[111.55634,-7.97898],[111.55649,-7.97946],[111.55653,-7.97996],[111.55676,-7.98039],[111.55694,-7.98142],[111.5572,-7.98238],[111.55735,-7.98248],[111.55754,-7.98254],[111.55761,-7.98263],[111.55764,-7.9828],[111.55763,-7.98309],[111.55768,-7.9832],[111.55782,-7.98333],[111.55788,-7.98349],[111.55802,-7.98372],[111.55808,-7.98393],[111.55806,-7.98412],[111.55788,-7.98463],[111.55789,-7.98472],[111.55804,-7.98493],[111.55806,-7.98504],[111.55773,-7.98598],[111.55769,-7.98614],[111.55774,-7.98641],[111.55746,-7.98722],[111.55738,-7.98779],[111.55737,-7.98839],[111.55732,-7.98855],[111.55718,-7.98874],[111.55754,-7.98931],[111.55795,-7.98963],[111.55804,-7.98995],[111.55817,-7.99014],[111.55836,-7.99031],[111.55859,-7.99045],[111.55889,-7.99072],[111.55912,-7.99082],[111.55959,-7.99126],[111.55985,-7.99178],[111.56014,-7.99225],[111.56064,-7.99289],[111.56072,-7.99304],[111.5607,-7.99338],[111.56092,-7.99386],[111.56094,-7.99455],[111.56108,-7.99491],[111.5612,-7.99509],[111.56149,-7.99526],[111.56183,-7.99551],[111.56202,-7.99572],[111.56208,-7.99584],[111.56182,-7.99687],[111.56175,-7.9974],[111.56164,-7.99761],[111.56128,-7.99802],[111.56142,-7.99827],[111.5617,-7.9984],[111.56189,-7.99856],[111.562,-7.99885],[111.56218,-7.9988],[111.56266,-7.9988],[111.56283,-7.99888],[111.56311,-7.99891],[111.56359,-7.99905],[111.5643,-7.99857],[111.5649,-7.99849],[111.56542,-7.99838],[111.56562,-7.99828],[111.5657,-7.99815],[111.56576,-7.99793],[111.56584,-7.99781],[111.5661,-7.99776],[111.5662,-7.99766],[111.56642,-7.99766],[111.5667,-7.99752],[111.56689,-7.99729],[111.56698,-7.99695],[111.56737,-7.9968],[111.56771,-7.99643],[111.56822,-7.99622],[111.56835,-7.99604],[111.56848,-7.99597],[111.56885,-7.99591],[111.56909,-7.99578],[111.56926,-7.99565],[111.56947,-7.99571],[111.56983,-7.99591],[111.57061,-7.99577],[111.5707,-7.9958],[111.5709,-7.99615],[111.57086,-7.99655],[111.57075,-7.99675],[111.5707,-7.99699],[111.57065,-7.99764],[111.57076,-7.9983],[111.57104,-7.99897],[111.5709,-7.99953],[111.57091,-7.99967],[111.57079,-7.99996],[111.57177,-8.00006],[111.5719,-8.00027],[111.57197,-8.00084],[111.57252,-8.0009],[111.57254,-8.00122],[111.57262,-8.00165],[111.57274,-8.00173],[111.57289,-8.00229],[111.57263,-8.0025],[111.57228,-8.00258],[111.57177,-8.00244],[111.57149,-8.00274],[111.57107,-8.00294],[111.57089,-8.00301],[111.57026,-8.0031],[111.57013,-8.00268],[111.57005,-8.00278],[111.56948,-8.00286],[111.56933,-8.00297],[111.56951,-8.00322],[111.56892,-8.00334],[111.56859,-8.00331],[111.56833,-8.00336],[111.56753,-8.00331],[111.56695,-8.00288],[111.56634,-8.0034],[111.5655,-8.00352],[111.56532,-8.00381],[111.56508,-8.0044],[111.56476,-8.00469],[111.5647,-8.00508],[111.56508,-8.00533],[111.56554,-8.00543],[111.56587,-8.00566],[111.56632,-8.00569],[111.56619,-8.00628],[111.56615,-8.00667],[111.5665,-8.00695],[111.56669,-8.00715],[111.56742,-8.00699],[111.56862,-8.00683],[111.56867,-8.007],[111.56839,-8.00728],[111.56796,-8.00784],[111.56761,-8.00766],[111.56693,-8.00801],[111.56654,-8.00812],[111.56637,-8.0082],[111.56591,-8.00823],[111.56537,-8.00856],[111.56515,-8.00864],[111.56487,-8.00863],[111.56473,-8.00869],[111.56407,-8.0088],[111.56392,-8.00872],[111.56377,-8.00858],[111.56347,-8.00843],[111.56328,-8.00835],[111.56297,-8.00834],[111.56254,-8.00802],[111.56234,-8.00779],[111.56221,-8.00775],[111.56208,-8.00765],[111.5618,-8.00763],[111.5615,-8.0075],[111.56103,-8.00724],[111.56082,-8.00703],[111.56021,-8.00663],[111.56,-8.00656],[111.5597,-8.00639],[111.55939,-8.00632],[111.55894,-8.00614],[111.55907,-8.00639],[111.55909,-8.00651],[111.55897,-8.00688],[111.55915,-8.00725],[111.55933,-8.00751],[111.5589,-8.00767],[111.55887,-8.00785],[111.55907,-8.00836],[111.55926,-8.00869],[111.5592,-8.00882],[111.55907,-8.00897],[111.55909,-8.00917],[111.55899,-8.00932],[111.5585,-8.0098],[111.55843,-8.01012],[111.55821,-8.01066],[111.55853,-8.01128],[111.55874,-8.01157],[111.55881,-8.01177],[111.55878,-8.01248],[111.55913,-8.01297],[111.55956,-8.01305],[111.56014,-8.01323],[111.56057,-8.01346],[111.56071,-8.01367],[111.56109,-8.01382],[111.56204,-8.01405],[111.56242,-8.01399],[111.5632,-8.01375],[111.56335,-8.01379],[111.56377,-8.01372],[111.5639,-8.01385],[111.56467,-8.0142],[111.56443,-8.01409],[111.56473,-8.01473],[111.56492,-8.01494],[111.56516,-8.01511],[111.56534,-8.01517],[111.56544,-8.01517],[111.56587,-8.01502],[111.566,-8.0149],[111.56626,-8.01508]],[[111.55296,-8.00888],[111.55296,-8.00856],[111.55312,-8.00852],[111.55352,-8.00848],[111.55442,-8.00848],[111.55538,-8.00837],[111.55574,-8.00865],[111.5559,-8.00864],[111.55636,-8.00876],[111.55686,-8.00842],[111.55698,-8.00816],[111.5569,-8.0076],[111.55654,-8.00774],[111.55636,-8.00778],[111.55585,-8.00769],[111.55551,-8.00775],[111.55533,-8.00761],[111.55531,-8.00714],[111.55505,-8.00716],[111.5549,-8.00703],[111.55456,-8.00662],[111.55399,-8.00677],[111.55366,-8.00693],[111.55335,-8.00687],[111.55316,-8.00694],[111.55285,-8.00737],[111.55255,-8.0076],[111.55238,-8.00768],[111.55226,-8.00867],[111.55255,-8.00864],[111.55271,-8.00875],[111.55275,-8.00897],[111.55288,-8.00901],[111.55296,-8.00888]],[[111.5559,-8.00575],[111.55549,-8.00572],[111.5554,-8.00592],[111.55594,-8.00603],[111.55613,-8.00597],[111.5559,-8.00575]],[[111.55704,-8.00456],[111.55744,-8.00451],[111.55781,-8.00453],[111.55924,-8.00418],[111.5594,-8.00382],[111.55963,-8.0036],[111.55967,-8.00299],[111.55975,-8.00272],[111.55988,-8.00169],[111.55992,-8.00098],[111.56023,-7.99849],[111.55978,-7.99885],[111.55918,-7.99898],[111.55864,-7.99957],[111.55814,-7.99961],[111.55771,-7.9997],[111.5572,-7.99971],[111.557,-7.99984],[111.55649,-7.99908],[111.55609,-7.99881],[111.55592,-7.99959],[111.5558,-7.99984],[111.55557,-8.00012],[111.55545,-8.00051],[111.55544,-8.00074],[111.55491,-8.00096],[111.55478,-8.00086],[111.55469,-8.00071],[111.55461,-8.00048],[111.55453,-8.00038],[111.55448,-8.00024],[111.55461,-8.0],[111.5545,-7.99954],[111.55452,-7.99938],[111.55459,-7.99923],[111.55448,-7.9989],[111.55448,-7.99856],[111.55437,-7.99845],[111.55433,-7.99833],[111.55425,-7.99823],[111.55418,-7.9977],[111.55431,-7.99658],[111.55383,-7.99579],[111.55367,-7.99574],[111.55355,-7.99582],[111.55341,-7.9961],[111.55245,-7.99652],[111.55232,-7.99642],[111.5522,-7.9962],[111.55207,-7.99603],[111.55167,-7.99587],[111.55146,-7.99583],[111.5515,-7.99615],[111.55159,-7.99634],[111.55188,-7.99635],[111.55198,-7.99646],[111.55212,-7.99683],[111.55211,-7.99705],[111.55192,-7.99727],[111.55186,-7.99752],[111.55197,-7.99817],[111.55197,-7.99838],[111.55152,-7.99906],[111.55114,-7.99904],[111.55108,-7.99913],[111.55085,-7.99921],[111.5507,-7.99931],[111.55067,-7.99939],[111.55102,-8.00024],[111.55084,-8.00032],[111.55162,-8.00091],[111.55179,-8.00096],[111.55205,-8.00099],[111.55242,-8.00058],[111.55294,-8.00085],[111.55334,-8.00099],[111.55346,-8.00109],[111.55359,-8.0011],[111.55378,-8.00119],[111.55379,-8.00155],[111.5542,-8.00223],[111.55444,-8.00251],[111.55482,-8.00247],[111.55521,-8.00263],[111.55571,-8.00292],[111.55582,-8.00303],[111.55587,-8.0034],[111.55588,-8.00384],[111.55588,-8.0043],[111.55581,-8.00467],[111.55573,-8.00488],[111.55623,-8.00478],[111.55704,-8.00456]],[[111.54908,-8.02161],[111.54874,-8.02139],[111.54862,-8.02141],[111.5484,-8.02135],[111.54824,-8.02135],[111.5477,-8.02153],[111.54745,-8.02173],[111.54788,-8.02193],[111.54821,-8.02188],[111.54838,-8.0218],[111.54877,-8.02175],[111.54908,-8.02161]]]]}},{"type":"Feature","properties":{"pippib":"PIPPIB KAWASAN"},"geometry":{"type":"Polygon","coordinates":[[[111.58706,-7.94273],[111.58704,-7.943],[111.58731,-7.94309],[111.58739,-7.94339],[111.58752,-7.94444],[111.58763,-7.94459],[111.58774,-7.94481],[111.58803,-7.94482],[111.58834,-7.94493],[111.58929,-7.94541],[111.58952,-7.94581],[111.58969,-7.94625],[111.58993,-7.94667],[111.59036,-7.94661],[111.59063,-7.94663],[111.59069,-7.94677],[111.59095,-7.94705],[111.59125,-7.94728],[111.59138,-7.9475],[111.59142,-7.94806],[111.59161,-7.94836],[111.59171,-7.94833],[111.59176,-7.94838],[111.59167,-7.94864],[111.59178,-7.94886],[111.59185,-7.9492],[111.59202,-7.94944],[111.59202,-7.94979],[111.59241,-7.95037],[111.59234,-7.95096],[111.5922,-7.95107],[111.592,-7.95148],[111.59177,-7.95177],[111.59225,-7.95233],[111.59249,-7.95252],[111.5927,-7.9528],[111.59315,-7.95308],[111.5932,-7.95341],[111.59344,-7.95341],[111.59364,-7.95333],[111.5938,-7.95331],[111.59395,-7.95321],[111.59412,-7.95305],[111.59426,-7.95299],[111.59444,-7.95305],[111.59455,-7.95304],[111.59459,-7.95309],[111.59471,-7.95312],[111.59478,-7.95336],[111.59473,-7.95447],[111.59481,-7.95443],[111.5947,-7.95465],[111.59468,-7.9548],[111.59518,-7.95574],[111.59523,-7.95589],[111.59523,-7.95601],[111.59517,-7.95608],[111.59451,-7.95652],[111.59401,-7.95677],[111.59374,-7.95702],[111.59356,-7.95741],[111.59362,-7.95767],[111.59352,-7.95799],[111.59356,-7.95827],[111.59351,-7.95838],[111.59333,-7.95842],[111.59296,-7.95833],[111.59279,-7.95839],[111.59269,-7.95854],[111.59252,-7.95903],[111.59246,-7.95939],[111.59228,-7.95989],[111.59221,-7.96019],[111.59219,-7.96045],[111.59228,-7.96083],[111.59215,-7.96122],[111.59222,-7.96153],[111.59228,-7.96161],[111.59239,-7.96168],[111.59326,-7.96192],[111.59367,-7.9621],[111.59398,-7.96234],[111.59411,-7.96256],[111.5942,-7.96276],[111.59425,-7.96297],[111.59422,-7.96378],[111.59417,-7.96401],[111.59402,-7.96428],[111.59393,-7.9646],[111.5938,-7.9648],[111.5938,-7.96503],[111.59388,-7.96526],[111.59421,-7.96566],[111.59468,-7.96656],[111.5948,-7.9667],[111.59496,-7.96678],[111.5951,-7.96679],[111.59558,-7.96702],[111.5957,-7.96705],[111.59594,-7.96704],[111.59645,-7.96686],[111.59678,-7.9667],[111.59726,-7.96665],[111.59738,-7.96655],[111.59764,-7.96605],[111.59793,-7.96583],[111.59798,-7.96582],[111.59809,-7.96569],[111.59901,-7.96583],[111.59953,-7.96577],[111.59952,-7.96547],[111.59961,-7.96524],[111.60063,-7.96546],[111.60076,-7.96543],[111.60117,-7.96517],[111.60147,-7.96507],[111.60197,-7.96512],[111.60255,-7.9651],[111.60249,-7.966],[111.6026,-7.96602],[111.60274,-7.96616],[111.60283,-7.96638],[111.60309,-7.96665],[111.60319,-7.96684],[111.60321,-7.96699],[111.60318,-7.9675],[111.60309,-7.96813],[111.60298,-7.96839],[111.60271,-7.96777],[111.60234,-7.96802],[111.6019,-7.96847],[111.60162,-7.96886],[111.60129,-7.96919],[111.60097,-7.96942],[111.60042,-7.96969],[111.59995,-7.96956],[111.59933,-7.96928],[111.59907,-7.96929],[111.5987,-7.96956],[111.59835,-7.97021],[111.59822,-7.97057],[111.59811,-7.97115],[111.59827,-7.9715],[111.59895,-7.97238],[111.59942,-7.97369],[111.59979,-7.97375],[111.60067,-7.97371],[111.60104,-7.97383],[111.60128,-7.97393],[111.60139,-7.97406],[111.60145,-7.97436],[111.60129,-7.97462],[111.601,-7.97495],[111.60094,-7.97507],[111.60039,-7.97471],[111.60041,-7.97445],[111.60079,-7.97465],[111.60104,-7.97469],[111.60087,-7.97429],[111.60054,-7.97423],[111.60009,-7.97434],[111.60003,-7.97455],[111.59986,-7.97459],[111.59988,-7.97474],[111.59922,-7.97489],[111.5989,-7.97501],[111.59932,-7.97514],[111.59967,-7.97508],[111.59982,-7.97546],[111.60008,-7.97568],[111.6004,-7.97587],[111.60073,-7.97626],[111.60077,-7.97644],[111.60016,-7.97692],[111.60008,-7.97706],[111.60016,-7.97731],[111.60006,-7.97792],[111.59957,-7.97821],[111.59919,-7.97914],[111.5983,-7.97841],[111.59843,-7.97812],[111.59887,-7.97779],[111.59895,-7.97708],[111.5988,-7.97651],[111.59869,-7.97585],[111.59856,-7.97574],[111.59835,-7.9757],[111.59815,-7.97574],[111.598,-7.97585],[111.59791,-7.97607],[111.59777,-7.97613],[111.59756,-7.97606],[111.59738,-7.9765],[111.5973,-7.97735],[111.59707,-7.97803],[111.5968,-7.97859],[111.59637,-7.98001],[111.59621,-7.9803],[111.59603,-7.98204],[111.59583,-7.98259],[111.59549,-7.98382],[111.59487,-7.98423],[111.59504,-7.98455],[111.59533,-7.98474],[111.59506,-7.98527],[111.59563,-7.98613],[111.59551,-7.98739],[111.59559,-7.98773],[111.59619,-7.98764],[111.59691,-7.98761],[111.59733,-7.98763],[111.59749,-7.98771],[111.59716,-7.98837],[111.59759,-7.98849],[111.59792,-7.98845],[111.59843,-7.98852],[111.5988,-7.98847],[111.59948,-7.98859],[111.60011,-7.98861],[111.6006,-7.98874],[111.60071,-7.98891],[111.60128,-7.98931],[111.60154,-7.98937],[111.60182,-7.98936],[111.60161,-7.98954],[111.60151,-7.98956],[111.60104,-7.98951],[111.60031,-7.98981],[111.60007,-7.9898],[111.59946,-7.9905],[111.59923,-7.99071],[111.59913,-7.99074],[111.59905,-7.99064],[111.59867,-7.98974],[111.5982,-7.98934],[111.59786,-7.98893],[111.59745,-7.98882],[111.59758,-7.98922],[111.59783,-7.98978],[111.59735,-7.98995],[111.59686,-7.98921],[111.59654,-7.98909],[111.59614,-7.98903],[111.59569,-7.98893],[111.59449,-7.98877],[111.59391,-7.98883],[111.59384,-7.98877],[111.59325,-7.98791],[111.59327,-7.98776],[111.59356,-7.98745],[111.59359,-7.98697],[111.59353,-7.98679],[111.59326,-7.98671],[111.59314,-7.98626],[111.59292,-7.98632],[111.59279,-7.98632],[111.5923,-7.98617],[111.592,-7.9863],[111.59183,-7.98633],[111.59151,-7.98628],[111.5915,-7.98619],[111.59135,-7.98607],[111.5913,-7.98593],[111.59136,-7.98576],[111.59168,-7.98529],[111.59171,-7.98511],[111.59168,-7.9849],[111.59132,-7.98451],[111.59113,-7.98423],[111.59096,-7.98387],[111.59234,-7.98413],[111.59303,-7.98441],[111.5933,-7.98447],[111.59353,-7.98441],[111.59359,-7.9842],[111.59395,-7.98378],[111.59411,-7.9835],[111.59449,-7.98341],[111.59463,-7.98345],[111.59459,-7.98279],[111.59481,-7.98195],[111.59456,-7.9812],[111.59461,-7.98084],[111.59518,-7.98036],[111.59551,-7.97979],[111.59581,-7.97947],[111.59611,-7.9788],[111.5959,-7.97843],[111.59601,-7.97813],[111.59547,-7.97794],[111.59503,-7.97788],[111.59473,-7.9778],[111.59442,-7.97755],[111.59425,-7.97732],[111.59428,-7.97681],[111.59441,-7.97661],[111.59462,-7.97652],[111.59488,-7.97658],[111.59496,-7.97613],[111.59509,-7.97585],[111.59523,-7.97586],[111.59553,-7.97599],[111.59609,-7.97613],[111.5963,-7.97626],[111.59636,-7.97604],[111.59647,-7.97598],[111.5967,-7.97541],[111.5968,-7.97472],[111.59516,-7.97451],[111.59486,-7.97424],[111.5949,-7.974],[111.59514,-7.9737],[111.59547,-7.97304],[111.59563,-7.97287],[111.59529,-7.97294],[111.59484,-7.97295],[111.5945,-7.97284],[111.59436,-7.97274],[111.59419,-7.9727],[111.59372,-7.97284],[111.5936,-7.9729],[111.59301,-7.97267],[111.59258,-7.97276],[111.59256,-7.97258],[111.59225,-7.97174],[111.59224,-7.97148],[111.59216,-7.97132],[111.59215,-7.97092],[111.59192,-7.97071],[111.59187,-7.97043],[111.59208,-7.97032],[111.59234,-7.97028],[111.59236,-7.97002],[111.59228,-7.96983],[111.59242,-7.96969],[111.59269,-7.96962],[111.59286,-7.96921],[111.59296,-7.9691],[111.5935,-7.96905],[111.59387,-7.96914],[111.59394,-7.96928],[111.59411,-7.96933],[111.59426,-7.96948],[111.59449,-7.96958],[111.59466,-7.96959],[111.59451,-7.9692],[111.59422,-7.96802],[111.59413,-7.96797],[111.59429,-7.96787],[111.59451,-7.96781],[111.59426,-7.96784],[111.59411,-7.96793],[111.59399,-7.96805],[111.59384,-7.968],[111.59365,-7.96798],[111.59306,-7.96802],[111.59291,-7.96798],[111.59275,-7.96789],[111.59271,-7.96794],[111.59258,-7.96826],[111.5925,-7.96837],[111.59175,-7.96896],[111.59168,-7.969],[111.59158,-7.969],[111.59141,-7.96894],[111.5911,-7.96894],[111.59046,-7.96939],[111.58967,-7.9696],[111.58937,-7.96959],[111.58907,-7.96951],[111.58882,-7.96929],[111.58865,-7.96903],[111.58838,-7.96888],[111.58814,-7.96887],[111.58796,-7.96897],[111.58775,-7.96895],[111.58744,-7.96904],[111.58731,-7.96899],[111.58713,-7.96884],[111.58718,-7.96863],[111.58731,-7.96834],[111.58824,-7.96707],[111.58863,-7.96672],[111.58866,-7.96659],[111.58862,-7.96647],[111.58833,-7.96597],[111.58777,-7.96537],[111.5876,-7.96524],[111.58746,-7.96519],[111.58719,-7.96528],[111.5869,-7.96527],[111.5865,-7.96522],[111.58634,-7.96516],[111.5861,-7.96523],[111.58582,-7.96488],[111.58553,-7.96445],[111.58545,-7.96429],[111.58537,-7.96387],[111.58541,-7.96348],[111.58544,-7.96332],[111.58563,-7.96286],[111.58613,-7.96194],[111.58611,-7.96172],[111.58582,-7.9611],[111.5857,-7.96064],[111.58572,-7.96036],[111.5856,-7.96006],[111.58543,-7.95931],[111.58516,-7.95878],[111.58503,-7.95859],[111.58431,-7.95817],[111.5838,-7.95766],[111.58378,-7.95747],[111.58386,-7.95707],[111.58405,-7.95642],[111.58433,-7.95571],[111.58434,-7.95556],[111.58422,-7.95536],[111.58499,-7.95401],[111.58539,-7.95273],[111.58546,-7.952],[111.58541,-7.95148],[111.58529,-7.9512],[111.58508,-7.95083],[111.58503,-7.95081],[111.5847,-7.95084],[111.58441,-7.95079],[111.58406,-7.95079],[111.58367,-7.95058],[111.58348,-7.9506],[111.5827,-7.95087],[111.58198,-7.95128],[111.58178,-7.95131],[111.5816,-7.95129],[111.58136,-7.95124],[111.58134,-7.95119],[111.58125,-7.95055],[111.58142,-7.9506],[111.58163,-7.95057],[111.58171,-7.95028],[111.5817,-7.95009],[111.58155,-7.94983],[111.58098,-7.94947],[111.58066,-7.94921],[111.58038,-7.94906],[111.58027,-7.94884],[111.58027,-7.9486],[111.5804,-7.9476],[111.58052,-7.94738],[111.58059,-7.94741],[111.5807,-7.94763],[111.58079,-7.94823],[111.5809,-7.94842],[111.58105,-7.94855],[111.58121,-7.94864],[111.58134,-7.94865],[111.58159,-7.94859],[111.58177,-7.94849],[111.58191,-7.94824],[111.58199,-7.94782],[111.58187,-7.94704],[111.58194,-7.94678],[111.58194,-7.94651],[111.58155,-7.9462],[111.58154,-7.94614],[111.58157,-7.94605],[111.5818,-7.94594],[111.58184,-7.94578],[111.58182,-7.94537],[111.58191,-7.94485],[111.5819,-7.94443],[111.58176,-7.94354],[111.58131,-7.94233],[111.58097,-7.94163],[111.58074,-7.94133],[111.58024,-7.94079],[111.57948,-7.94012],[111.57928,-7.93989],[111.57876,-7.93939],[111.57859,-7.93928],[111.57826,-7.93887],[111.578,-7.93867],[111.57772,-7.93839],[111.57779,-7.93813],[111.57794,-7.93782],[111.57814,-7.93749],[111.57825,-7.93755],[111.57841,-7.93749],[111.57855,-7.93752],[111.57895,-7.93761],[111.57909,-7.93767],[111.57942,-7.93764],[111.57958,-7.93758],[111.57978,-7.93741],[111.58007,-7.93729],[111.58074,-7.93725],[111.58105,-7.93718],[111.58142,-7.93703],[111.58164,-7.93708],[111.58177,-7.93715],[111.58211,-7.93709],[111.58223,-7.93715],[111.58233,-7.93728],[111.58243,-7.93747],[111.58251,-7.93788],[111.58246,-7.93812],[111.58205,-7.93888],[111.58189,-7.93929],[111.58188,-7.93967],[111.58213,-7.93999],[111.5826,-7.94036],[111.58288,-7.94049],[111.58313,-7.94054],[111.58337,-7.94055],[111.58356,-7.94061],[111.58408,-7.94094],[111.58435,-7.94102],[111.58498,-7.94114],[111.58508,-7.94122],[111.58545,-7.94186],[111.58563,-7.94206],[111.58593,-7.94231],[111.58613,-7.94242],[111.58628,-7.94256],[111.58706,-7.94273]]]}},{"type":"Feature","properties":{"pippib":"PIPPIB KAWASAN"},"geometry":{"type":"Polygon","coordinates":[[[111.59303,-7.93841],[111.59312,-7.9382],[111.59348,-7.93811],[111.59381,-7.93789],[111.594,-7.93768],[111.59445,-7.93769],[111.59473,-7.9375],[111.59511,-7.93639],[111.59521,-7.9365],[111.59552,-7.93707],[111.59569,-7.93722],[111.59594,-7.93767],[111.59605,-7.93792],[111.59609,-7.93816],[111.59633,-7.93825],[111.59667,-7.93852],[111.59682,-7.93859],[111.59696,-7.93862],[111.59719,-7.9386],[111.5973,-7.93849],[111.59733,-7.93842],[111.59737,-7.93807],[111.59742,-7.93796],[111.59751,-7.93788],[111.5976,-7.93788],[111.59804,-7.93829],[111.59816,-7.93831],[111.5982,-7.93827],[111.59829,-7.93802],[111.59836,-7.93792],[111.59861,-7.93782],[111.59912,-7.9378],[111.59954,-7.93733],[111.5996,-7.93708],[111.5999,-7.93733],[111.60018,-7.9374],[111.60035,-7.93748],[111.60075,-7.93799],[111.60124,-7.93879],[111.60136,-7.93887],[111.60184,-7.93902],[111.60215,-7.93919],[111.60238,-7.93932],[111.60301,-7.93981],[111.60354,-7.93995],[111.60367,-7.94008],[111.60385,-7.94039],[111.60452,-7.94079],[111.60481,-7.94102],[111.60493,-7.94117],[111.60506,-7.94126],[111.60555,-7.94137],[111.60571,-7.9415],[111.60583,-7.9417],[111.60621,-7.94292],[111.60628,-7.9433],[111.60635,-7.9434],[111.60666,-7.94366],[111.60697,-7.94424],[111.60736,-7.9444],[111.60771,-7.9448],[111.60784,-7.94508],[111.60789,-7.94557],[111.60794,-7.94575],[111.608,-7.94584],[111.60813,-7.94594],[111.60848,-7.94609],[111.60855,-7.94616],[111.60858,-7.94653],[111.60876,-7.94668],[111.60877,-7.94679],[111.60889,-7.94697],[111.60893,-7.94726],[111.60888,-7.94763],[111.60885,-7.94832],[111.60879,-7.94859],[111.60875,-7.94903],[111.6088,-7.94969],[111.60879,-7.9499],[111.60872,-7.95032],[111.60864,-7.95054],[111.60862,-7.95088],[111.60863,-7.95119],[111.60806,-7.95135],[111.60749,-7.95135],[111.60711,-7.9514],[111.60687,-7.95157],[111.60653,-7.95154],[111.60605,-7.95114],[111.60565,-7.95153],[111.6052,-7.95157],[111.60481,-7.95193],[111.60346,-7.9514],[111.60279,-7.95131],[111.60219,-7.9515],[111.60161,-7.95174],[111.60096,-7.95145],[111.60016,-7.9513],[111.59969,-7.95113],[111.59953,-7.95103],[111.59935,-7.95086],[111.5993,-7.95065],[111.5995,-7.95026],[111.5996,-7.95017],[111.59979,-7.9499],[111.5998,-7.94959],[111.59976,-7.94947],[111.59966,-7.94932],[111.59964,-7.94919],[111.5993,-7.94908],[111.59916,-7.94897],[111.59874,-7.94846],[111.5984,-7.94786],[111.59819,-7.94758],[111.59817,-7.94722],[111.59771,-7.94657],[111.59765,-7.94637],[111.59772,-7.94593],[111.59789,-7.94541],[111.59751,-7.94415],[111.59732,-7.94364],[111.59739,-7.94314],[111.5976,-7.94264],[111.59763,-7.94248],[111.59753,-7.9421],[111.59753,-7.94198],[111.59776,-7.94145],[111.59771,-7.94127],[111.59743,-7.94081],[111.59736,-7.94074],[111.59725,-7.94069],[111.59673,-7.94101],[111.5965,-7.94111],[111.59641,-7.94106],[111.59611,-7.94078],[111.59595,-7.94049],[111.59562,-7.9401],[111.59523,-7.93991],[111.59469,-7.93979],[111.59423,-7.93951],[111.59362,-7.93904],[111.59322,-7.93856],[111.59303,-7.93841]]]}},{"type":"Feature","properties":{"pippib":"PIPPIB KAWASAN"},"geometry":{"type":"Polygon","coordinates":[[[111.58951,-7.93559],[111.58944,-7.93566],[111.58929,-7.93533],[111.58939,-7.93543],[111.58951,-7.93559]]]}},{"type":"Feature","properties":{"pippib":"PIPPIB KAWASAN"},"geometry":{"type":"Polygon","coordinates":[[[111.58895,-7.93496],[111.58882,-7.93492],[111.5887,-7.93478],[111.58887,-7.93486],[111.58895,-7.93496]]]}},{"type":"Feature","properties":{"pippib":"PIPPIB KAWASAN"},"geometry":{"type":"Polygon","coordinates":[[[111.57655,-8.03864],[111.57627,-8.03844],[111.57586,-8.03837],[111.57568,-8.03825],[111.57543,-8.03741],[111.57519,-8.03708],[111.57507,-8.03698],[111.5747,-8.03683],[111.57411,-8.03711],[111.5741,-8.03707],[111.57457,-8.0368],[111.57481,-8.03674],[111.57522,-8.0369],[111.5755,-8.03728],[111.57564,-8.03761],[111.5758,-8.0382],[111.57589,-8.03828],[111.57642,-8.03841],[111.57658,-8.0386],[111.57679,-8.03859],[111.57677,-8.03862],[111.57655,-8.03864]]]}},{"type":"Feature","properties":{"pippib":"PIPPIB KAWASAN"},"geometry":{"type":"Polygon","coordinates":[[[111.57394,-8.04243],[111.57363,-8.04224],[111.57365,-8.04195],[111.5737,-8.04192],[111.5737,-8.04214],[111.57386,-8.04222],[111.57399,-8.04233],[111.57394,-8.04243]]]}},{"type":"Feature","properties":{"pippib":"PIPPIB KAWASAN"},"geometry":{"type":"Polygon","coordinates":[[[111.57377,-8.04182],[111.57372,-8.04157],[111.57404,-8.04033],[111.57412,-8.04028],[111.57381,-8.04145],[111.57384,-8.04179],[111.57377,-8.04182]]]}},{"type":"Feature","properties":{"pippib":"PIPPIB KAWASAN"},"geometry":{"type":"Polygon","coordinates":[[[111.574,-8.03717],[111.57415,-8.0376],[111.57409,-8.03777],[111.57414,-8.03798],[111.57442,-8.03815],[111.57435,-8.03831],[111.57452,-8.03848],[111.57463,-8.03881],[111.57425,-8.03986],[111.57423,-8.04016],[111.57416,-8.04022],[111.57416,-8.0399],[111.57425,-8.03969],[111.57453,-8.0389],[111.57444,-8.03855],[111.57425,-8.0384],[111.57431,-8.03823],[111.57404,-8.03808],[111.57397,-8.03783],[111.57404,-8.03764],[111.57385,-8.03737],[111.57393,-8.03714],[111.57401,-8.0371],[111.574,-8.03717]]]}},{"type":"Feature","properties":{"pippib":"PIPPIB KAWASAN"},"geometry":{"type":"Polygon","coordinates":[[[111.5744,-8.03686],[111.57424,-8.0367],[111.57418,-8.03638],[111.574,-8.03607],[111.57374,-8.03585],[111.57374,-8.03572],[111.57369,-8.03566],[111.5731,-8.03549],[111.57267,-8.03548],[111.57226,-8.03525],[111.57224,-8.03507],[111.57239,-8.03504],[111.5724,-8.03509],[111.57249,-8.03518],[111.57284,-8.03533],[111.57321,-8.03537],[111.57383,-8.03557],[111.57389,-8.03574],[111.57407,-8.03589],[111.5743,-8.03628],[111.57431,-8.03648],[111.57453,-8.03679],[111.5744,-8.03686]]]}},{"type":"Feature","properties":{"pippib":"PIPPIB KAWASAN"},"geometry":{"type":"Polygon","coordinates":[[[111.57572,-8.03218],[111.57576,-8.0323],[111.57569,-8.03255],[111.5755,-8.03271],[111.5754,-8.03276],[111.57528,-8.03251],[111.57546,-8.03235],[111.57552,-8.0322],[111.57553,-8.03223],[111.57557,-8.03217],[111.57555,-8.03228],[111.57572,-8.03218]]]}},{"type":"Feature","properties":{"pippib":"PIPPIB KAWASAN"},"geometry":{"type":"Polygon","coordinates":[[[111.57778,-8.01584],[111.5779,-8.01569],[111.57827,-8.01583],[111.57809,-8.01633],[111.57764,-8.01632],[111.57765,-8.01619],[111.57778,-8.01584]]]}},{"type":"Feature","properties":{"pippib":"PIPPIB KAWASAN"},"geometry":{"type":"Polygon","coordinates":[[[111.56467,-8.0142],[111.56485,-8.01423],[111.56514,-8.01486],[111.56541,-8.01489],[111.56582,-8.01489],[111.56592,-8.01484],[111.566,-8.0149],[111.56587,-8.01502],[111.56544,-8.01517],[111.56534,-8.01517],[111.56516,-8.01511],[111.56492,-8.01494],[111.56473,-8.01473],[111.56443,-8.01409],[111.56467,-8.0142]]]}},{"type":"Feature","properties":{"pippib":"PIPPIB KAWASAN"},"geometry":{"type":"Polygon","coordinates":[[[111.57813,-7.93748],[111.578,-7.93772],[111.57795,-7.9378],[111.57813,-7.93748]]]}},{"type":"Feature","properties":{"pippib":"PIPPIB KAWASAN"},"geometry":{"type":"Polygon","coordinates":[[[111.59481,-7.95443],[111.59473,-7.95447],[111.59478,-7.95336],[111.59471,-7.95312],[111.59459,-7.95309],[111.59455,-7.95304],[111.59463,-7.95302],[111.59486,-7.95303],[111.59491,-7.95317],[111.59491,-7.95414],[111.5949,-7.95425],[111.59481,-7.95443]]]}},{"type":"Feature","properties":{"pippib":"PIPPIB KAWASAN"},"geometry":{"type":"Polygon","coordinates":[[[111.59412,-7.95305],[111.59417,-7.953],[111.59426,-7.95299],[111.59421,-7.95303],[111.59412,-7.95305]]]}},{"type":"Feature","properties":{"pippib":"PIPPIB KAWASAN"},"geometry":{"type":"Polygon","coordinates":[[[111.59364,-7.95333],[111.59344,-7.95341],[111.5932,-7.95341],[111.59315,-7.95308],[111.5927,-7.9528],[111.59249,-7.95252],[111.59225,-7.95233],[111.59177,-7.95177],[111.592,-7.95148],[111.5922,-7.95107],[111.59234,-7.95096],[111.59241,-7.95037],[111.59202,-7.94979],[111.59202,-7.94944],[111.59185,-7.9492],[111.59178,-7.94886],[111.59167,-7.94864],[111.59176,-7.94838],[111.59171,-7.94833],[111.59161,-7.94836],[111.59142,-7.94806],[111.59138,-7.9475],[111.59125,-7.94728],[111.59095,-7.94705],[111.59069,-7.94677],[111.59063,-7.94663],[111.59036,-7.94661],[111.58993,-7.94667],[111.58969,-7.94625],[111.58952,-7.94581],[111.58929,-7.94541],[111.58834,-7.94493],[111.58803,-7.94482],[111.58774,-7.94481],[111.58763,-7.94459],[111.58752,-7.94444],[111.58739,-7.94339],[111.58731,-7.94309],[111.58704,-7.943],[111.58706,-7.94273],[111.58765,-7.94279],[111.58821,-7.94277],[111.58822,-7.94326],[111.58807,-7.94354],[111.58804,-7.94368],[111.58811,-7.94393],[111.5884,-7.94422],[111.5886,-7.94433],[111.589,-7.94464],[111.58915,-7.94471],[111.58972,-7.94522],[111.59017,-7.94584],[111.5903,-7.94595],[111.59108,-7.94638],[111.59136,-7.94666],[111.59149,-7.94691],[111.59157,-7.94722],[111.59185,-7.94764],[111.59201,-7.9482],[111.59224,-7.94856],[111.59226,-7.94867],[111.59224,-7.94899],[111.59236,-7.94967],[111.59261,-7.95043],[111.59256,-7.95057],[111.59244,-7.95073],[111.5924,-7.95089],[111.59252,-7.95156],[111.59278,-7.95205],[111.59285,-7.95253],[111.59292,-7.95269],[111.59309,-7.95291],[111.59334,-7.95308],[111.59357,-7.95331],[111.59364,-7.95333]]]}},{"type":"Feature","properties":{"pippib":"PIPPIB KAWASAN"},"geometry":{"type":"Polygon","coordinates":[[[111.59511,-7.93639],[111.59473,-7.9375],[111.59445,-7.93769],[111.594,-7.93768],[111.59381,-7.93789],[111.59348,-7.93811],[111.59312,-7.9382],[111.59303,-7.93841],[111.59285,-7.9383],[111.59282,-7.93739],[111.59362,-7.93714],[111.59399,-7.93698],[111.59426,-7.93678],[111.59462,-7.93659],[111.59469,-7.93644],[111.59491,-7.93637],[111.59511,-7.93639]]]}},{"type":"Feature","properties":{"pippib":"PIPPIB KAWASAN"},"geometry":{"type":"Polygon","coordinates":[[[111.5887,-7.93478],[111.58882,-7.93492],[111.58895,-7.93496],[111.58929,-7.93533],[111.58944,-7.93566],[111.58951,-7.93559],[111.5897,-7.93577],[111.58985,-7.93579],[111.59003,-7.9357],[111.59049,-7.93527],[111.59068,-7.93514],[111.59153,-7.93508],[111.5914,-7.93529],[111.59133,-7.93536],[111.59117,-7.9354],[111.59103,-7.93535],[111.5909,-7.93534],[111.59085,-7.93543],[111.59083,-7.93567],[111.59078,-7.93576],[111.59019,-7.93611],[111.58929,-7.93675],[111.5892,-7.93679],[111.5891,-7.93676],[111.58887,-7.93659],[111.58856,-7.93662],[111.58834,-7.93669],[111.58785,-7.93709],[111.58772,-7.93687],[111.58762,-7.9364],[111.5875,-7.93601],[111.58729,-7.93559],[111.58699,-7.93527],[111.58671,-7.93481],[111.58617,-7.93414],[111.58565,-7.93394],[111.5848,-7.93372],[111.58451,-7.93359],[111.58408,-7.93332],[111.58418,-7.93322],[111.58437,-7.93274],[111.58448,-7.9327],[111.58469,-7.93249],[111.58479,-7.93236],[111.58483,-7.93225],[111.58499,-7.93216],[111.58513,-7.93243],[111.58545,-7.93274],[111.58596,-7.93299],[111.58646,-7.93329],[111.58664,-7.93359],[111.58675,-7.93397],[111.58691,-7.93426],[111.58715,-7.93442],[111.58763,-7.93439],[111.588,-7.93444],[111.58818,-7.9345],[111.5887,-7.93478]]]}}]}