{"type":"FeatureCollection","features":[{"type":"Feature","properties":{"provno":"35","kabkotno":"03","kecno":"060","provinsi":"JAWA TIMUR","kabkot":"TRENGGALEK","kecamatan":"PULE","idkec":"3503060","pln":100,"bbm_lpg":1,"bbm_kayu":9,"fas_diksar":54,"fas_kes":44,"kd_smu":10,"kd_s1":0,"kd_s3":0,"tahun_data":2020,"_cls":"PULE"},"geometry":{"type":"MultiPolygon","coordinates":[[[[111.55869,-8.0497],[111.55746,-8.04988],[111.55869,-8.0497],[111.55893,-8.04961],[111.55869,-8.0497]]],[[[111.56408,-8.04944],[111.56406,-8.04945],[111.56411,-8.04941],[111.56408,-8.04944]]],[[[111.5594,-8.04944],[111.55918,-8.04951],[111.55939,-8.04944],[111.55963,-8.04939],[111.55995,-8.04935],[111.5594,-8.04944]]],[[[111.56426,-8.0492],[111.56421,-8.04927],[111.56428,-8.04915],[111.56426,-8.0492]]],[[[111.56052,-8.04931],[111.56013,-8.04934],[111.56052,-8.04931],[111.56062,-8.0492],[111.5608,-8.04905],[111.56052,-8.04931]]],[[[111.56165,-8.04916],[111.56228,-8.0493],[111.56164,-8.04916],[111.56147,-8.04904],[111.56119,-8.04895],[111.56148,-8.04904],[111.56165,-8.04916]]],[[[111.56098,-8.04889],[111.56112,-8.04892],[111.56098,-8.04889],[111.56098,-8.04889]]],[[[111.56862,-8.04888],[111.56851,-8.04892],[111.5685,-8.04892],[111.56862,-8.04888]]],[[[111.56979,-8.04867],[111.56959,-8.0487],[111.56989,-8.04861],[111.56979,-8.04867]]],[[[111.56457,-8.04852],[111.56454,-8.04858],[111.56458,-8.04849],[111.56457,-8.04852]]],[[[111.57023,-8.04841],[111.57009,-8.0485],[111.57023,-8.04842],[111.57023,-8.04841]]],[[[111.57062,-8.04837],[111.57032,-8.0484],[111.57048,-8.04836],[111.57062,-8.04837]]],[[[111.5646,-8.04824],[111.5646,-8.04826],[111.5646,-8.04825],[111.5646,-8.04824]]],[[[111.56612,-8.04813],[111.56647,-8.04834],[111.56585,-8.048],[111.56612,-8.04813]]],[[[111.56531,-8.04793],[111.56565,-8.04796],[111.56497,-8.04798],[111.56531,-8.04793]]],[[[111.57268,-8.04823],[111.57249,-8.04826],[111.57266,-8.04822],[111.57311,-8.04801],[111.57336,-8.04783],[111.57346,-8.04747],[111.57351,-8.04639],[111.57352,-8.0468],[111.57347,-8.04736],[111.57345,-8.04763],[111.57339,-8.04782],[111.57327,-8.04795],[111.57268,-8.04823]]],[[[111.57384,-8.04466],[111.57368,-8.04541],[111.57381,-8.04467],[111.57366,-8.04392],[111.57384,-8.04466]]],[[[111.57409,-8.04211],[111.57402,-8.04225],[111.57407,-8.04212],[111.57409,-8.04183],[111.57409,-8.04211]]],[[[111.57451,-8.03981],[111.57441,-8.03991],[111.57445,-8.03985],[111.57451,-8.03981]]]]}},{"type":"Feature","properties":{"provno":"35","kabkotno":"03","kecno":"120","provinsi":"JAWA TIMUR","kabkot":"TRENGGALEK","kecamatan":"TUGU","idkec":"3503120","pln":100,"bbm_lpg":11,"bbm_kayu":4,"fas_diksar":43,"fas_kes":50,"kd_smu":8,"kd_s1":7,"kd_s3":0,"tahun_data":2020,"_cls":"TUGU"},"geometry":{"type":"MultiPolygon","coordinates":[[[[111.5762,-8.03884],[111.57504,-8.03947],[111.57603,-8.03888],[111.5762,-8.03884]]],[[[111.57972,-8.03179],[111.5794,-8.03256],[111.57947,-8.03211],[111.58003,-8.02992],[111.58072,-8.02775],[111.58102,-8.02691],[111.58135,-8.02633],[111.5817,-8.02589],[111.58189,-8.02576],[111.58222,-8.02559],[111.58334,-8.02517],[111.58273,-8.02572],[111.58261,-8.0266],[111.58234,-8.02701],[111.58189,-8.02791],[111.58111,-8.02913],[111.58068,-8.03003],[111.58035,-8.03081],[111.57994,-8.03133],[111.57972,-8.03179]]],[[[111.58527,-8.02444],[111.58389,-8.02495],[111.58543,-8.02435],[111.58527,-8.02444]]],[[[111.65064,-8.02214],[111.65064,-8.02214],[111.65055,-8.02214],[111.65064,-8.02214]]],[[[111.65015,-8.02211],[111.65053,-8.02214],[111.65015,-8.02211],[111.65015,-8.02211]]],[[[111.64983,-8.02207],[111.65009,-8.02211],[111.64983,-8.02207],[111.64983,-8.02207]]],[[[111.64901,-8.02184],[111.6489,-8.02194],[111.64901,-8.02184],[111.64923,-8.02174],[111.64926,-8.02174],[111.64901,-8.02184]]],[[[111.64934,-8.02173],[111.6496,-8.0219],[111.64934,-8.02173],[111.64934,-8.02173]]],[[[111.65142,-8.02146],[111.65125,-8.02144],[111.65096,-8.0214],[111.65125,-8.02144],[111.65142,-8.02146]]],[[[111.65165,-8.0214],[111.65155,-8.02142],[111.65165,-8.0214],[111.65207,-8.02116],[111.65165,-8.0214]]],[[[111.58923,-8.0206],[111.58753,-8.02275],[111.58824,-8.02176],[111.58923,-8.0206]]],[[[111.65319,-8.02058],[111.65278,-8.02076],[111.65294,-8.02067],[111.65319,-8.02058],[111.65324,-8.02054],[111.65319,-8.02058]]],[[[111.65337,-8.02015],[111.65335,-8.02024],[111.65342,-8.01997],[111.65337,-8.02015]]],[[[111.60596,-8.01944],[111.60575,-8.01944],[111.60575,-8.01944],[111.60596,-8.01944]]],[[[111.65358,-8.01946],[111.65355,-8.01955],[111.65357,-8.01946],[111.65346,-8.01924],[111.65358,-8.01946]]],[[[111.60531,-8.01929],[111.60574,-8.01944],[111.60549,-8.01935],[111.60531,-8.01929],[111.60499,-8.01923],[111.60531,-8.01929]]],[[[111.60418,-8.01885],[111.60424,-8.01889],[111.60414,-8.01883],[111.60418,-8.01885]]],[[[111.65332,-8.01885],[111.65332,-8.01892],[111.65331,-8.01885],[111.6534,-8.01873],[111.65332,-8.01885]]],[[[111.59713,-8.01871],[111.59732,-8.01869],[111.59732,-8.01869],[111.59713,-8.01871]]],[[[111.59713,-8.01871],[111.59713,-8.01871],[111.59708,-8.01869],[111.59713,-8.01871]]],[[[111.60704,-8.0189],[111.6064,-8.01926],[111.60664,-8.01909],[111.60703,-8.0189],[111.60738,-8.01863],[111.60704,-8.0189]]],[[[111.60323,-8.01859],[111.60346,-8.01859],[111.60322,-8.01859],[111.60323,-8.01859]]],[[[111.60286,-8.01859],[111.60304,-8.0186],[111.60286,-8.01859],[111.60257,-8.0185],[111.60286,-8.01859]]],[[[111.60749,-8.01853],[111.60747,-8.01856],[111.60753,-8.01849],[111.60749,-8.01853]]],[[[111.65356,-8.01856],[111.65346,-8.01866],[111.65365,-8.01842],[111.65356,-8.01856]]],[[[111.59838,-8.0184],[111.59832,-8.01841],[111.59837,-8.0184],[111.59838,-8.0184]]],[[[111.59935,-8.01839],[111.59918,-8.01847],[111.59896,-8.01846],[111.59894,-8.01846],[111.59918,-8.01847],[111.59935,-8.01839]]],[[[111.59514,-8.01842],[111.595,-8.01847],[111.59519,-8.01837],[111.59514,-8.01842]]],[[[111.60087,-8.01833],[111.60096,-8.01834],[111.6011,-8.01833],[111.60096,-8.01834],[111.60087,-8.01833]]],[[[111.60128,-8.0183],[111.60126,-8.01831],[111.60134,-8.01829],[111.60128,-8.0183]]],[[[111.60185,-8.01826],[111.60168,-8.01827],[111.60184,-8.01826],[111.60185,-8.01826]]],[[[111.6003,-8.01824],[111.6004,-8.01826],[111.60013,-8.01824],[111.6003,-8.01824]]],[[[111.60758,-8.01842],[111.60755,-8.01846],[111.60772,-8.01823],[111.60758,-8.01842]]],[[[111.65379,-8.01819],[111.65377,-8.01823],[111.65378,-8.01809],[111.65379,-8.01819]]],[[[111.59646,-8.01795],[111.59647,-8.01796],[111.59644,-8.01791],[111.59646,-8.01795]]],[[[111.59562,-8.01789],[111.59549,-8.01804],[111.59562,-8.01789],[111.59574,-8.01783],[111.59562,-8.01789]]],[[[111.59621,-8.01756],[111.59596,-8.01771],[111.59624,-8.01754],[111.59621,-8.01756]]],[[[111.65372,-8.01744],[111.65376,-8.0178],[111.65372,-8.01736],[111.65372,-8.01744]]],[[[111.60753,-8.01805],[111.60772,-8.01813],[111.60753,-8.01805],[111.60725,-8.0178],[111.60712,-8.01742],[111.6071,-8.0172],[111.60713,-8.01742],[111.60726,-8.0178],[111.60753,-8.01805]]],[[[111.60704,-8.01687],[111.60706,-8.01694],[111.607,-8.01681],[111.60704,-8.01687]]],[[[111.65419,-8.01668],[111.65383,-8.01708],[111.65436,-8.01652],[111.65419,-8.01668]]],[[[111.65463,-8.01615],[111.65458,-8.01626],[111.65474,-8.01597],[111.65463,-8.01615]]],[[[111.65505,-8.01507],[111.65504,-8.0152],[111.65505,-8.01507],[111.65499,-8.01446],[111.65505,-8.01507]]],[[[111.65558,-8.01148],[111.65532,-8.01204],[111.6556,-8.01143],[111.65558,-8.01148]]],[[[111.65561,-8.00931],[111.65565,-8.01104],[111.65561,-8.00931],[111.65561,-8.00931]]],[[[111.65569,-8.0093],[111.65566,-8.00936],[111.6557,-8.00928],[111.65569,-8.0093]]],[[[111.61138,-8.00664],[111.61155,-8.00669],[111.61186,-8.00666],[111.61213,-8.0071],[111.61238,-8.00734],[111.61256,-8.00742],[111.61295,-8.00747],[111.61331,-8.00759],[111.61359,-8.00779],[111.61395,-8.0079],[111.61434,-8.0079],[111.61533,-8.00768],[111.6157,-8.00739],[111.61608,-8.00753],[111.61718,-8.0081],[111.61783,-8.00832],[111.61859,-8.00849],[111.61818,-8.00896],[111.61744,-8.0094],[111.61705,-8.0095],[111.61552,-8.00961],[111.61515,-8.00979],[111.61494,-8.01006],[111.61437,-8.01069],[111.61355,-8.01114],[111.61296,-8.0116],[111.61252,-8.01169],[111.61177,-8.01167],[111.61138,-8.01196],[111.61082,-8.01259],[111.61006,-8.01324],[111.6097,-8.01408],[111.60861,-8.01508],[111.60801,-8.0155],[111.60736,-8.01556],[111.60662,-8.01588],[111.60637,-8.01607],[111.60643,-8.01639],[111.60638,-8.01626],[111.60636,-8.01588],[111.60641,-8.01574],[111.60677,-8.01527],[111.60686,-8.01494],[111.6069,-8.01453],[111.6069,-8.01299],[111.60663,-8.01252],[111.60661,-8.01229],[111.60675,-8.01201],[111.6074,-8.01132],[111.60815,-8.01095],[111.60846,-8.01069],[111.60857,-8.01055],[111.6086,-8.01041],[111.60855,-8.00952],[111.60818,-8.00944],[111.60798,-8.00931],[111.60788,-8.00914],[111.60789,-8.00894],[111.60799,-8.00875],[111.60812,-8.0086],[111.60866,-8.0084],[111.6088,-8.00831],[111.60887,-8.00794],[111.60919,-8.00758],[111.60974,-8.00664],[111.61011,-8.0066],[111.61069,-8.00636],[111.61091,-8.00638],[111.61113,-8.00647],[111.61138,-8.00664]]],[[[111.62684,-8.01015],[111.62592,-8.01092],[111.62588,-8.01089],[111.62508,-8.00919],[111.62484,-8.00859],[111.62457,-8.00846],[111.62436,-8.00828],[111.62427,-8.00764],[111.625,-8.00746],[111.62543,-8.00709],[111.62602,-8.00667],[111.6267,-8.00602],[111.62709,-8.00552],[111.62738,-8.00498],[111.62787,-8.00472],[111.6285,-8.00459],[111.62895,-8.00438],[111.62997,-8.00363],[111.63068,-8.00362],[111.63228,-8.00388],[111.63306,-8.00407],[111.63325,-8.00416],[111.63304,-8.00462],[111.63254,-8.00479],[111.63177,-8.00668],[111.63108,-8.00754],[111.6306,-8.00764],[111.62988,-8.00789],[111.62932,-8.00859],[111.62859,-8.00917],[111.62763,-8.00965],[111.62684,-8.01015]]],[[[111.65503,-7.988],[111.65485,-7.98777],[111.65477,-7.98769],[111.65485,-7.98777],[111.65503,-7.988]]],[[[111.65443,-7.98727],[111.65447,-7.98733],[111.65436,-7.98717],[111.65443,-7.98727]]],[[[111.65382,-7.98659],[111.65394,-7.98666],[111.65376,-7.98653],[111.65382,-7.98659]]],[[[111.65363,-7.98631],[111.65363,-7.98632],[111.65362,-7.9863],[111.65363,-7.98631]]],[[[111.65351,-7.98448],[111.65364,-7.98489],[111.65358,-7.98474],[111.65351,-7.98448],[111.65345,-7.984],[111.65351,-7.98448]]],[[[111.65357,-7.98278],[111.65339,-7.98333],[111.6536,-7.98268],[111.65357,-7.98278]]],[[[111.65369,-7.98166],[111.65374,-7.98202],[111.65369,-7.98166],[111.65369,-7.98162],[111.65372,-7.98154],[111.65388,-7.9814],[111.65429,-7.98109],[111.65433,-7.98107],[111.65372,-7.98154],[111.65369,-7.98166]]],[[[111.65499,-7.98059],[111.65483,-7.9807],[111.65499,-7.98059],[111.6551,-7.98043],[111.65527,-7.98003],[111.65535,-7.97969],[111.65527,-7.98003],[111.65523,-7.98013],[111.6551,-7.98043],[111.65499,-7.98059]]],[[[111.65534,-7.97932],[111.65535,-7.97958],[111.65532,-7.97906],[111.65534,-7.97932]]],[[[111.6555,-7.97812],[111.6555,-7.97814],[111.65556,-7.97801],[111.6555,-7.97812]]],[[[111.65582,-7.97707],[111.65567,-7.97768],[111.65569,-7.97753],[111.65574,-7.97731],[111.6558,-7.97712],[111.65582,-7.97707]]],[[[111.65626,-7.97593],[111.65614,-7.97619],[111.65626,-7.97593],[111.65637,-7.97583],[111.65626,-7.97593]]],[[[111.6568,-7.97565],[111.6568,-7.97565],[111.65682,-7.97564],[111.6568,-7.97565]]],[[[111.65732,-7.97556],[111.65731,-7.97556],[111.65732,-7.97556],[111.65732,-7.97556]]],[[[111.65738,-7.97554],[111.65734,-7.97555],[111.65741,-7.97553],[111.65738,-7.97554]]],[[[111.66083,-7.97553],[111.66032,-7.97546],[111.66007,-7.97543],[111.66032,-7.97546],[111.66083,-7.97553]]],[[[111.65788,-7.97537],[111.65784,-7.97537],[111.65784,-7.97537],[111.65788,-7.97537]]],[[[111.65935,-7.97559],[111.65925,-7.97551],[111.65916,-7.97542],[111.65906,-7.97536],[111.65935,-7.97559]]],[[[111.65842,-7.97532],[111.65895,-7.97535],[111.65842,-7.97532],[111.65842,-7.97532]]],[[[111.661,-7.97545],[111.66091,-7.97549],[111.661,-7.97545],[111.66109,-7.97533],[111.66119,-7.97505],[111.66109,-7.97533],[111.661,-7.97545]]],[[[111.6615,-7.97491],[111.66119,-7.97504],[111.6615,-7.97491],[111.66155,-7.97486],[111.6615,-7.97491]]],[[[111.66161,-7.97471],[111.66164,-7.97459],[111.66174,-7.97452],[111.66209,-7.9743],[111.66216,-7.97423],[111.66209,-7.9743],[111.66164,-7.97459],[111.66161,-7.97471]]],[[[111.66225,-7.97403],[111.66225,-7.97403],[111.66225,-7.97403],[111.66225,-7.97403]]],[[[111.66192,-7.97383],[111.66198,-7.97386],[111.66187,-7.97377],[111.66192,-7.97383]]],[[[111.66172,-7.97189],[111.66172,-7.9719],[111.66172,-7.97189],[111.66168,-7.9717],[111.66167,-7.97157],[111.66172,-7.97189]]]]}},{"type":"Feature","properties":{"provno":"35","kabkotno":"03","kecno":"130","provinsi":"JAWA TIMUR","kabkot":"TRENGGALEK","kecamatan":"BENDUNGAN","idkec":"3503130","pln":100,"bbm_lpg":2,"bbm_kayu":6,"fas_diksar":30,"fas_kes":19,"kd_smu":4,"kd_s1":4,"kd_s3":0,"tahun_data":2020,"_cls":"BENDUNGAN"},"geometry":{"type":"Polygon","coordinates":[[[111.66163,-7.97129],[111.66132,-7.97118],[111.66117,-7.9703],[111.66095,-7.96948],[111.6608,-7.96923],[111.66064,-7.96906],[111.66013,-7.96892],[111.65993,-7.96862],[111.65871,-7.9682],[111.65784,-7.96793],[111.65701,-7.96772],[111.65614,-7.96735],[111.65527,-7.96704],[111.65366,-7.96655],[111.65298,-7.96639],[111.65201,-7.9665],[111.6513,-7.96698],[111.65073,-7.96718],[111.65009,-7.96723],[111.64988,-7.96734],[111.64948,-7.96747],[111.64932,-7.96748],[111.64922,-7.96754],[111.64886,-7.96792],[111.64867,-7.96831],[111.6486,-7.96837],[111.64777,-7.96841],[111.64745,-7.96864],[111.64713,-7.9686],[111.64657,-7.96846],[111.64545,-7.96843],[111.64528,-7.96837],[111.64497,-7.96817],[111.64484,-7.96816],[111.64465,-7.96821],[111.64442,-7.96822],[111.6441,-7.96812],[111.64322,-7.96766],[111.64256,-7.9676],[111.64196,-7.96744],[111.64158,-7.9672],[111.64093,-7.96705],[111.63968,-7.96657],[111.63908,-7.96642],[111.63836,-7.96611],[111.63696,-7.96537],[111.6368,-7.96481],[111.63672,-7.96421],[111.63678,-7.96371],[111.63702,-7.96268],[111.63772,-7.96082],[111.63927,-7.95911],[111.63932,-7.95916],[111.63935,-7.9593],[111.63951,-7.95944],[111.63951,-7.95967],[111.63956,-7.95975],[111.63966,-7.9598],[111.64007,-7.95987],[111.64035,-7.96009],[111.64072,-7.96018],[111.64094,-7.96026],[111.64123,-7.96073],[111.64131,-7.96081],[111.64142,-7.96081],[111.64148,-7.96077],[111.64162,-7.96054],[111.64169,-7.96052],[111.64182,-7.96057],[111.64195,-7.96071],[111.64225,-7.9609],[111.64255,-7.96102],[111.64275,-7.96086],[111.64282,-7.96085],[111.64295,-7.96093],[111.64314,-7.96087],[111.64322,-7.96062],[111.64321,-7.96017],[111.64328,-7.96011],[111.64348,-7.96014],[111.64405,-7.96043],[111.64422,-7.96046],[111.64434,-7.96042],[111.64441,-7.96026],[111.64448,-7.96023],[111.64459,-7.96026],[111.64831,-7.96014],[111.64837,-7.96037],[111.64878,-7.96081],[111.64977,-7.96131],[111.64986,-7.96141],[111.64986,-7.9615],[111.65026,-7.96185],[111.65076,-7.96194],[111.65099,-7.96202],[111.6514,-7.96229],[111.65149,-7.9624],[111.65175,-7.96315],[111.65216,-7.9637],[111.65237,-7.96389],[111.65285,-7.96397],[111.65302,-7.96405],[111.65319,-7.96427],[111.65317,-7.96437],[111.65367,-7.96454],[111.65436,-7.96505],[111.65487,-7.96526],[111.65582,-7.96572],[111.65692,-7.96611],[111.65777,-7.96667],[111.65849,-7.96735],[111.65902,-7.96777],[111.66052,-7.96757],[111.66187,-7.96716],[111.66262,-7.96713],[111.66343,-7.96758],[111.66349,-7.96774],[111.6635,-7.96813],[111.66333,-7.96884],[111.66299,-7.96982],[111.6626,-7.97052],[111.66251,-7.97061],[111.6624,-7.97089],[111.66223,-7.97107],[111.66171,-7.97122],[111.66163,-7.97129]]]}},{"type":"Feature","properties":{"provno":"35","kabkotno":"02","kecno":"040","provinsi":"JAWA TIMUR","kabkot":"PONOROGO","kecamatan":"SAMBIT","idkec":"3502040","pln":100,"bbm_lpg":14,"bbm_kayu":2,"fas_diksar":38,"fas_kes":55,"kd_smu":11,"kd_s1":5,"kd_s3":0,"tahun_data":2020,"_cls":"SAMBIT"},"geometry":{"type":"MultiPolygon","coordinates":[[[[111.55671,-8.04998],[111.55664,-8.05],[111.5565,-8.04997],[111.55638,-8.04989],[111.5561,-8.04933],[111.55632,-8.04956],[111.55646,-8.04985],[111.55676,-8.04991],[111.55671,-8.04998]]],[[[111.55585,-8.04919],[111.55596,-8.04922],[111.55579,-8.04919],[111.55585,-8.04919]]],[[[111.55465,-8.04891],[111.55472,-8.04901],[111.55424,-8.04893],[111.55433,-8.04838],[111.55431,-8.04835],[111.55438,-8.04842],[111.55438,-8.04854],[111.55453,-8.04886],[111.55465,-8.04891]]],[[[111.55389,-8.04818],[111.55362,-8.04794],[111.55346,-8.04738],[111.55353,-8.04758],[111.55389,-8.04807],[111.55389,-8.04818]]],[[[111.54022,-8.03633],[111.54064,-8.03676],[111.54111,-8.03688],[111.54158,-8.03706],[111.54178,-8.03705],[111.54187,-8.03699],[111.54193,-8.03699],[111.54202,-8.03715],[111.5422,-8.03724],[111.54233,-8.03725],[111.54268,-8.03742],[111.54317,-8.03739],[111.54329,-8.03743],[111.54349,-8.0376],[111.54354,-8.03771],[111.54355,-8.03795],[111.5436,-8.038],[111.54385,-8.03808],[111.54396,-8.03824],[111.54424,-8.03837],[111.54462,-8.03842],[111.54476,-8.03852],[111.54489,-8.03851],[111.54567,-8.0382],[111.54599,-8.03823],[111.54604,-8.03832],[111.54604,-8.03856],[111.54612,-8.03867],[111.5464,-8.0387],[111.54659,-8.03864],[111.54671,-8.03865],[111.54677,-8.03873],[111.54677,-8.03886],[111.54685,-8.03908],[111.54709,-8.03913],[111.54735,-8.03933],[111.54745,-8.03933],[111.54766,-8.03961],[111.54781,-8.03973],[111.548,-8.03976],[111.54833,-8.03959],[111.54866,-8.03956],[111.54888,-8.03965],[111.54907,-8.03995],[111.54952,-8.04005],[111.54965,-8.04005],[111.54988,-8.04022],[111.55003,-8.04042],[111.55018,-8.04048],[111.55021,-8.04053],[111.55022,-8.04085],[111.55033,-8.04099],[111.5504,-8.04107],[111.55064,-8.04121],[111.55077,-8.04142],[111.5509,-8.04153],[111.55099,-8.04171],[111.55107,-8.04178],[111.55115,-8.04192],[111.55135,-8.04209],[111.55152,-8.04233],[111.55176,-8.0424],[111.55187,-8.0425],[111.5519,-8.04288],[111.55205,-8.04297],[111.55229,-8.04305],[111.55216,-8.04346],[111.55215,-8.0436],[111.55233,-8.04391],[111.55242,-8.04428],[111.55242,-8.04434],[111.55239,-8.04444],[111.55234,-8.04449],[111.55233,-8.04462],[111.55239,-8.04468],[111.55263,-8.04521],[111.55263,-8.04528],[111.55246,-8.04536],[111.55246,-8.04544],[111.55253,-8.04563],[111.5527,-8.0459],[111.55276,-8.04621],[111.55271,-8.04634],[111.5525,-8.04622],[111.55184,-8.04614],[111.55126,-8.04566],[111.55126,-8.0452],[111.55104,-8.04461],[111.55061,-8.04391],[111.55023,-8.0437],[111.54917,-8.04278],[111.54702,-8.04184],[111.54655,-8.04206],[111.54592,-8.04179],[111.54553,-8.0413],[111.5451,-8.04123],[111.54473,-8.04127],[111.5442,-8.04141],[111.54374,-8.04127],[111.54318,-8.04081],[111.5425,-8.04189],[111.54235,-8.04195],[111.5422,-8.04184],[111.54192,-8.04183],[111.54175,-8.04158],[111.54167,-8.04156],[111.54131,-8.04199],[111.54103,-8.04203],[111.54048,-8.04221],[111.54024,-8.04212],[111.5398,-8.04225],[111.5396,-8.04207],[111.53947,-8.04208],[111.53878,-8.0425],[111.53887,-8.04218],[111.53933,-8.04136],[111.53964,-8.04106],[111.54022,-8.04074],[111.54058,-8.04026],[111.54085,-8.03893],[111.5404,-8.03757],[111.53998,-8.03677],[111.53986,-8.0366],[111.53969,-8.03646],[111.53854,-8.03685],[111.53912,-8.03557],[111.53995,-8.0361],[111.54022,-8.03633]]],[[[111.53861,-8.03506],[111.53874,-8.03527],[111.53861,-8.03507],[111.53862,-8.03489],[111.53861,-8.03506]]],[[[111.53868,-8.03465],[111.53864,-8.03472],[111.53864,-8.03472],[111.53868,-8.03465]]],[[[111.53903,-8.03415],[111.53882,-8.03445],[111.53909,-8.03405],[111.53903,-8.03415]]],[[[111.53927,-8.03377],[111.53923,-8.03383],[111.53946,-8.03332],[111.53927,-8.03377]]],[[[111.53963,-8.03278],[111.53963,-8.03281],[111.53963,-8.03256],[111.53963,-8.03278]]],[[[111.53963,-8.03236],[111.53963,-8.03238],[111.53961,-8.03221],[111.53963,-8.03236]]],[[[111.53954,-8.03188],[111.53938,-8.03136],[111.5393,-8.03114],[111.53937,-8.03131],[111.53954,-8.03188]]],[[[111.53905,-8.03055],[111.53928,-8.0311],[111.53898,-8.03044],[111.53905,-8.03055]]],[[[111.53819,-8.0291],[111.53878,-8.03007],[111.53804,-8.02886],[111.53784,-8.02845],[111.53819,-8.0291]]],[[[111.53747,-8.02758],[111.53756,-8.02784],[111.5375,-8.02769],[111.53747,-8.02758]]],[[[111.53719,-8.02642],[111.53723,-8.02668],[111.53716,-8.02607],[111.53719,-8.02642]]],[[[111.53715,-8.02414],[111.53713,-8.02559],[111.53712,-8.02528],[111.53715,-8.02414]]],[[[111.5372,-8.02348],[111.53717,-8.02373],[111.53718,-8.02338],[111.5372,-8.02348]]],[[[111.53721,-8.02305],[111.53718,-8.02337],[111.53719,-8.02303],[111.53714,-8.02276],[111.53721,-8.02305]]],[[[111.53719,-8.02211],[111.53713,-8.02272],[111.53717,-8.0222],[111.53719,-8.02211]]],[[[111.53728,-8.02191],[111.53724,-8.02196],[111.53743,-8.02134],[111.53743,-8.02141],[111.53728,-8.02191]]],[[[111.53747,-8.02109],[111.53745,-8.02118],[111.53746,-8.02106],[111.53747,-8.02109]]],[[[111.53756,-8.0206],[111.53748,-8.02087],[111.53758,-8.02032],[111.53756,-8.0206]]],[[[111.5376,-8.02027],[111.53759,-8.02029],[111.53763,-8.02015],[111.5376,-8.02027]]],[[[111.53772,-8.01992],[111.53768,-8.02003],[111.53774,-8.01987],[111.53772,-8.01992]]],[[[111.53816,-8.01917],[111.53789,-8.01961],[111.53812,-8.01922],[111.53817,-8.01905],[111.53816,-8.01917]]],[[[111.53791,-8.01809],[111.53812,-8.01869],[111.53791,-8.01814],[111.53782,-8.01774],[111.53791,-8.01809]]],[[[111.53771,-8.01707],[111.53781,-8.01769],[111.53764,-8.01661],[111.53771,-8.01707]]],[[[111.53795,-8.01485],[111.53793,-8.0149],[111.53794,-8.01487],[111.53795,-8.01485]]],[[[111.53812,-8.01437],[111.53801,-8.01466],[111.53809,-8.01443],[111.53812,-8.01437]]],[[[111.53872,-8.0132],[111.53835,-8.01398],[111.53888,-8.0128],[111.53872,-8.0132]]],[[[111.53954,-8.0111],[111.53905,-8.01235],[111.53954,-8.01105],[111.53964,-8.01047],[111.53954,-8.0111]]],[[[111.53969,-8.00998],[111.53968,-8.01005],[111.5397,-8.00994],[111.53969,-8.00998]]],[[[111.53987,-8.00945],[111.53985,-8.0095],[111.53986,-8.00946],[111.53987,-8.00945]]],[[[111.54006,-8.00914],[111.54013,-8.00903],[111.54017,-8.00881],[111.54015,-8.00856],[111.5402,-8.00873],[111.54019,-8.00883],[111.54013,-8.00903],[111.54006,-8.00914]]],[[[111.54013,-8.00804],[111.54014,-8.00848],[111.54007,-8.00777],[111.54013,-8.00804]]],[[[111.54002,-8.00712],[111.54002,-8.00748],[111.54001,-8.0072],[111.53994,-8.00698],[111.54002,-8.00712]]],[[[111.5398,-8.00663],[111.53991,-8.00694],[111.53983,-8.00681],[111.53974,-8.00654],[111.5398,-8.00663]]],[[[111.53921,-8.00596],[111.53935,-8.00616],[111.53916,-8.00585],[111.53921,-8.00596]]],[[[111.53881,-8.00548],[111.53902,-8.00558],[111.5391,-8.00564],[111.53897,-8.00556],[111.53876,-8.00549],[111.53861,-8.00556],[111.53859,-8.00556],[111.53873,-8.0055],[111.53881,-8.00548]]],[[[111.53699,-8.00536],[111.5375,-8.00545],[111.53658,-8.00532],[111.53699,-8.00536]]],[[[111.53552,-8.00517],[111.53577,-8.00521],[111.53555,-8.00518],[111.5354,-8.00509],[111.53552,-8.00517]]],[[[111.53479,-8.0041],[111.53534,-8.00501],[111.53477,-8.00409],[111.53454,-8.0028],[111.53479,-8.0041]]],[[[111.5352,-8.00159],[111.53451,-8.00264],[111.53429,-8.00116],[111.5341,-8.00025],[111.53381,-7.99967],[111.5341,-7.99892],[111.53405,-7.99882],[111.53386,-7.99866],[111.53355,-7.99851],[111.53342,-7.99841],[111.53335,-7.99807],[111.53324,-7.99709],[111.53313,-7.99511],[111.53282,-7.99186],[111.53293,-7.99264],[111.53314,-7.99512],[111.53395,-7.99522],[111.53426,-7.9953],[111.53456,-7.99532],[111.53452,-7.99548],[111.53451,-7.99588],[111.53442,-7.99641],[111.53437,-7.99717],[111.53431,-7.99753],[111.53465,-7.99809],[111.53518,-7.99924],[111.53561,-8.0003],[111.53568,-8.00061],[111.53567,-8.00082],[111.53556,-8.00112],[111.5352,-8.00159]]],[[[111.53257,-7.98952],[111.53232,-7.98772],[111.53219,-7.98567],[111.53229,-7.98676],[111.53233,-7.98774],[111.53244,-7.9882],[111.53257,-7.98952]]],[[[111.53198,-7.98136],[111.53207,-7.98369],[111.53198,-7.98174],[111.53198,-7.98136]]],[[[111.53198,-7.97973],[111.53198,-7.98055],[111.53198,-7.97973],[111.53159,-7.97973],[111.53198,-7.97973]]],[[[111.52943,-7.97961],[111.53077,-7.97969],[111.53102,-7.97972],[111.52943,-7.97961]]],[[[111.52943,-7.97961],[111.52939,-7.97748],[111.52945,-7.97406],[111.5295,-7.97302],[111.52939,-7.97749],[111.52943,-7.97961]]],[[[111.53863,-7.97104],[111.53859,-7.97104],[111.53873,-7.971],[111.53863,-7.97104]]],[[[111.53882,-7.97099],[111.53878,-7.97099],[111.53886,-7.97097],[111.53882,-7.97099]]],[[[111.5273,-7.9709],[111.52307,-7.97101],[111.52358,-7.97097],[111.5273,-7.9709]]],[[[111.52803,-7.97087],[111.52741,-7.97089],[111.52806,-7.97087],[111.52803,-7.97087]]],[[[111.52953,-7.97087],[111.52954,-7.97125],[111.52951,-7.97236],[111.52953,-7.97087]]],[[[111.52953,-7.97087],[111.52851,-7.97083],[111.52827,-7.97085],[111.52851,-7.97083],[111.52953,-7.97087]]],[[[111.54106,-7.97044],[111.54096,-7.9716],[111.54065,-7.97152],[111.54027,-7.97136],[111.54009,-7.97136],[111.53979,-7.97129],[111.53965,-7.97133],[111.53947,-7.97122],[111.53925,-7.97116],[111.5389,-7.97095],[111.53889,-7.97061],[111.53892,-7.97015],[111.54106,-7.97044]]],[[[111.52302,-7.97019],[111.523,-7.97034],[111.523,-7.97008],[111.52302,-7.97019]]],[[[111.54113,-7.96888],[111.54104,-7.96885],[111.54093,-7.9688],[111.54089,-7.96867],[111.54088,-7.96856],[111.54091,-7.96848],[111.5409,-7.9683],[111.54083,-7.96815],[111.54091,-7.96831],[111.54092,-7.96844],[111.54091,-7.9685],[111.54089,-7.96855],[111.54091,-7.96874],[111.54094,-7.9688],[111.54113,-7.96888]]],[[[111.52291,-7.96806],[111.52292,-7.96841],[111.523,-7.97007],[111.52296,-7.96966],[111.52293,-7.96878],[111.52291,-7.96807],[111.52257,-7.96808],[111.52291,-7.96806]]],[[[111.53281,-7.96681],[111.53292,-7.96681],[111.53281,-7.96681],[111.53281,-7.96681]]],[[[111.53596,-7.96686],[111.53596,-7.96694],[111.53432,-7.96695],[111.53432,-7.96711],[111.53421,-7.96711],[111.53418,-7.96725],[111.53352,-7.96729],[111.53341,-7.96706],[111.53323,-7.96695],[111.53321,-7.96682],[111.53351,-7.96682],[111.53363,-7.96693],[111.53378,-7.96688],[111.53401,-7.96685],[111.53408,-7.96678],[111.53596,-7.96686]]],[[[111.52147,-7.96667],[111.52153,-7.96771],[111.52179,-7.96771],[111.52182,-7.96818],[111.52158,-7.96831],[111.52153,-7.9677],[111.52147,-7.96667]]],[[[111.52146,-7.96665],[111.52147,-7.96666],[111.52145,-7.96665],[111.52146,-7.96665]]],[[[111.52135,-7.96662],[111.52135,-7.96662],[111.52135,-7.96662],[111.52135,-7.96662]]],[[[111.52132,-7.96659],[111.52133,-7.96661],[111.52132,-7.9666],[111.52132,-7.96659]]],[[[111.53192,-7.96659],[111.53192,-7.96676],[111.53162,-7.96673],[111.53162,-7.96643],[111.53185,-7.96644],[111.53192,-7.96659]]],[[[111.52127,-7.96611],[111.52132,-7.96659],[111.52129,-7.96648],[111.52127,-7.96611]]],[[[111.54078,-7.96606],[111.54066,-7.96681],[111.54078,-7.96606],[111.54075,-7.96602],[111.5407,-7.96594],[111.5407,-7.96589],[111.5407,-7.9658],[111.54079,-7.96572],[111.54083,-7.96549],[111.54074,-7.96545],[111.54083,-7.96549],[111.5408,-7.96572],[111.54071,-7.9658],[111.54071,-7.96594],[111.54078,-7.96606]]],[[[111.53034,-7.96525],[111.53042,-7.96531],[111.53034,-7.96526],[111.53034,-7.96525]]],[[[111.52993,-7.96491],[111.52979,-7.96493],[111.52972,-7.96493],[111.52993,-7.96491]]],[[[111.53077,-7.96489],[111.53078,-7.96529],[111.53052,-7.9653],[111.53048,-7.96531],[111.53042,-7.96531],[111.53047,-7.96531],[111.53052,-7.96529],[111.53059,-7.96529],[111.53058,-7.96503],[111.5307,-7.96497],[111.53077,-7.96489]]],[[[111.52901,-7.96485],[111.529,-7.96485],[111.52896,-7.96484],[111.52901,-7.96485]]],[[[111.5291,-7.96483],[111.5291,-7.96483],[111.52911,-7.96482],[111.5291,-7.96483]]],[[[111.52859,-7.96481],[111.5286,-7.96481],[111.5286,-7.96481],[111.52859,-7.96481]]],[[[111.52918,-7.96472],[111.52914,-7.9648],[111.52923,-7.96457],[111.52918,-7.96472]]],[[[111.54146,-7.96453],[111.54145,-7.96457],[111.54145,-7.96457],[111.54146,-7.96453]]],[[[111.52927,-7.96453],[111.52926,-7.96454],[111.52926,-7.96454],[111.52927,-7.96453]]],[[[111.54149,-7.96449],[111.54148,-7.96451],[111.54149,-7.96446],[111.54146,-7.96441],[111.54145,-7.96439],[111.54149,-7.96444],[111.54149,-7.96449]]],[[[111.54147,-7.96428],[111.54145,-7.96437],[111.54152,-7.96418],[111.54147,-7.96428]]],[[[111.54159,-7.96406],[111.54154,-7.96413],[111.54158,-7.96406],[111.54159,-7.964],[111.54159,-7.96397],[111.5416,-7.96397],[111.54159,-7.96406]]],[[[111.54162,-7.96391],[111.54162,-7.96391],[111.54162,-7.96391],[111.54162,-7.96391]]],[[[111.54544,-7.9639],[111.54535,-7.96395],[111.54527,-7.96394],[111.54515,-7.96387],[111.54507,-7.96375],[111.54533,-7.96388],[111.54544,-7.9639]]],[[[111.51879,-7.96359],[111.51878,-7.96601],[111.5188,-7.96352],[111.51879,-7.96359]]],[[[111.52053,-7.9632],[111.52043,-7.96325],[111.52055,-7.9632],[111.52053,-7.9632]]],[[[111.52763,-7.96457],[111.52782,-7.96463],[111.52805,-7.9646],[111.528,-7.96462],[111.52803,-7.96556],[111.52722,-7.96556],[111.52667,-7.96546],[111.52548,-7.96538],[111.52481,-7.96529],[111.52269,-7.96511],[111.52263,-7.96509],[111.5226,-7.96494],[111.52255,-7.96492],[111.52224,-7.96492],[111.52157,-7.96482],[111.52152,-7.96317],[111.52245,-7.9633],[111.52346,-7.96335],[111.52501,-7.96351],[111.52578,-7.96365],[111.527,-7.96378],[111.52722,-7.96388],[111.52728,-7.96428],[111.52739,-7.96434],[111.52763,-7.96457]]],[[[111.5213,-7.96315],[111.5211,-7.96317],[111.52129,-7.96315],[111.5213,-7.96315]]],[[[111.54227,-7.96342],[111.54181,-7.96373],[111.54193,-7.96349],[111.54261,-7.96313],[111.54238,-7.96329],[111.54227,-7.96342]]],[[[111.5459,-7.96329],[111.54567,-7.96349],[111.54563,-7.96307],[111.54571,-7.96297],[111.54592,-7.96286],[111.54594,-7.96275],[111.54588,-7.96268],[111.54604,-7.96276],[111.54609,-7.96291],[111.54608,-7.96301],[111.5459,-7.96329]]],[[[111.54475,-7.96287],[111.54482,-7.96316],[111.5447,-7.96286],[111.5446,-7.96278],[111.54449,-7.96273],[111.54461,-7.96268],[111.54475,-7.96287]]],[[[111.54565,-7.96128],[111.54634,-7.96145],[111.54633,-7.96149],[111.54569,-7.9614],[111.54546,-7.96139],[111.54539,-7.96143],[111.54515,-7.96178],[111.54505,-7.96208],[111.54505,-7.96223],[111.54507,-7.96226],[111.54504,-7.96226],[111.54499,-7.96209],[111.54503,-7.96189],[111.5452,-7.96163],[111.54525,-7.96147],[111.54538,-7.9613],[111.54565,-7.96128]]],[[[111.54413,-7.96055],[111.54386,-7.96065],[111.54395,-7.96061],[111.54407,-7.96057],[111.54429,-7.96044],[111.54413,-7.96055]]],[[[111.5445,-7.96011],[111.54628,-7.96027],[111.54628,-7.96027],[111.54451,-7.96011],[111.54447,-7.96016],[111.5445,-7.96011]]],[[[111.5409,-7.96042],[111.54127,-7.9604],[111.54153,-7.96047],[111.54185,-7.96049],[111.54191,-7.96053],[111.54247,-7.96058],[111.54246,-7.96064],[111.54377,-7.96069],[111.54246,-7.96066],[111.54246,-7.9606],[111.54192,-7.96059],[111.54185,-7.96054],[111.54165,-7.96053],[111.5412,-7.96044],[111.5409,-7.96045],[111.54087,-7.95999],[111.5409,-7.96042]]],[[[111.54082,-7.95985],[111.54085,-7.95987],[111.54007,-7.95998],[111.54005,-7.95997],[111.54082,-7.95985]]],[[[111.53955,-7.95981],[111.53958,-7.95985],[111.53951,-7.95978],[111.53955,-7.95981]]],[[[111.53999,-7.95971],[111.53983,-7.95977],[111.53989,-7.95973],[111.53999,-7.95971]]],[[[111.53999,-7.95971],[111.54,-7.95983],[111.54001,-7.95987],[111.53999,-7.95983],[111.53999,-7.95971]]],[[[111.53916,-7.95959],[111.5392,-7.95961],[111.53915,-7.95959],[111.53916,-7.95959]]],[[[111.5387,-7.95895],[111.53885,-7.95946],[111.53881,-7.95937],[111.5387,-7.95895]]],[[[111.53812,-7.95746],[111.53811,-7.95746],[111.53814,-7.95744],[111.53812,-7.95746]]],[[[111.53272,-7.95709],[111.53261,-7.9571],[111.53277,-7.95708],[111.53272,-7.95709]]],[[[111.53218,-7.95707],[111.53244,-7.95711],[111.53254,-7.95711],[111.53248,-7.95711],[111.53214,-7.95708],[111.53185,-7.9571],[111.53206,-7.95707],[111.53218,-7.95707]]],[[[111.53297,-7.95707],[111.53287,-7.95707],[111.53299,-7.95706],[111.53297,-7.95707]]],[[[111.53384,-7.95624],[111.53387,-7.95625],[111.53368,-7.95625],[111.53384,-7.95624]]],[[[111.53822,-7.95738],[111.53847,-7.95688],[111.53852,-7.95671],[111.53858,-7.95623],[111.53862,-7.95613],[111.53854,-7.95664],[111.53849,-7.95684],[111.53836,-7.95714],[111.53822,-7.95738]]],[[[111.53872,-7.95594],[111.53871,-7.95595],[111.53873,-7.95593],[111.53872,-7.95594]]],[[[111.53629,-7.9559],[111.53632,-7.95589],[111.53634,-7.95588],[111.53629,-7.9559]]],[[[111.53892,-7.95583],[111.5388,-7.95589],[111.53893,-7.95582],[111.53892,-7.95583]]],[[[111.53642,-7.95586],[111.53637,-7.95587],[111.53642,-7.95585],[111.53639,-7.95558],[111.5369,-7.95556],[111.53692,-7.9557],[111.5368,-7.95577],[111.53642,-7.95579],[111.53642,-7.95586]]],[[[111.53169,-7.95328],[111.53152,-7.95354],[111.53147,-7.95333],[111.53147,-7.95269],[111.53126,-7.95226],[111.53126,-7.95195],[111.53132,-7.95187],[111.53156,-7.95174],[111.53144,-7.9511],[111.53158,-7.95107],[111.53176,-7.95158],[111.53172,-7.95185],[111.53174,-7.95305],[111.53169,-7.95328]]],[[[111.53101,-7.94909],[111.53102,-7.94912],[111.53093,-7.94936],[111.53108,-7.94972],[111.53125,-7.94987],[111.53124,-7.95008],[111.53105,-7.9502],[111.53078,-7.94975],[111.53042,-7.94932],[111.53099,-7.94912],[111.53101,-7.94909]]],[[[111.53101,-7.94909],[111.53012,-7.94628],[111.5293,-7.94394],[111.53011,-7.94623],[111.53052,-7.94745],[111.53101,-7.94909]]],[[[111.5296,-7.94376],[111.52936,-7.94389],[111.52978,-7.94366],[111.5296,-7.94376]]],[[[111.53006,-7.94358],[111.52981,-7.94366],[111.53006,-7.94358],[111.53006,-7.94358]]],[[[111.53294,-7.94336],[111.53311,-7.94341],[111.53304,-7.94339],[111.53294,-7.94336]]],[[[111.53344,-7.94343],[111.53334,-7.94344],[111.53325,-7.94344],[111.53312,-7.94341],[111.53327,-7.94344],[111.53344,-7.94343],[111.53354,-7.94336],[111.53377,-7.94328],[111.53344,-7.94343]]],[[[111.53199,-7.94311],[111.53211,-7.94314],[111.53205,-7.94312],[111.53199,-7.94311]]],[[[111.53188,-7.94307],[111.5319,-7.94307],[111.5319,-7.94307],[111.53188,-7.94307]]],[[[111.53139,-7.94287],[111.53175,-7.943],[111.53149,-7.94297],[111.53148,-7.943],[111.53113,-7.94305],[111.53073,-7.94326],[111.53032,-7.9434],[111.53015,-7.94352],[111.53032,-7.9434],[111.5308,-7.94317],[111.53077,-7.94303],[111.53139,-7.94287]]]]}},{"type":"Feature","properties":{"provno":"35","kabkotno":"02","kecno":"050","provinsi":"JAWA TIMUR","kabkot":"PONOROGO","kecamatan":"SAWOO","idkec":"3502050","pln":100,"bbm_lpg":8,"bbm_kayu":6,"fas_diksar":53,"fas_kes":49,"kd_smu":11,"kd_s1":3,"kd_s3":0,"tahun_data":2020,"_cls":"SAWOO"},"geometry":{"type":"Polygon","coordinates":[[[111.57194,-7.91854],[111.57208,-7.91897],[111.57154,-7.91925],[111.57156,-7.91971],[111.57172,-7.92007],[111.57203,-7.92104],[111.57242,-7.9218],[111.57281,-7.92231],[111.57478,-7.92426],[111.57535,-7.92488],[111.57666,-7.92583],[111.57818,-7.92709],[111.57898,-7.92795],[111.58154,-7.93107],[111.58167,-7.93104],[111.582,-7.93118],[111.58212,-7.93124],[111.58237,-7.93146],[111.58243,-7.93161],[111.58249,-7.93222],[111.58267,-7.93238],[111.58289,-7.9328],[111.58303,-7.93294],[111.58326,-7.93329],[111.58352,-7.93343],[111.58397,-7.93355],[111.5846,-7.93377],[111.58497,-7.93384],[111.58545,-7.93384],[111.58578,-7.93396],[111.58601,-7.93413],[111.58668,-7.93514],[111.58705,-7.93547],[111.58736,-7.9359],[111.58743,-7.93634],[111.58755,-7.93669],[111.58765,-7.93716],[111.5878,-7.93737],[111.58796,-7.9375],[111.58805,-7.93762],[111.58815,-7.93772],[111.58829,-7.9378],[111.58857,-7.93786],[111.58898,-7.93782],[111.58918,-7.93774],[111.58934,-7.93764],[111.5895,-7.93744],[111.58966,-7.93732],[111.58984,-7.93707],[111.58993,-7.93682],[111.58985,-7.93666],[111.58984,-7.93658],[111.58991,-7.93643],[111.58997,-7.93642],[111.59031,-7.93641],[111.5908,-7.93646],[111.59184,-7.9368],[111.59236,-7.9369],[111.59282,-7.93688],[111.59293,-7.93694],[111.59308,-7.9369],[111.59325,-7.93669],[111.59351,-7.93646],[111.59357,-7.93612],[111.59351,-7.93555],[111.59345,-7.93538],[111.59346,-7.93504],[111.59367,-7.93438],[111.594,-7.93409],[111.59483,-7.93395],[111.59496,-7.93389],[111.59508,-7.93379],[111.59519,-7.93357],[111.59519,-7.93353],[111.59508,-7.9334],[111.59511,-7.93333],[111.59533,-7.93323],[111.59553,-7.93318],[111.59607,-7.9332],[111.59624,-7.93324],[111.59644,-7.93313],[111.59703,-7.93294],[111.59747,-7.93291],[111.59822,-7.93293],[111.59961,-7.93303],[111.60007,-7.93313],[111.60022,-7.93332],[111.60024,-7.93353],[111.60018,-7.93365],[111.60007,-7.93416],[111.60009,-7.93424],[111.60021,-7.93431],[111.60027,-7.93449],[111.60032,-7.93452],[111.60072,-7.93448],[111.60118,-7.93433],[111.60157,-7.93404],[111.6017,-7.93399],[111.60215,-7.93411],[111.60234,-7.93408],[111.60239,-7.934],[111.6025,-7.93397],[111.60255,-7.9339],[111.60262,-7.93388],[111.60279,-7.93371],[111.60317,-7.9337],[111.60348,-7.93379],[111.60382,-7.93403],[111.60385,-7.93402],[111.60417,-7.93439],[111.60439,-7.93457],[111.60443,-7.93472],[111.60443,-7.93502],[111.60459,-7.93525],[111.60462,-7.9355],[111.60469,-7.93567],[111.60475,-7.93572],[111.60492,-7.93578],[111.60582,-7.93593],[111.6059,-7.93599],[111.60617,-7.93586],[111.60624,-7.93579],[111.60636,-7.93538],[111.60637,-7.93515],[111.60629,-7.93472],[111.60636,-7.93465],[111.60643,-7.93464],[111.60658,-7.93467],[111.60694,-7.935],[111.60732,-7.93527],[111.60795,-7.93594],[111.60822,-7.93609],[111.60836,-7.93608],[111.60858,-7.93614],[111.60951,-7.93569],[111.61013,-7.93574],[111.61044,-7.93569],[111.61074,-7.93575],[111.61101,-7.93591],[111.61108,-7.93603],[111.61114,-7.93646],[111.61123,-7.93678],[111.61118,-7.93711],[111.61119,-7.93722],[111.61129,-7.93727],[111.61153,-7.93719],[111.6117,-7.93705],[111.61182,-7.93686],[111.61204,-7.93643],[111.61208,-7.93604],[111.61222,-7.93566],[111.61244,-7.93526],[111.61259,-7.93512],[111.61266,-7.93511],[111.61273,-7.93513],[111.61289,-7.93531],[111.6135,-7.93609],[111.61377,-7.93631],[111.61402,-7.93657],[111.61433,-7.93681],[111.6148,-7.93699],[111.61523,-7.93721],[111.61564,-7.93727],[111.6158,-7.93725],[111.61631,-7.93681],[111.61658,-7.93671],[111.61734,-7.93659],[111.61753,-7.93659],[111.61782,-7.93685],[111.61801,-7.93709],[111.61839,-7.93737],[111.61905,-7.93739],[111.6193,-7.93746],[111.61964,-7.93775],[111.6197,-7.93792],[111.61985,-7.93809],[111.61992,-7.93813],[111.6201,-7.93816],[111.62047,-7.93804],[111.62068,-7.93803],[111.62076,-7.93811],[111.62084,-7.93835],[111.62102,-7.93854],[111.62146,-7.93858],[111.62201,-7.93842],[111.6221,-7.93843],[111.62237,-7.93854],[111.62249,-7.93863],[111.62261,-7.93866],[111.62265,-7.93876],[111.62259,-7.93895],[111.62258,-7.9393],[111.62266,-7.9395],[111.62273,-7.93957],[111.62294,-7.9397],[111.62327,-7.93983],[111.62353,-7.93992],[111.62385,-7.93998],[111.62389,-7.94004],[111.62397,-7.94038],[111.62402,-7.94048],[111.62411,-7.94052],[111.62433,-7.94057],[111.62451,-7.94057],[111.62473,-7.94044],[111.62486,-7.94042],[111.62493,-7.94044],[111.62499,-7.94051],[111.62514,-7.94053],[111.62521,-7.94058],[111.62532,-7.94069],[111.62536,-7.94083],[111.62536,-7.94097],[111.62548,-7.94104],[111.62564,-7.94139],[111.62563,-7.94146],[111.62554,-7.94155],[111.62555,-7.94174],[111.62561,-7.9418],[111.62565,-7.9421],[111.62575,-7.94237],[111.62583,-7.94241],[111.62586,-7.94248],[111.62591,-7.9425],[111.62596,-7.94257],[111.62599,-7.9427],[111.62596,-7.9429],[111.62589,-7.94297],[111.62585,-7.94308],[111.62566,-7.94335],[111.62559,-7.94338],[111.62539,-7.94334],[111.62532,-7.94338],[111.62529,-7.94374],[111.62524,-7.9438],[111.62493,-7.94389],[111.62494,-7.94414],[111.62486,-7.94415],[111.62486,-7.94418],[111.62458,-7.94419],[111.62451,-7.94423],[111.62447,-7.94434],[111.62447,-7.9447],[111.62429,-7.94486],[111.62419,-7.94502],[111.62423,-7.94513],[111.62441,-7.94542],[111.62454,-7.94551],[111.6248,-7.94553],[111.62485,-7.9456],[111.62483,-7.94577],[111.62478,-7.94589],[111.62483,-7.94599],[111.625,-7.9462],[111.62502,-7.94635],[111.625,-7.94653],[111.62483,-7.94674],[111.62486,-7.94684],[111.62506,-7.94701],[111.62511,-7.94714],[111.6251,-7.94724],[111.62487,-7.94775],[111.62485,-7.94789],[111.62496,-7.94824],[111.62493,-7.94831],[111.62498,-7.94842],[111.62511,-7.94841],[111.62519,-7.94852],[111.62525,-7.94853],[111.62532,-7.94861],[111.62529,-7.9487],[111.62517,-7.94893],[111.62518,-7.94908],[111.62527,-7.94914],[111.6256,-7.94922],[111.62556,-7.94931],[111.62562,-7.94952],[111.62562,-7.94983],[111.62553,-7.94991],[111.62553,-7.95029],[111.62544,-7.95047],[111.62565,-7.95061],[111.62567,-7.95082],[111.62553,-7.95087],[111.62538,-7.95099],[111.6254,-7.95112],[111.62558,-7.95122],[111.62577,-7.9514],[111.62583,-7.95141],[111.62612,-7.95134],[111.62626,-7.95135],[111.62633,-7.95141],[111.62638,-7.95152],[111.62637,-7.95169],[111.62624,-7.9519],[111.62633,-7.95201],[111.62629,-7.95236],[111.62606,-7.95253],[111.62606,-7.95258],[111.62575,-7.95293],[111.62555,-7.95337],[111.62555,-7.9535],[111.62559,-7.95362],[111.62574,-7.9539],[111.6258,-7.95437],[111.62584,-7.95447],[111.62581,-7.95476],[111.62582,-7.95501],[111.62589,-7.95521],[111.62605,-7.95521],[111.62614,-7.95525],[111.62618,-7.95528],[111.62619,-7.95535],[111.62633,-7.95542],[111.62639,-7.9555],[111.62641,-7.95569],[111.62633,-7.95589],[111.62682,-7.95633],[111.62697,-7.95641],[111.62719,-7.95662],[111.62725,-7.95681],[111.62721,-7.95706],[111.62731,-7.95717],[111.62734,-7.95736],[111.62748,-7.95751],[111.62744,-7.95763],[111.62754,-7.95765],[111.62754,-7.95768],[111.6278,-7.95767],[111.62797,-7.95793],[111.62816,-7.95854],[111.62823,-7.95861],[111.62838,-7.95856],[111.62851,-7.95857],[111.62877,-7.95841],[111.62896,-7.95842],[111.62929,-7.9586],[111.62938,-7.95872],[111.62963,-7.95803],[111.62977,-7.95815],[111.63005,-7.95817],[111.63006,-7.95794],[111.62999,-7.95783],[111.63003,-7.95772],[111.63051,-7.95775],[111.63081,-7.9577],[111.63119,-7.95774],[111.63129,-7.9578],[111.63145,-7.95775],[111.63161,-7.95781],[111.63165,-7.95819],[111.63183,-7.95815],[111.63202,-7.95822],[111.6326,-7.95814],[111.63273,-7.95807],[111.63281,-7.95795],[111.63279,-7.95784],[111.63297,-7.95769],[111.63346,-7.95707],[111.63364,-7.95697],[111.63396,-7.95689],[111.63455,-7.95636],[111.63495,-7.95592],[111.63511,-7.95588],[111.63581,-7.95587],[111.63604,-7.95596],[111.63673,-7.95634],[111.63753,-7.95685],[111.63824,-7.95697],[111.63841,-7.95696],[111.63856,-7.9569],[111.6389,-7.95696],[111.63873,-7.95743],[111.63871,-7.95778],[111.63883,-7.95831],[111.63879,-7.95859],[111.63901,-7.95874],[111.6392,-7.95905],[111.63927,-7.95911],[111.63772,-7.96082],[111.63723,-7.9621],[111.63702,-7.96268],[111.63678,-7.96371],[111.63672,-7.96421],[111.6368,-7.96481],[111.63696,-7.96537],[111.63836,-7.96611],[111.63908,-7.96642],[111.63968,-7.96657],[111.64093,-7.96705],[111.64158,-7.9672],[111.64196,-7.96744],[111.64256,-7.9676],[111.64322,-7.96766],[111.6441,-7.96812],[111.64449,-7.96823],[111.64484,-7.96816],[111.64497,-7.96817],[111.64528,-7.96837],[111.64545,-7.96843],[111.64657,-7.96846],[111.64713,-7.9686],[111.64745,-7.96864],[111.64777,-7.96841],[111.6486,-7.96837],[111.64867,-7.96831],[111.64886,-7.96792],[111.64922,-7.96754],[111.64932,-7.96748],[111.64948,-7.96747],[111.64988,-7.96734],[111.65009,-7.96723],[111.65073,-7.96718],[111.6513,-7.96698],[111.65201,-7.9665],[111.65298,-7.96639],[111.65366,-7.96655],[111.65439,-7.96677],[111.65614,-7.96735],[111.65701,-7.96772],[111.65784,-7.96793],[111.65871,-7.9682],[111.65993,-7.96862],[111.66013,-7.96892],[111.66064,-7.96906],[111.6608,-7.96923],[111.66095,-7.96948],[111.66117,-7.9703],[111.66132,-7.97118],[111.66163,-7.97129],[111.66172,-7.97189],[111.66154,-7.97224],[111.66151,-7.97323],[111.66158,-7.97344],[111.66192,-7.97383],[111.66225,-7.97403],[111.66223,-7.97414],[111.66209,-7.9743],[111.66164,-7.97459],[111.66161,-7.97479],[111.6615,-7.97491],[111.66119,-7.97504],[111.66109,-7.97533],[111.661,-7.97545],[111.66083,-7.97553],[111.66007,-7.97543],[111.65961,-7.97555],[111.65935,-7.97559],[111.65907,-7.97536],[111.65841,-7.97532],[111.65783,-7.97537],[111.65734,-7.97555],[111.65704,-7.97558],[111.65641,-7.97579],[111.65626,-7.97593],[111.65613,-7.97621],[111.65598,-7.9767],[111.65574,-7.97731],[111.65565,-7.9778],[111.65536,-7.97848],[111.6553,-7.97871],[111.65529,-7.97886],[111.65535,-7.97939],[111.65535,-7.97969],[111.65527,-7.98003],[111.6551,-7.98043],[111.65499,-7.98059],[111.65388,-7.9814],[111.65372,-7.98154],[111.65369,-7.98162],[111.65376,-7.98223],[111.65338,-7.98336],[111.65335,-7.98357],[111.65342,-7.98378],[111.65351,-7.98448],[111.65367,-7.98499],[111.65371,-7.98551],[111.65369,-7.98584],[111.65358,-7.98614],[111.65367,-7.98644],[111.65382,-7.98659],[111.65407,-7.98675],[111.65443,-7.98727],[111.65503,-7.98801],[111.65496,-7.98807],[111.65516,-7.98829],[111.65579,-7.9888],[111.65637,-7.98956],[111.65686,-7.98998],[111.6564,-7.99023],[111.65558,-7.99081],[111.65586,-7.99147],[111.65606,-7.99212],[111.65626,-7.99358],[111.65621,-7.99485],[111.65631,-7.99635],[111.65598,-7.99768],[111.65553,-7.99912],[111.65504,-7.99982],[111.65456,-8.00042],[111.65447,-8.00061],[111.65435,-8.00108],[111.65436,-8.0016],[111.65446,-8.00192],[111.6546,-8.00219],[111.65508,-8.00284],[111.65534,-8.00327],[111.6556,-8.00388],[111.65574,-8.00436],[111.65575,-8.00455],[111.65566,-8.00502],[111.65559,-8.00585],[111.65571,-8.00644],[111.65554,-8.00683],[111.65562,-8.00722],[111.65562,-8.00761],[111.65592,-8.0084],[111.65589,-8.00881],[111.65566,-8.00936],[111.65561,-8.00931],[111.65565,-8.01131],[111.65532,-8.01204],[111.65497,-8.01353],[111.65496,-8.01426],[111.65505,-8.01507],[111.655,-8.01551],[111.65452,-8.01637],[111.65384,-8.01705],[111.65373,-8.01726],[111.65372,-8.01744],[111.65379,-8.0182],[111.65356,-8.01857],[111.65331,-8.01885],[111.65332,-8.01898],[111.65357,-8.01946],[111.65337,-8.02015],[111.6533,-8.02048],[111.65319,-8.02058],[111.65294,-8.02067],[111.65165,-8.0214],[111.65142,-8.02146],[111.65096,-8.0214],[111.65086,-8.02148],[111.65079,-8.02162],[111.65074,-8.02203],[111.65064,-8.02214],[111.64983,-8.02207],[111.64934,-8.02173],[111.64923,-8.02174],[111.64901,-8.02184],[111.6489,-8.02194],[111.64816,-8.0209],[111.64828,-8.02006],[111.64827,-8.01931],[111.64806,-8.01876],[111.64775,-8.01826],[111.64742,-8.01787],[111.64718,-8.01729],[111.64708,-8.0166],[111.64695,-8.01605],[111.64686,-8.01546],[111.64686,-8.01488],[111.64722,-8.01295],[111.64725,-8.01255],[111.64754,-8.01217],[111.6477,-8.01174],[111.6477,-8.01104],[111.64781,-8.01059],[111.64784,-8.01007],[111.64799,-8.00953],[111.64799,-8.00914],[111.64834,-8.00867],[111.64827,-8.00817],[111.64847,-8.00743],[111.64835,-8.00695],[111.64836,-8.00633],[111.64824,-8.00577],[111.64789,-8.00517],[111.64771,-8.00378],[111.64684,-8.00343],[111.64619,-8.00329],[111.64544,-8.00319],[111.64521,-8.00375],[111.64487,-8.00433],[111.64455,-8.00468],[111.64429,-8.00485],[111.64372,-8.00504],[111.643,-8.00521],[111.6426,-8.00526],[111.64242,-8.00536],[111.64147,-8.00526],[111.64145,-8.00535],[111.64135,-8.00524],[111.64121,-8.00523],[111.63929,-8.00326],[111.63799,-8.00249],[111.63723,-8.00208],[111.63611,-8.00215],[111.63528,-8.00258],[111.6343,-8.00326],[111.63376,-8.00353],[111.63334,-8.00395],[111.63325,-8.00416],[111.63306,-8.00407],[111.63228,-8.00388],[111.63068,-8.00362],[111.62997,-8.00363],[111.62895,-8.00438],[111.6285,-8.00459],[111.62787,-8.00472],[111.62738,-8.00498],[111.62709,-8.00552],[111.6267,-8.00602],[111.62602,-8.00667],[111.62543,-8.00709],[111.625,-8.00746],[111.62427,-8.00764],[111.62418,-8.00727],[111.62404,-8.00704],[111.62376,-8.00693],[111.62318,-8.0065],[111.62286,-8.00674],[111.62252,-8.00688],[111.62178,-8.00699],[111.62132,-8.00748],[111.6194,-8.00823],[111.61859,-8.00849],[111.61783,-8.00832],[111.61718,-8.0081],[111.61608,-8.00753],[111.6157,-8.00739],[111.61533,-8.00768],[111.61434,-8.0079],[111.61395,-8.0079],[111.61359,-8.00779],[111.61331,-8.00759],[111.61295,-8.00747],[111.61256,-8.00742],[111.61238,-8.00734],[111.61213,-8.0071],[111.61186,-8.00666],[111.61155,-8.00669],[111.61138,-8.00664],[111.61113,-8.00647],[111.61091,-8.00638],[111.61069,-8.00636],[111.61011,-8.0066],[111.60974,-8.00664],[111.60919,-8.00758],[111.60887,-8.00794],[111.6088,-8.00831],[111.60866,-8.0084],[111.60812,-8.0086],[111.60799,-8.00875],[111.60789,-8.00894],[111.60788,-8.00914],[111.60798,-8.00931],[111.60818,-8.00944],[111.60855,-8.00952],[111.6086,-8.01041],[111.60857,-8.01055],[111.60846,-8.01069],[111.60815,-8.01095],[111.6074,-8.01132],[111.60675,-8.01201],[111.60661,-8.01229],[111.60663,-8.01252],[111.6069,-8.01299],[111.6069,-8.01453],[111.60686,-8.01494],[111.60677,-8.01527],[111.60641,-8.01574],[111.60636,-8.01588],[111.60638,-8.01626],[111.60642,-8.01639],[111.60652,-8.01648],[111.6067,-8.01655],[111.60689,-8.01666],[111.60704,-8.01687],[111.60712,-8.01742],[111.60725,-8.0178],[111.60753,-8.01805],[111.60778,-8.01816],[111.60746,-8.01857],[111.60703,-8.0189],[111.60664,-8.01909],[111.60627,-8.01935],[111.60596,-8.01944],[111.60575,-8.01944],[111.60531,-8.01929],[111.60489,-8.01921],[111.60449,-8.01906],[111.60387,-8.01868],[111.60345,-8.01859],[111.60286,-8.01859],[111.60201,-8.01829],[111.60185,-8.01826],[111.60156,-8.01827],[111.60096,-8.01834],[111.6005,-8.01829],[111.6003,-8.01824],[111.59969,-8.01827],[111.59918,-8.01847],[111.59837,-8.0184],[111.59786,-8.0185],[111.59732,-8.01869],[111.59713,-8.01871],[111.59702,-8.01867],[111.59646,-8.01795],[111.59624,-8.01754],[111.59562,-8.01789],[111.59524,-8.01833],[111.59514,-8.01842],[111.59498,-8.01847],[111.59423,-8.01851],[111.5924,-8.01895],[111.59046,-8.01938],[111.58918,-8.02065],[111.58824,-8.02176],[111.58753,-8.02275],[111.58668,-8.02361],[111.58598,-8.02406],[111.58543,-8.02435],[111.58333,-8.02517],[111.58256,-8.02544],[111.58189,-8.02576],[111.5816,-8.02599],[111.58135,-8.02633],[111.58102,-8.02691],[111.58072,-8.02775],[111.58003,-8.02992],[111.57947,-8.03211],[111.5794,-8.03256],[111.57911,-8.0331],[111.57902,-8.03354],[111.57828,-8.03463],[111.57817,-8.03496],[111.57795,-8.03519],[111.57777,-8.03543],[111.57768,-8.03562],[111.57759,-8.03593],[111.57759,-8.0365],[111.57747,-8.0371],[111.57679,-8.03858],[111.57671,-8.03871],[111.57634,-8.03876],[111.57603,-8.03888],[111.57462,-8.03971],[111.57432,-8.04],[111.57412,-8.0405],[111.57407,-8.04212],[111.57375,-8.04283],[111.57366,-8.0431],[111.57359,-8.04369],[111.57381,-8.04467],[111.5735,-8.0463],[111.57346,-8.04747],[111.57336,-8.04783],[111.57311,-8.04801],[111.57266,-8.04822],[111.57249,-8.04826],[111.57189,-8.04837],[111.57092,-8.04834],[111.57048,-8.04836],[111.57026,-8.0484],[111.56989,-8.04861],[111.56959,-8.0487],[111.56911,-8.04872],[111.5685,-8.04892],[111.56828,-8.04891],[111.56761,-8.0488],[111.56716,-8.04869],[111.56577,-8.04796],[111.56531,-8.04793],[111.5648,-8.048],[111.56468,-8.04806],[111.5646,-8.04825],[111.56454,-8.04858],[111.56421,-8.04927],[111.56406,-8.04945],[111.5637,-8.04957],[111.56308,-8.04968],[111.56286,-8.04967],[111.56263,-8.04957],[111.56239,-8.04932],[111.56165,-8.04916],[111.56148,-8.04904],[111.56098,-8.04889],[111.56052,-8.04931],[111.55963,-8.04939],[111.55939,-8.04944],[111.55869,-8.0497],[111.55746,-8.04988],[111.55738,-8.04978],[111.55685,-8.04979],[111.55676,-8.04991],[111.55662,-8.0499],[111.55646,-8.04985],[111.55632,-8.04956],[111.55603,-8.04924],[111.55568,-8.04917],[111.55511,-8.04919],[111.55472,-8.04901],[111.55469,-8.04894],[111.55453,-8.04886],[111.55438,-8.04854],[111.55435,-8.04838],[111.55394,-8.04823],[111.5539,-8.0482],[111.55389,-8.04807],[111.55353,-8.04758],[111.55343,-8.04729],[111.5531,-8.04681],[111.55271,-8.04634],[111.55276,-8.04621],[111.5527,-8.0459],[111.55253,-8.04563],[111.55246,-8.04544],[111.55246,-8.04536],[111.55263,-8.04528],[111.55263,-8.04521],[111.55239,-8.04468],[111.55233,-8.04462],[111.55234,-8.04449],[111.55239,-8.04444],[111.55242,-8.04434],[111.55242,-8.04428],[111.55233,-8.04391],[111.55215,-8.0436],[111.55216,-8.04346],[111.55229,-8.04305],[111.55205,-8.04297],[111.5519,-8.04288],[111.55187,-8.0425],[111.55176,-8.0424],[111.55152,-8.04233],[111.55135,-8.04209],[111.55115,-8.04192],[111.55107,-8.04178],[111.55099,-8.04171],[111.5509,-8.04153],[111.55077,-8.04142],[111.55064,-8.04121],[111.5504,-8.04107],[111.55033,-8.04099],[111.55022,-8.04085],[111.55021,-8.04053],[111.55018,-8.04048],[111.55003,-8.04042],[111.54988,-8.04022],[111.54965,-8.04005],[111.54952,-8.04005],[111.54907,-8.03995],[111.54888,-8.03965],[111.54866,-8.03956],[111.54833,-8.03959],[111.548,-8.03976],[111.54781,-8.03973],[111.54766,-8.03961],[111.54745,-8.03933],[111.54735,-8.03933],[111.54709,-8.03913],[111.54685,-8.03908],[111.54677,-8.03886],[111.54677,-8.03873],[111.54671,-8.03865],[111.54659,-8.03864],[111.5464,-8.0387],[111.54612,-8.03867],[111.54604,-8.03856],[111.54604,-8.03832],[111.54599,-8.03823],[111.54567,-8.0382],[111.54509,-8.03845],[111.54476,-8.03852],[111.54462,-8.03842],[111.54424,-8.03837],[111.54412,-8.03832],[111.54396,-8.03824],[111.54385,-8.03808],[111.5436,-8.038],[111.54355,-8.03795],[111.54354,-8.03771],[111.54349,-8.0376],[111.54329,-8.03743],[111.54317,-8.03739],[111.54268,-8.03742],[111.54233,-8.03725],[111.5422,-8.03724],[111.54202,-8.03715],[111.54193,-8.03699],[111.54187,-8.03699],[111.54178,-8.03705],[111.54158,-8.03706],[111.54111,-8.03688],[111.54064,-8.03676],[111.5405,-8.03659],[111.53995,-8.0361],[111.53924,-8.03566],[111.53874,-8.03527],[111.53861,-8.03506],[111.53864,-8.03472],[111.53919,-8.03392],[111.53953,-8.03316],[111.53963,-8.03278],[111.53963,-8.03236],[111.53956,-8.03192],[111.53922,-8.03093],[111.53895,-8.03036],[111.53819,-8.0291],[111.53784,-8.02845],[111.53747,-8.02758],[111.53726,-8.02686],[111.53719,-8.02642],[111.53713,-8.02559],[111.53716,-8.02405],[111.5372,-8.02348],[111.53718,-8.02337],[111.53722,-8.02316],[111.53713,-8.02272],[111.53717,-8.0222],[111.53743,-8.02141],[111.53748,-8.02087],[111.53756,-8.0206],[111.53759,-8.02029],[111.53774,-8.01987],[111.53802,-8.01944],[111.53816,-8.01917],[111.53818,-8.01909],[111.53812,-8.01864],[111.53791,-8.01809],[111.53781,-8.01769],[111.53764,-8.01661],[111.53766,-8.01618],[111.53801,-8.01466],[111.53812,-8.01437],[111.53833,-8.01403],[111.53872,-8.0132],[111.53954,-8.0111],[111.53964,-8.01054],[111.5397,-8.00994],[111.53987,-8.00945],[111.54016,-8.00895],[111.5402,-8.00873],[111.54015,-8.00856],[111.54013,-8.00804],[111.54002,-8.00748],[111.54002,-8.00712],[111.53984,-8.00681],[111.53976,-8.00656],[111.53935,-8.00616],[111.53916,-8.00585],[111.53912,-8.00566],[111.53902,-8.00558],[111.53881,-8.00548],[111.5386,-8.00556],[111.5382,-8.00554],[111.53552,-8.00517],[111.53537,-8.00506],[111.53479,-8.0041],[111.53451,-8.00264],[111.5352,-8.00159],[111.53556,-8.00112],[111.53567,-8.00082],[111.53568,-8.00061],[111.53561,-8.0003],[111.53518,-7.99924],[111.53465,-7.99809],[111.53431,-7.99753],[111.53437,-7.99717],[111.53442,-7.99641],[111.53451,-7.99588],[111.53452,-7.99548],[111.53456,-7.99532],[111.53426,-7.9953],[111.53395,-7.99522],[111.53314,-7.99512],[111.53293,-7.99264],[111.53282,-7.99186],[111.53244,-7.9882],[111.53233,-7.98774],[111.53229,-7.98676],[111.53207,-7.98369],[111.53199,-7.98174],[111.53198,-7.97973],[111.53107,-7.97973],[111.52943,-7.97961],[111.52939,-7.97749],[111.52953,-7.97087],[111.52851,-7.97083],[111.52806,-7.97087],[111.52358,-7.97097],[111.52307,-7.97101],[111.523,-7.97043],[111.52302,-7.97019],[111.52298,-7.96986],[111.52291,-7.96806],[111.52182,-7.96818],[111.52179,-7.96771],[111.52153,-7.96771],[111.52148,-7.96668],[111.52132,-7.96659],[111.52128,-7.96611],[111.51877,-7.96601],[111.5188,-7.96352],[111.52011,-7.96337],[111.52025,-7.96334],[111.52053,-7.9632],[111.52069,-7.96318],[111.52096,-7.96319],[111.5213,-7.96315],[111.52152,-7.96317],[111.52157,-7.96482],[111.52224,-7.96492],[111.52255,-7.96492],[111.5226,-7.96494],[111.52263,-7.96509],[111.52269,-7.96511],[111.52481,-7.96529],[111.52548,-7.96538],[111.52667,-7.96546],[111.52722,-7.96556],[111.52803,-7.96556],[111.528,-7.96462],[111.52829,-7.96459],[111.52842,-7.96464],[111.52861,-7.96482],[111.52881,-7.96481],[111.52903,-7.96485],[111.52914,-7.9648],[111.52926,-7.96454],[111.52939,-7.96451],[111.5296,-7.9647],[111.52967,-7.96491],[111.52979,-7.96493],[111.53009,-7.9649],[111.53027,-7.96518],[111.53042,-7.96531],[111.53078,-7.96529],[111.53082,-7.9664],[111.53089,-7.96641],[111.5309,-7.96636],[111.53162,-7.96643],[111.53162,-7.96673],[111.53191,-7.96674],[111.53192,-7.96678],[111.5328,-7.96687],[111.53281,-7.96681],[111.53321,-7.96682],[111.53323,-7.96695],[111.53341,-7.96706],[111.53352,-7.96729],[111.53418,-7.96725],[111.53421,-7.96711],[111.53432,-7.96711],[111.53432,-7.96695],[111.53596,-7.96694],[111.53596,-7.96686],[111.53608,-7.96894],[111.53625,-7.96879],[111.53635,-7.96866],[111.53656,-7.96869],[111.5367,-7.96874],[111.53684,-7.96896],[111.53716,-7.96922],[111.5372,-7.96958],[111.53732,-7.9698],[111.53769,-7.97013],[111.5379,-7.97055],[111.53826,-7.97102],[111.53835,-7.97107],[111.53846,-7.97107],[111.5389,-7.97095],[111.53925,-7.97116],[111.53947,-7.97122],[111.53965,-7.97133],[111.53979,-7.97129],[111.54009,-7.97136],[111.54027,-7.97136],[111.54065,-7.97152],[111.54096,-7.9716],[111.54106,-7.97044],[111.54101,-7.97044],[111.5411,-7.97045],[111.5412,-7.96891],[111.54094,-7.9688],[111.54089,-7.96865],[111.54089,-7.96855],[111.54092,-7.96844],[111.54091,-7.96831],[111.54083,-7.96815],[111.54066,-7.96681],[111.54078,-7.96606],[111.54071,-7.96594],[111.54071,-7.9658],[111.5408,-7.96572],[111.54083,-7.96549],[111.54074,-7.96545],[111.54107,-7.96508],[111.54151,-7.96511],[111.54153,-7.96499],[111.5416,-7.9649],[111.54159,-7.9648],[111.54149,-7.96459],[111.54145,-7.96457],[111.5415,-7.96446],[111.54145,-7.96437],[111.54164,-7.96388],[111.54177,-7.96382],[111.54181,-7.96373],[111.54227,-7.96342],[111.54238,-7.96329],[111.54261,-7.96313],[111.543,-7.96314],[111.54299,-7.96322],[111.54427,-7.96283],[111.54449,-7.96273],[111.5446,-7.96278],[111.5447,-7.96286],[111.54482,-7.96316],[111.54491,-7.96351],[111.54515,-7.96387],[111.54527,-7.96394],[111.54535,-7.96395],[111.54544,-7.9639],[111.54556,-7.96388],[111.54563,-7.96381],[111.54567,-7.96371],[111.54567,-7.96349],[111.5459,-7.96329],[111.54608,-7.96301],[111.54609,-7.96291],[111.54604,-7.96276],[111.54577,-7.96259],[111.54556,-7.96227],[111.54534,-7.96223],[111.54523,-7.96227],[111.54507,-7.96226],[111.54505,-7.96223],[111.54505,-7.96208],[111.54515,-7.96178],[111.54539,-7.96143],[111.54546,-7.96139],[111.54569,-7.9614],[111.54623,-7.96148],[111.54633,-7.96149],[111.54634,-7.96145],[111.54707,-7.96166],[111.54723,-7.96175],[111.5476,-7.96174],[111.54772,-7.96043],[111.54715,-7.96041],[111.54628,-7.96027],[111.5445,-7.96011],[111.54429,-7.96044],[111.54407,-7.96057],[111.54377,-7.96069],[111.54246,-7.96064],[111.54247,-7.96058],[111.54191,-7.96053],[111.54185,-7.96049],[111.54153,-7.96047],[111.54127,-7.9604],[111.5409,-7.96042],[111.54087,-7.95988],[111.54082,-7.95985],[111.54007,-7.95997],[111.54001,-7.95987],[111.53999,-7.95971],[111.53958,-7.95985],[111.53951,-7.95978],[111.53935,-7.95974],[111.53918,-7.9596],[111.53899,-7.95959],[111.53885,-7.95946],[111.53868,-7.9589],[111.53868,-7.95887],[111.53887,-7.95876],[111.53871,-7.95839],[111.5385,-7.95803],[111.53811,-7.95746],[111.53818,-7.95742],[111.53825,-7.95734],[111.53846,-7.95693],[111.53854,-7.95664],[111.5386,-7.9562],[111.53866,-7.95602],[111.53873,-7.95593],[111.53892,-7.95583],[111.53896,-7.9557],[111.53888,-7.95553],[111.53888,-7.95523],[111.5388,-7.95502],[111.5388,-7.95491],[111.53816,-7.95476],[111.53758,-7.95472],[111.53759,-7.95514],[111.53685,-7.95514],[111.5369,-7.95556],[111.53639,-7.95558],[111.53642,-7.95585],[111.5362,-7.95595],[111.53567,-7.95633],[111.53496,-7.95636],[111.53384,-7.95624],[111.53327,-7.95625],[111.53302,-7.95703],[111.53297,-7.95706],[111.53254,-7.95711],[111.53218,-7.95707],[111.53185,-7.9571],[111.53171,-7.95639],[111.53161,-7.95402],[111.53152,-7.95354],[111.53169,-7.95328],[111.53174,-7.95305],[111.53172,-7.95185],[111.53176,-7.95158],[111.53158,-7.95107],[111.5318,-7.95102],[111.5321,-7.95078],[111.53222,-7.95073],[111.53198,-7.95013],[111.53178,-7.94975],[111.53124,-7.95008],[111.53125,-7.94987],[111.53108,-7.94972],[111.53093,-7.94936],[111.53102,-7.94912],[111.53052,-7.94745],[111.5293,-7.94394],[111.52978,-7.94366],[111.53009,-7.94357],[111.53032,-7.9434],[111.53073,-7.94326],[111.53113,-7.94305],[111.53148,-7.943],[111.53149,-7.94297],[111.53174,-7.943],[111.53205,-7.94312],[111.53325,-7.94344],[111.53344,-7.94343],[111.53379,-7.94327],[111.53353,-7.94232],[111.5328,-7.94018],[111.53277,-7.93999],[111.53267,-7.9398],[111.5325,-7.93963],[111.53246,-7.93954],[111.53248,-7.93945],[111.53258,-7.93935],[111.53306,-7.93928],[111.53317,-7.93919],[111.53323,-7.93907],[111.53323,-7.93899],[111.53313,-7.93859],[111.53313,-7.93844],[111.53321,-7.93838],[111.53336,-7.93836],[111.53356,-7.93839],[111.53371,-7.93834],[111.53388,-7.93812],[111.53399,-7.93773],[111.53413,-7.93748],[111.5342,-7.93722],[111.53429,-7.9371],[111.53451,-7.93694],[111.53463,-7.93693],[111.53471,-7.93696],[111.53492,-7.93734],[111.53508,-7.93747],[111.5352,-7.93743],[111.53537,-7.93727],[111.53541,-7.93718],[111.53548,-7.93716],[111.53556,-7.93716],[111.53574,-7.93739],[111.53594,-7.93754],[111.53611,-7.93759],[111.53625,-7.93759],[111.53643,-7.9375],[111.5365,-7.93743],[111.53663,-7.9371],[111.53666,-7.93692],[111.53672,-7.93683],[111.53685,-7.93682],[111.53704,-7.93692],[111.5372,-7.93689],[111.53733,-7.93673],[111.53745,-7.93648],[111.53763,-7.93633],[111.53766,-7.93622],[111.5377,-7.9362],[111.53802,-7.93626],[111.53807,-7.93623],[111.53823,-7.93607],[111.53841,-7.93601],[111.53864,-7.93575],[111.53891,-7.93553],[111.53919,-7.93565],[111.53927,-7.93575],[111.53936,-7.93593],[111.5397,-7.93636],[111.53975,-7.9364],[111.53983,-7.9364],[111.53999,-7.93618],[111.53993,-7.93598],[111.53996,-7.93589],[111.54013,-7.93586],[111.54024,-7.93567],[111.54035,-7.9358],[111.54054,-7.93582],[111.54073,-7.93581],[111.54086,-7.93574],[111.5409,-7.93567],[111.54092,-7.93532],[111.5409,-7.93515],[111.54096,-7.93502],[111.54102,-7.93497],[111.54111,-7.93495],[111.5413,-7.93505],[111.54149,-7.93502],[111.54153,-7.93513],[111.54163,-7.93529],[111.5417,-7.93528],[111.54195,-7.93507],[111.54198,-7.93498],[111.54192,-7.93478],[111.54192,-7.93457],[111.54195,-7.93442],[111.54202,-7.93432],[111.54272,-7.93386],[111.54286,-7.9338],[111.54316,-7.93378],[111.54332,-7.93386],[111.5434,-7.93393],[111.54366,-7.93404],[111.54405,-7.93431],[111.54446,-7.93427],[111.54458,-7.9342],[111.54493,-7.93388],[111.54502,-7.93367],[111.54531,-7.93355],[111.54542,-7.93343],[111.54546,-7.93322],[111.54551,-7.93315],[111.54563,-7.93309],[111.54576,-7.93282],[111.54586,-7.93275],[111.5461,-7.93271],[111.54658,-7.93295],[111.5467,-7.93292],[111.54694,-7.93276],[111.54698,-7.93276],[111.54709,-7.93287],[111.54717,-7.9329],[111.5473,-7.93291],[111.54744,-7.93285],[111.54765,-7.93261],[111.54764,-7.93249],[111.54788,-7.9321],[111.54795,-7.93188],[111.548,-7.93186],[111.5481,-7.93185],[111.54851,-7.932],[111.54881,-7.932],[111.54935,-7.93228],[111.54944,-7.93228],[111.5495,-7.93223],[111.54959,-7.93214],[111.54974,-7.93186],[111.54989,-7.93178],[111.55011,-7.93177],[111.55024,-7.93181],[111.55037,-7.93181],[111.55071,-7.93175],[111.55081,-7.93166],[111.55091,-7.9315],[111.55091,-7.9314],[111.55103,-7.93115],[111.55105,-7.93099],[111.55098,-7.93083],[111.55073,-7.93069],[111.55044,-7.93047],[111.55034,-7.93025],[111.55038,-7.92991],[111.55061,-7.92953],[111.55072,-7.92929],[111.55078,-7.92909],[111.55076,-7.92869],[111.55079,-7.92854],[111.5509,-7.92852],[111.55114,-7.92858],[111.55153,-7.92877],[111.55161,-7.92877],[111.55177,-7.92862],[111.55177,-7.92841],[111.55151,-7.92823],[111.55144,-7.92809],[111.55143,-7.92799],[111.55154,-7.92785],[111.55164,-7.92781],[111.55179,-7.9279],[111.55192,-7.92793],[111.55198,-7.92787],[111.55214,-7.92742],[111.55214,-7.92726],[111.55204,-7.92707],[111.55182,-7.92692],[111.55177,-7.92678],[111.55181,-7.92657],[111.55188,-7.92645],[111.55218,-7.92617],[111.5525,-7.92619],[111.55306,-7.92634],[111.55345,-7.92636],[111.55378,-7.92629],[111.55428,-7.92613],[111.5547,-7.92612],[111.55492,-7.92628],[111.55503,-7.92646],[111.55524,-7.92707],[111.55536,-7.92713],[111.55563,-7.92715],[111.55578,-7.92713],[111.55601,-7.92704],[111.5563,-7.92683],[111.55643,-7.9267],[111.55665,-7.92628],[111.55681,-7.92605],[111.55689,-7.92597],[111.5573,-7.9258],[111.5575,-7.92562],[111.55761,-7.92556],[111.55776,-7.92558],[111.55805,-7.92569],[111.55832,-7.92567],[111.55848,-7.92553],[111.55855,-7.92537],[111.55873,-7.92513],[111.55902,-7.92495],[111.55921,-7.92494],[111.55963,-7.92506],[111.55986,-7.92517],[111.56026,-7.92547],[111.5606,-7.92567],[111.56105,-7.92572],[111.56123,-7.92567],[111.56135,-7.92557],[111.56165,-7.92519],[111.56195,-7.92519],[111.56225,-7.92528],[111.56236,-7.92529],[111.56282,-7.92514],[111.56299,-7.92498],[111.56316,-7.92471],[111.56327,-7.92464],[111.56344,-7.92458],[111.56378,-7.92452],[111.56386,-7.92447],[111.56412,-7.92408],[111.56426,-7.92397],[111.56443,-7.92398],[111.56478,-7.92413],[111.56498,-7.92417],[111.56505,-7.92412],[111.5651,-7.924],[111.56508,-7.92391],[111.56501,-7.92382],[111.56506,-7.92374],[111.56516,-7.9237],[111.56558,-7.92379],[111.56579,-7.92365],[111.56612,-7.92366],[111.56639,-7.92351],[111.56649,-7.92353],[111.56658,-7.92359],[111.56671,-7.92396],[111.56685,-7.92408],[111.56731,-7.92422],[111.56751,-7.92413],[111.56761,-7.92413],[111.56812,-7.9244],[111.56796,-7.9241],[111.56771,-7.92389],[111.5677,-7.92378],[111.56773,-7.92371],[111.56783,-7.9236],[111.56824,-7.92334],[111.56853,-7.92278],[111.5687,-7.92262],[111.56898,-7.92241],[111.56988,-7.92188],[111.57031,-7.92177],[111.57053,-7.92152],[111.57057,-7.92141],[111.57095,-7.92101],[111.57099,-7.92074],[111.57056,-7.92008],[111.57049,-7.91989],[111.57049,-7.91977],[111.57068,-7.91939],[111.5707,-7.91931],[111.57067,-7.91908],[111.57077,-7.91884],[111.57091,-7.9187],[111.57128,-7.91858],[111.57154,-7.91843],[111.57185,-7.91841],[111.57194,-7.91854]]]}},{"type":"Feature","properties":{"provno":"35","kabkotno":"02","kecno":"060","provinsi":"JAWA TIMUR","kabkot":"PONOROGO","kecamatan":"SOOKO","idkec":"3502060","pln":100,"bbm_lpg":2,"bbm_kayu":4,"fas_diksar":26,"fas_kes":24,"kd_smu":4,"kd_s1":2,"kd_s3":0,"tahun_data":2020,"_cls":"SOOKO"},"geometry":{"type":"MultiPolygon","coordinates":[[[[111.63119,-7.95774],[111.63119,-7.95775],[111.63118,-7.95774],[111.63119,-7.95774]]],[[[111.62754,-7.95765],[111.62744,-7.95763],[111.62748,-7.95751],[111.62734,-7.95736],[111.62731,-7.95717],[111.62721,-7.95706],[111.62725,-7.95681],[111.62719,-7.95662],[111.62697,-7.95641],[111.62682,-7.95633],[111.62633,-7.95589],[111.62641,-7.95569],[111.62639,-7.9555],[111.62633,-7.95542],[111.62636,-7.95544],[111.62642,-7.95556],[111.62643,-7.95581],[111.62656,-7.956],[111.62659,-7.95612],[111.6269,-7.95618],[111.62736,-7.95657],[111.62753,-7.95685],[111.62754,-7.95765]]],[[[111.62627,-7.95538],[111.62632,-7.95541],[111.62622,-7.95536],[111.62627,-7.95538]]],[[[111.6259,-7.95521],[111.6259,-7.95521],[111.6259,-7.95521],[111.6259,-7.95521]]],[[[111.62605,-7.95521],[111.62604,-7.95521],[111.62605,-7.95521],[111.62605,-7.95521]]],[[[111.62583,-7.955],[111.62586,-7.95511],[111.62582,-7.95501],[111.62581,-7.95491],[111.62585,-7.95454],[111.62588,-7.95494],[111.62583,-7.955]]],[[[111.62585,-7.95448],[111.62585,-7.95452],[111.62584,-7.95447],[111.62585,-7.95448]]],[[[111.62586,-7.95411],[111.6258,-7.95434],[111.62575,-7.95394],[111.62586,-7.95411]]],[[[111.62572,-7.95381],[111.62574,-7.9539],[111.62559,-7.95362],[111.62555,-7.9535],[111.62555,-7.95337],[111.62575,-7.95293],[111.62606,-7.95258],[111.62607,-7.95279],[111.62612,-7.95298],[111.62607,-7.95325],[111.62581,-7.9535],[111.62572,-7.95381]]],[[[111.62632,-7.95233],[111.62629,-7.95236],[111.62632,-7.95223],[111.62632,-7.95233]]],[[[111.62633,-7.95195],[111.62633,-7.95201],[111.62624,-7.9519],[111.62637,-7.95169],[111.62638,-7.95152],[111.62642,-7.95167],[111.62628,-7.9519],[111.62633,-7.95195]]],[[[111.62632,-7.9514],[111.62633,-7.95141],[111.62629,-7.95137],[111.62632,-7.9514]]],[[[111.62617,-7.95132],[111.62625,-7.95134],[111.62626,-7.95135],[111.62612,-7.95134],[111.62617,-7.95132]]],[[[111.62581,-7.95131],[111.6261,-7.95134],[111.62583,-7.95141],[111.62577,-7.9514],[111.62558,-7.95122],[111.6254,-7.95112],[111.62538,-7.95099],[111.62552,-7.95089],[111.6254,-7.95106],[111.62542,-7.9511],[111.62561,-7.95123],[111.62581,-7.95131]]],[[[111.62563,-7.95086],[111.62555,-7.95087],[111.62567,-7.95082],[111.62565,-7.95061],[111.62544,-7.95047],[111.62551,-7.95036],[111.62549,-7.95041],[111.62574,-7.95062],[111.62574,-7.95079],[111.62563,-7.95086]]],[[[111.62554,-7.95027],[111.62553,-7.95029],[111.62555,-7.95015],[111.62554,-7.95027]]],[[[111.62615,-7.94971],[111.6261,-7.95016],[111.62594,-7.9502],[111.62574,-7.95002],[111.62563,-7.94998],[111.62554,-7.95],[111.62554,-7.95006],[111.62551,-7.94996],[111.62556,-7.94987],[111.62562,-7.94983],[111.62563,-7.94976],[111.62562,-7.94952],[111.62556,-7.94936],[111.6256,-7.94922],[111.62574,-7.94926],[111.62586,-7.94954],[111.62612,-7.94965],[111.62615,-7.94971]]],[[[111.62512,-7.94719],[111.6251,-7.94724],[111.62511,-7.94714],[111.62512,-7.94719]]],[[[111.62506,-7.947],[111.62506,-7.94701],[111.62504,-7.94699],[111.62506,-7.947]]],[[[111.62492,-7.94611],[111.625,-7.9462],[111.62494,-7.94613],[111.62488,-7.94606],[111.62483,-7.94599],[111.62482,-7.94598],[111.62492,-7.94611]]],[[[111.62476,-7.94549],[111.62482,-7.94552],[111.62484,-7.94557],[111.6248,-7.94553],[111.62459,-7.94551],[111.62476,-7.94549]]],[[[111.62452,-7.94548],[111.62459,-7.94551],[111.62454,-7.94551],[111.62452,-7.94548]]],[[[111.6245,-7.94424],[111.62448,-7.9443],[111.62449,-7.94427],[111.6245,-7.94424]]],[[[111.62468,-7.94418],[111.6245,-7.94424],[111.62458,-7.94419],[111.62468,-7.94418]]],[[[111.62492,-7.94418],[111.62486,-7.94418],[111.62486,-7.94415],[111.62494,-7.94414],[111.62494,-7.94398],[111.62503,-7.94409],[111.62492,-7.94418]]],[[[111.62523,-7.94382],[111.62513,-7.94384],[111.62527,-7.94377],[111.62523,-7.94382]]],[[[111.62533,-7.94366],[111.62529,-7.94374],[111.6253,-7.94344],[111.62533,-7.94366]]],[[[111.62539,-7.94334],[111.62546,-7.94335],[111.62535,-7.94336],[111.62539,-7.94334]]],[[[111.62566,-7.94337],[111.62562,-7.94339],[111.62559,-7.94338],[111.62566,-7.94335],[111.62575,-7.94323],[111.62566,-7.94337]]],[[[111.62583,-7.94311],[111.62582,-7.94312],[111.62585,-7.94308],[111.62583,-7.94311]]],[[[111.62599,-7.94287],[111.62596,-7.9429],[111.62598,-7.94261],[111.626,-7.94271],[111.62599,-7.94287]]],[[[111.62592,-7.9425],[111.62593,-7.94251],[111.62591,-7.9425],[111.62592,-7.9425]]],[[[111.62584,-7.94241],[111.62584,-7.94243],[111.6258,-7.94239],[111.62584,-7.94241]]],[[[111.62576,-7.94237],[111.62578,-7.94238],[111.62576,-7.94238],[111.62576,-7.94237]]],[[[111.62566,-7.94212],[111.62568,-7.94216],[111.62566,-7.94212],[111.62566,-7.94212]]],[[[111.62562,-7.94181],[111.62562,-7.94185],[111.62561,-7.9418],[111.62562,-7.94181]]],[[[111.62565,-7.94144],[111.62563,-7.94146],[111.62559,-7.94126],[111.62548,-7.94104],[111.62554,-7.94106],[111.6256,-7.94117],[111.62565,-7.94144]]],[[[111.62531,-7.94068],[111.62532,-7.94069],[111.62531,-7.94067],[111.62531,-7.94068]]],[[[111.62442,-7.94057],[111.62433,-7.94057],[111.62428,-7.94054],[111.62433,-7.94056],[111.62442,-7.94057]]],[[[111.62486,-7.94042],[111.62473,-7.94044],[111.62476,-7.94041],[111.62486,-7.94042]]],[[[111.62398,-7.94033],[111.62394,-7.94029],[111.62391,-7.94021],[111.62389,-7.94002],[111.62392,-7.94007],[111.62394,-7.94026],[111.62398,-7.94033]]],[[[111.62385,-7.93998],[111.62385,-7.93998],[111.62384,-7.93997],[111.62385,-7.93998]]],[[[111.62384,-7.93997],[111.62353,-7.93992],[111.62335,-7.93985],[111.62384,-7.93997]]],[[[111.62325,-7.93982],[111.62334,-7.93985],[111.62327,-7.93983],[111.62325,-7.93982]]],[[[111.62295,-7.93969],[111.62299,-7.93971],[111.6229,-7.93967],[111.62295,-7.93969]]],[[[111.62259,-7.93932],[111.62261,-7.93939],[111.62259,-7.93936],[111.62259,-7.93932]]],[[[111.62258,-7.93923],[111.62258,-7.93928],[111.62258,-7.93919],[111.62258,-7.93923]]],[[[111.62259,-7.93898],[111.62259,-7.93905],[111.62258,-7.93904],[111.62259,-7.93898]]],[[[111.62263,-7.93887],[111.62259,-7.93898],[111.6226,-7.93891],[111.62263,-7.93887]]],[[[111.62266,-7.93878],[111.62265,-7.93882],[111.62265,-7.93875],[111.62266,-7.93878]]],[[[111.62263,-7.93867],[111.62263,-7.93868],[111.62262,-7.93866],[111.62263,-7.93867]]],[[[111.62245,-7.93859],[111.62258,-7.93864],[111.62261,-7.93866],[111.62249,-7.93863],[111.62245,-7.93859]]],[[[111.62123,-7.93857],[111.62117,-7.93857],[111.62108,-7.93855],[111.62115,-7.93856],[111.62123,-7.93857]]],[[[111.62157,-7.93857],[111.62135,-7.93859],[111.62127,-7.93858],[111.62155,-7.93857],[111.62169,-7.93853],[111.62157,-7.93857]]],[[[111.62093,-7.93845],[111.62093,-7.93846],[111.62092,-7.93845],[111.62093,-7.93845]]],[[[111.62237,-7.93854],[111.62225,-7.9385],[111.6221,-7.93843],[111.62215,-7.93843],[111.62237,-7.93854]]],[[[111.62072,-7.93806],[111.62088,-7.93841],[111.62084,-7.93835],[111.62072,-7.93806]]],[[[111.62047,-7.93804],[111.6203,-7.93809],[111.62055,-7.93803],[111.62047,-7.93804]]],[[[111.62062,-7.93802],[111.62069,-7.93803],[111.62057,-7.93803],[111.62062,-7.93802]]],[[[111.6199,-7.93806],[111.62006,-7.93815],[111.62015,-7.93814],[111.6201,-7.93816],[111.62001,-7.93816],[111.61985,-7.93809],[111.6197,-7.93792],[111.61964,-7.93775],[111.6199,-7.93806]]],[[[111.61943,-7.93755],[111.61945,-7.93757],[111.61939,-7.93753],[111.61943,-7.93755]]],[[[111.6193,-7.93746],[111.61933,-7.93749],[111.6193,-7.93746],[111.6193,-7.93746]]],[[[111.61854,-7.93736],[111.6186,-7.93737],[111.6185,-7.93737],[111.61854,-7.93736]]],[[[111.61833,-7.93733],[111.61839,-7.93737],[111.61828,-7.9373],[111.61833,-7.93733]]],[[[111.6113,-7.93727],[111.61129,-7.93727],[111.61125,-7.93726],[111.6113,-7.93727]]],[[[111.61145,-7.93723],[111.61135,-7.93727],[111.61151,-7.9372],[111.61145,-7.93723]]],[[[111.61159,-7.93714],[111.61158,-7.93714],[111.61159,-7.93714],[111.61159,-7.93714]]],[[[111.61553,-7.93725],[111.61523,-7.93721],[111.61491,-7.93705],[111.61521,-7.93719],[111.61553,-7.93725]]],[[[111.61815,-7.93717],[111.61826,-7.93729],[111.61798,-7.93704],[111.61815,-7.93717]]],[[[111.61794,-7.937],[111.61795,-7.93702],[111.61789,-7.93696],[111.61794,-7.937]]],[[[111.61583,-7.93723],[111.61574,-7.93725],[111.61622,-7.93684],[111.61631,-7.93681],[111.61583,-7.93723]]],[[[111.61426,-7.93675],[111.61444,-7.93685],[111.61425,-7.93675],[111.61426,-7.93675]]],[[[111.6142,-7.93671],[111.61423,-7.93673],[111.61421,-7.93672],[111.6142,-7.93671]]],[[[111.61753,-7.93659],[111.61762,-7.93669],[111.6176,-7.93668],[111.61753,-7.93659]]],[[[111.61348,-7.93606],[111.61352,-7.93611],[111.6135,-7.93609],[111.61348,-7.93606]]],[[[111.60883,-7.936],[111.60858,-7.93614],[111.60855,-7.93613],[111.60883,-7.936]]],[[[111.60583,-7.93593],[111.60584,-7.93594],[111.60582,-7.93593],[111.60583,-7.93593]]],[[[111.60915,-7.93586],[111.60887,-7.93599],[111.60918,-7.93584],[111.60915,-7.93586]]],[[[111.60538,-7.93585],[111.60531,-7.93585],[111.60506,-7.93579],[111.60492,-7.93578],[111.60483,-7.93573],[111.60538,-7.93585]]],[[[111.61175,-7.93695],[111.612,-7.93649],[111.61199,-7.93636],[111.61207,-7.93603],[111.6122,-7.93571],[111.61208,-7.93604],[111.61204,-7.93643],[111.61188,-7.93676],[111.61175,-7.93695]]],[[[111.61051,-7.93567],[111.61069,-7.93571],[111.61101,-7.93588],[111.61107,-7.93594],[111.61112,-7.93623],[111.61115,-7.93644],[111.61122,-7.93666],[111.61125,-7.93681],[111.61118,-7.93711],[111.61123,-7.93678],[111.61114,-7.93646],[111.61104,-7.93594],[111.61082,-7.93578],[111.61055,-7.9357],[111.6101,-7.93573],[111.61051,-7.93567]]],[[[111.60479,-7.93572],[111.60475,-7.93572],[111.6047,-7.93567],[111.60476,-7.93571],[111.60479,-7.93572]]],[[[111.60962,-7.93568],[111.60951,-7.93569],[111.60954,-7.93567],[111.60962,-7.93568]]],[[[111.60755,-7.9355],[111.60763,-7.93558],[111.60757,-7.93551],[111.60755,-7.9355]]],[[[111.61227,-7.93558],[111.61222,-7.93566],[111.6123,-7.9355],[111.61227,-7.93558]]],[[[111.60617,-7.93586],[111.60606,-7.9359],[111.60618,-7.93582],[111.6063,-7.93561],[111.60635,-7.93543],[111.60632,-7.93558],[111.60624,-7.93579],[111.60617,-7.93586]]],[[[111.61234,-7.93543],[111.61232,-7.93546],[111.61235,-7.9354],[111.61234,-7.93543]]],[[[111.61295,-7.93538],[111.61329,-7.93582],[111.61312,-7.93562],[111.61295,-7.93538]]],[[[111.61236,-7.93538],[111.61236,-7.93538],[111.61236,-7.93538],[111.61236,-7.93538]]],[[[111.60636,-7.93532],[111.60636,-7.93532],[111.60636,-7.93532],[111.60636,-7.93532]]],[[[111.60752,-7.93546],[111.60732,-7.93527],[111.6072,-7.93517],[111.60733,-7.93527],[111.60752,-7.93546]]],[[[111.6126,-7.93511],[111.61271,-7.93512],[111.61259,-7.93512],[111.6126,-7.93511]]],[[[111.60693,-7.93498],[111.60718,-7.93516],[111.60694,-7.935],[111.60693,-7.93498]]],[[[111.60458,-7.93517],[111.60468,-7.93562],[111.60462,-7.9355],[111.60459,-7.93525],[111.60447,-7.93511],[111.60443,-7.93502],[111.60442,-7.93493],[111.60445,-7.93505],[111.60458,-7.93517]]],[[[111.60629,-7.93477],[111.60634,-7.935],[111.60627,-7.93473],[111.6063,-7.93469],[111.60629,-7.93477]]],[[[111.60659,-7.93468],[111.60661,-7.93469],[111.60658,-7.93467],[111.60659,-7.93468]]],[[[111.60633,-7.93467],[111.60631,-7.93468],[111.60636,-7.93465],[111.60633,-7.93467]]],[[[111.6065,-7.93463],[111.60655,-7.93466],[111.60643,-7.93464],[111.6065,-7.93463]]],[[[111.6044,-7.93458],[111.6044,-7.93459],[111.60439,-7.93457],[111.6044,-7.93458]]],[[[111.6003,-7.9345],[111.6003,-7.9345],[111.6003,-7.9345],[111.6003,-7.9345]]],[[[111.60022,-7.93437],[111.60023,-7.93439],[111.60022,-7.93438],[111.60022,-7.93437]]],[[[111.60414,-7.93436],[111.60419,-7.93441],[111.60417,-7.93439],[111.60414,-7.93436]]],[[[111.60064,-7.93449],[111.60039,-7.9345],[111.60052,-7.93442],[111.60071,-7.93442],[111.60111,-7.93434],[111.60064,-7.93449]]],[[[111.60013,-7.93426],[111.60011,-7.93426],[111.60011,-7.93426],[111.60013,-7.93426]]],[[[111.60118,-7.93433],[111.60112,-7.93434],[111.60132,-7.93424],[111.60118,-7.93433]]],[[[111.60137,-7.9342],[111.60135,-7.93422],[111.60139,-7.93418],[111.60137,-7.9342]]],[[[111.60225,-7.9341],[111.60215,-7.93411],[111.60211,-7.93409],[111.60225,-7.9341]]],[[[111.60234,-7.93408],[111.60228,-7.93409],[111.60234,-7.93408],[111.60234,-7.93408]]],[[[111.60196,-7.93406],[111.60203,-7.93408],[111.602,-7.93407],[111.60196,-7.93406]]],[[[111.60388,-7.93405],[111.6039,-7.93407],[111.60388,-7.93406],[111.60388,-7.93405]]],[[[111.60011,-7.93409],[111.6001,-7.93402],[111.60013,-7.93392],[111.60011,-7.93409]]],[[[111.60269,-7.93379],[111.60266,-7.93382],[111.6027,-7.93378],[111.60269,-7.93379]]],[[[111.60382,-7.93403],[111.60348,-7.93379],[111.60319,-7.9337],[111.60337,-7.93374],[111.60357,-7.93383],[111.60384,-7.93399],[111.60385,-7.93402],[111.60382,-7.93403]]],[[[111.60289,-7.9337],[111.603,-7.93372],[111.60282,-7.93371],[111.60289,-7.9337]]],[[[111.60313,-7.93369],[111.60317,-7.9337],[111.60305,-7.93371],[111.60313,-7.93369]]],[[[111.60019,-7.93362],[111.60018,-7.93368],[111.60018,-7.93365],[111.60019,-7.93362]]],[[[111.60026,-7.93352],[111.60022,-7.93357],[111.60024,-7.93343],[111.60022,-7.93332],[111.60024,-7.93336],[111.60026,-7.93352]]],[[[111.60011,-7.93316],[111.60016,-7.93322],[111.60007,-7.93313],[111.60011,-7.93316]]]]}},{"type":"Feature","properties":{"provno":"35","kabkotno":"02","kecno":"070","provinsi":"JAWA TIMUR","kabkot":"PONOROGO","kecamatan":"PULUNG","idkec":"3502070","pln":100,"bbm_lpg":14,"bbm_kayu":4,"fas_diksar":52,"fas_kes":67,"kd_smu":13,"kd_s1":5,"kd_s3":0,"tahun_data":2020,"_cls":"PULUNG"},"geometry":{"type":"MultiPolygon","coordinates":[[[[111.59308,-7.9369],[111.59287,-7.93692],[111.59282,-7.93688],[111.59308,-7.93685],[111.59316,-7.93679],[111.59308,-7.9369]]],[[[111.59327,-7.93668],[111.59332,-7.93654],[111.59335,-7.9363],[111.5933,-7.93571],[111.59331,-7.93535],[111.59339,-7.93504],[111.59361,-7.93452],[111.59353,-7.93478],[111.59344,-7.93519],[111.59345,-7.93538],[111.59351,-7.93555],[111.59356,-7.93621],[111.59351,-7.93646],[111.59327,-7.93668]]],[[[111.59508,-7.93379],[111.59498,-7.93386],[111.5951,-7.93364],[111.59511,-7.93346],[111.59519,-7.93353],[111.59519,-7.93357],[111.59508,-7.93379]]],[[[111.59516,-7.9333],[111.59508,-7.9334],[111.59512,-7.93331],[111.59516,-7.9333]]],[[[111.59644,-7.93313],[111.59624,-7.93324],[111.59607,-7.9332],[111.59644,-7.93313]]],[[[111.59945,-7.93302],[111.59945,-7.93302],[111.59945,-7.93302],[111.59945,-7.93302]]],[[[111.58036,-7.92963],[111.58067,-7.93001],[111.58188,-7.9299],[111.58244,-7.93003],[111.58296,-7.93006],[111.58459,-7.93005],[111.58544,-7.93023],[111.58635,-7.93073],[111.58699,-7.9313],[111.58803,-7.93159],[111.59005,-7.93154],[111.59112,-7.9314],[111.59245,-7.93163],[111.59246,-7.93689],[111.59252,-7.93689],[111.59236,-7.9369],[111.59205,-7.93685],[111.5908,-7.93646],[111.59031,-7.93641],[111.58997,-7.93642],[111.58991,-7.93643],[111.58984,-7.93658],[111.58985,-7.93666],[111.58993,-7.93682],[111.58984,-7.93707],[111.58966,-7.93732],[111.5895,-7.93744],[111.58934,-7.93764],[111.58918,-7.93774],[111.5889,-7.93783],[111.58857,-7.93786],[111.58821,-7.93777],[111.5878,-7.93737],[111.58765,-7.93716],[111.58755,-7.93669],[111.58743,-7.93634],[111.58736,-7.9359],[111.58705,-7.93547],[111.58668,-7.93514],[111.58601,-7.93413],[111.58578,-7.93396],[111.58545,-7.93384],[111.58497,-7.93384],[111.5846,-7.93377],[111.58397,-7.93355],[111.58352,-7.93343],[111.58326,-7.93329],[111.58303,-7.93294],[111.58289,-7.9328],[111.58267,-7.93238],[111.58249,-7.93222],[111.58243,-7.93161],[111.58237,-7.93146],[111.58212,-7.93124],[111.582,-7.93118],[111.58167,-7.93104],[111.58154,-7.93107],[111.58036,-7.92963]]],[[[111.57664,-7.92581],[111.57666,-7.92583],[111.57631,-7.92557],[111.57664,-7.92581]]],[[[111.57495,-7.92443],[111.57512,-7.92462],[111.57486,-7.92434],[111.57495,-7.92443]]],[[[111.57472,-7.9242],[111.57478,-7.92426],[111.57382,-7.92333],[111.57472,-7.9242]]],[[[111.57245,-7.92184],[111.57278,-7.92228],[111.57284,-7.92234],[111.57281,-7.92231],[111.57245,-7.92184]]],[[[111.57245,-7.92184],[111.57244,-7.92183],[111.57243,-7.92182],[111.57245,-7.92184]]],[[[111.57203,-7.92103],[111.5723,-7.92156],[111.57203,-7.92104],[111.57172,-7.92007],[111.57203,-7.92103]]],[[[111.57156,-7.91971],[111.57166,-7.91993],[111.57156,-7.91971],[111.57154,-7.91959],[111.57154,-7.9193],[111.57156,-7.91971]]],[[[111.57177,-7.9191],[111.57154,-7.91925],[111.57154,-7.91925],[111.57177,-7.9191]]],[[[111.57203,-7.919],[111.57179,-7.91909],[111.57204,-7.91899],[111.57203,-7.919]]]]}},{"type":"Feature","properties":{"provno":"35","kabkotno":"02","kecno":"080","provinsi":"JAWA TIMUR","kabkot":"PONOROGO","kecamatan":"MLARAK","idkec":"3502080","pln":100,"bbm_lpg":15,"bbm_kayu":0,"fas_diksar":44,"fas_kes":42,"kd_smu":10,"kd_s1":4,"kd_s3":1,"tahun_data":2020,"_cls":"MLARAK"},"geometry":{"type":"MultiPolygon","coordinates":[[[[111.53279,-7.94012],[111.53279,-7.94012],[111.53279,-7.94012],[111.53279,-7.94012]]],[[[111.53266,-7.93979],[111.53258,-7.93969],[111.5325,-7.93963],[111.53258,-7.93969],[111.53266,-7.93979]]],[[[111.53289,-7.93932],[111.53288,-7.93932],[111.53293,-7.93931],[111.53289,-7.93932]]],[[[111.53312,-7.93852],[111.53312,-7.93853],[111.53312,-7.93853],[111.53312,-7.93852]]],[[[111.53349,-7.93837],[111.53354,-7.93839],[111.53348,-7.93837],[111.53349,-7.93837]]],[[[111.53371,-7.93834],[111.53371,-7.93834],[111.53371,-7.93834],[111.53371,-7.93834]]],[[[111.53625,-7.93759],[111.53619,-7.93759],[111.53629,-7.93757],[111.53625,-7.93759]]],[[[111.53606,-7.93757],[111.53607,-7.93758],[111.53602,-7.93757],[111.53606,-7.93757]]],[[[111.53408,-7.93756],[111.53408,-7.93756],[111.53409,-7.93756],[111.53408,-7.93756]]],[[[111.53642,-7.93751],[111.53632,-7.93756],[111.53642,-7.93751],[111.53642,-7.93751]]],[[[111.53509,-7.93746],[111.53508,-7.93747],[111.53507,-7.93746],[111.53509,-7.93746]]],[[[111.53517,-7.93745],[111.53516,-7.93745],[111.53517,-7.93745],[111.53517,-7.93745]]],[[[111.5358,-7.93744],[111.53583,-7.93747],[111.53582,-7.93746],[111.5358,-7.93744]]],[[[111.53651,-7.93741],[111.53651,-7.93741],[111.53652,-7.93738],[111.53651,-7.93741]]],[[[111.53571,-7.93735],[111.53573,-7.93739],[111.53573,-7.93738],[111.53571,-7.93735]]],[[[111.53493,-7.93735],[111.53506,-7.93745],[111.53501,-7.93742],[111.53492,-7.93734],[111.53484,-7.93722],[111.53472,-7.93698],[111.53493,-7.93735]]],[[[111.53665,-7.93697],[111.53664,-7.93699],[111.53665,-7.93698],[111.53665,-7.93697]]],[[[111.53454,-7.93694],[111.53451,-7.93694],[111.53451,-7.93694],[111.53454,-7.93694]]],[[[111.53464,-7.93693],[111.53469,-7.93695],[111.53463,-7.93693],[111.53464,-7.93693]]],[[[111.53713,-7.93692],[111.53712,-7.93692],[111.53714,-7.93692],[111.53713,-7.93692]]],[[[111.53698,-7.93689],[111.53701,-7.9369],[111.537,-7.9369],[111.53698,-7.93689]]],[[[111.5372,-7.93689],[111.53718,-7.9369],[111.53721,-7.93688],[111.5372,-7.93689]]],[[[111.5368,-7.9368],[111.53679,-7.9368],[111.5368,-7.9368],[111.5368,-7.9368]]],[[[111.53745,-7.93648],[111.53743,-7.93651],[111.53744,-7.93649],[111.53745,-7.93648]]],[[[111.53983,-7.9364],[111.53981,-7.9364],[111.53983,-7.9364],[111.53983,-7.9364]]],[[[111.53969,-7.93635],[111.53973,-7.93638],[111.53968,-7.93632],[111.53969,-7.93635]]],[[[111.53764,-7.93632],[111.53764,-7.93632],[111.53764,-7.93631],[111.53764,-7.93632]]],[[[111.53803,-7.93625],[111.53802,-7.93626],[111.53801,-7.93625],[111.53803,-7.93625]]],[[[111.53807,-7.93623],[111.53806,-7.93624],[111.53807,-7.93623],[111.53807,-7.93623]]],[[[111.5379,-7.93622],[111.53791,-7.93623],[111.53786,-7.93622],[111.5379,-7.93622]]],[[[111.53998,-7.93612],[111.53998,-7.93612],[111.53998,-7.93611],[111.53998,-7.93612]]],[[[111.53957,-7.93618],[111.5396,-7.93623],[111.5395,-7.9361],[111.53957,-7.93618]]],[[[111.54,-7.93586],[111.53999,-7.93587],[111.54,-7.93587],[111.54,-7.93586]]],[[[111.54005,-7.93586],[111.54006,-7.93586],[111.54005,-7.93586],[111.54005,-7.93586]]],[[[111.54067,-7.93581],[111.54057,-7.93582],[111.54056,-7.93582],[111.54067,-7.93581]]],[[[111.53859,-7.93582],[111.53859,-7.93582],[111.53859,-7.93581],[111.53859,-7.93582]]],[[[111.53935,-7.9359],[111.53942,-7.93599],[111.5393,-7.9358],[111.53935,-7.9359]]],[[[111.54027,-7.93568],[111.54034,-7.93579],[111.54034,-7.93578],[111.54027,-7.93568]]],[[[111.53928,-7.93574],[111.53929,-7.93577],[111.53921,-7.93567],[111.53928,-7.93574]]],[[[111.5409,-7.93566],[111.5409,-7.93566],[111.5409,-7.93565],[111.5409,-7.93566]]],[[[111.53917,-7.93563],[111.53919,-7.93565],[111.53916,-7.93562],[111.53917,-7.93563]]],[[[111.53905,-7.93558],[111.53908,-7.93559],[111.53902,-7.93556],[111.53905,-7.93558]]],[[[111.54163,-7.93528],[111.54163,-7.93529],[111.54155,-7.93516],[111.54163,-7.93528]]],[[[111.54133,-7.93504],[111.5413,-7.93505],[111.54128,-7.93504],[111.54129,-7.93504],[111.54133,-7.93504]]],[[[111.54152,-7.93506],[111.54153,-7.93513],[111.54149,-7.93502],[111.54152,-7.93506]]],[[[111.54119,-7.93499],[111.54123,-7.93502],[111.54118,-7.93498],[111.54119,-7.93499]]],[[[111.54102,-7.93497],[111.54096,-7.93502],[111.54096,-7.93502],[111.54102,-7.93497]]],[[[111.54111,-7.93495],[111.54111,-7.93495],[111.54111,-7.93495],[111.54111,-7.93495]]],[[[111.54192,-7.93477],[111.54192,-7.93478],[111.54192,-7.93478],[111.54192,-7.93477]]],[[[111.54192,-7.93455],[111.54192,-7.93457],[111.54192,-7.93456],[111.54192,-7.93455]]],[[[111.54204,-7.93431],[111.54202,-7.93432],[111.54202,-7.93432],[111.54204,-7.93431]]],[[[111.54404,-7.93431],[111.54404,-7.93431],[111.54402,-7.93429],[111.54404,-7.93431]]],[[[111.54395,-7.93424],[111.54382,-7.93417],[111.54373,-7.9341],[111.54382,-7.93417],[111.54395,-7.93424]]],[[[111.54248,-7.93403],[111.54248,-7.93403],[111.54249,-7.93402],[111.54248,-7.93403]]],[[[111.54476,-7.93401],[111.54476,-7.93401],[111.54476,-7.93401],[111.54476,-7.93401]]],[[[111.5435,-7.93396],[111.54351,-7.93397],[111.5435,-7.93396],[111.5435,-7.93396]]],[[[111.54493,-7.93388],[111.54491,-7.93389],[111.54493,-7.93387],[111.54493,-7.93388]]],[[[111.54273,-7.93386],[111.54272,-7.93386],[111.54272,-7.93386],[111.54273,-7.93386]]],[[[111.5429,-7.93379],[111.54286,-7.9338],[111.54288,-7.93379],[111.5429,-7.93379]]],[[[111.54542,-7.93343],[111.54537,-7.93348],[111.54542,-7.93343],[111.54545,-7.93329],[111.54542,-7.93343]]],[[[111.5467,-7.93292],[111.54658,-7.93295],[111.54657,-7.93294],[111.5467,-7.93292]]],[[[111.54723,-7.9329],[111.54723,-7.9329],[111.54723,-7.9329],[111.54723,-7.9329]]],[[[111.54715,-7.93289],[111.54715,-7.93289],[111.54714,-7.93289],[111.54715,-7.93289]]],[[[111.54572,-7.93288],[111.54572,-7.9329],[111.54572,-7.93288],[111.54572,-7.93288]]],[[[111.54631,-7.93282],[111.54655,-7.93294],[111.54646,-7.9329],[111.54631,-7.93282]]],[[[111.54699,-7.93276],[111.547,-7.93277],[111.54698,-7.93276],[111.54699,-7.93276]]],[[[111.5461,-7.93271],[111.54608,-7.93272],[111.5461,-7.93271],[111.5461,-7.93271]]],[[[111.54762,-7.93265],[111.54764,-7.9326],[111.54763,-7.93256],[111.54763,-7.93255],[111.54765,-7.93261],[111.54762,-7.93265]]],[[[111.54773,-7.93236],[111.54772,-7.93237],[111.54773,-7.93233],[111.54773,-7.93236]]],[[[111.54774,-7.93229],[111.54774,-7.9323],[111.54774,-7.93229],[111.54774,-7.93229]]],[[[111.54936,-7.93228],[111.54935,-7.93228],[111.54933,-7.93227],[111.54936,-7.93228]]],[[[111.54951,-7.93222],[111.54951,-7.93222],[111.54951,-7.93222],[111.54951,-7.93222]]],[[[111.54906,-7.93215],[111.54907,-7.93215],[111.54904,-7.93214],[111.54906,-7.93215]]],[[[111.54791,-7.93202],[111.5479,-7.93203],[111.54791,-7.93202],[111.54791,-7.93202]]],[[[111.5486,-7.932],[111.54855,-7.93201],[111.54853,-7.932],[111.5486,-7.932]]],[[[111.54843,-7.93198],[111.54846,-7.93199],[111.54845,-7.93199],[111.54843,-7.93198]]],[[[111.54818,-7.93188],[111.54822,-7.93189],[111.5482,-7.93189],[111.54818,-7.93188]]],[[[111.548,-7.93186],[111.548,-7.93186],[111.548,-7.93186],[111.548,-7.93186]]],[[[111.55015,-7.93177],[111.5502,-7.9318],[111.55011,-7.93177],[111.55015,-7.93177]]],[[[111.55081,-7.93166],[111.55074,-7.93172],[111.55082,-7.93165],[111.55081,-7.93166]]],[[[111.55091,-7.9315],[111.55091,-7.9315],[111.55091,-7.9315],[111.55091,-7.9315]]],[[[111.55091,-7.9314],[111.55091,-7.9315],[111.55091,-7.93141],[111.55091,-7.9314]]],[[[111.55103,-7.93115],[111.55094,-7.93131],[111.55105,-7.93101],[111.55103,-7.93115]]],[[[111.55103,-7.93091],[111.55105,-7.93101],[111.55099,-7.93084],[111.55103,-7.93091]]],[[[111.55073,-7.93069],[111.55095,-7.93081],[111.55081,-7.93075],[111.55073,-7.93069]]],[[[111.55057,-7.93058],[111.55061,-7.93061],[111.55056,-7.93058],[111.55057,-7.93058]]],[[[111.55044,-7.93047],[111.55045,-7.93048],[111.55044,-7.93047],[111.55044,-7.93047]]],[[[111.55034,-7.93021],[111.55034,-7.93025],[111.55033,-7.93024],[111.55034,-7.93021]]],[[[111.55038,-7.92991],[111.55036,-7.92995],[111.55038,-7.9299],[111.55038,-7.92991]]],[[[111.55078,-7.92909],[111.55078,-7.92883],[111.55076,-7.92869],[111.55078,-7.92884],[111.55078,-7.92909]]],[[[111.55134,-7.92869],[111.55152,-7.92877],[111.55129,-7.92866],[111.55134,-7.92869]]],[[[111.55174,-7.92867],[111.55169,-7.9287],[111.55175,-7.92865],[111.55174,-7.92867]]],[[[111.55079,-7.92854],[111.55077,-7.92859],[111.55081,-7.92854],[111.55079,-7.92854]]],[[[111.55179,-7.92852],[111.55178,-7.92845],[111.55173,-7.92839],[111.55164,-7.92835],[111.55156,-7.92828],[111.55173,-7.92837],[111.55177,-7.92841],[111.55179,-7.92846],[111.55179,-7.92852]]],[[[111.55148,-7.92818],[111.55147,-7.92818],[111.55146,-7.92815],[111.55148,-7.92818]]],[[[111.55143,-7.92799],[111.55143,-7.92804],[111.55143,-7.928],[111.55143,-7.92799]]],[[[111.55195,-7.92791],[111.55192,-7.92793],[111.55188,-7.92792],[111.55195,-7.92791]]],[[[111.55164,-7.92781],[111.55165,-7.92781],[111.55164,-7.92781],[111.55164,-7.92781]]],[[[111.552,-7.92781],[111.55197,-7.92789],[111.55207,-7.92761],[111.552,-7.92781]]],[[[111.55548,-7.92714],[111.55556,-7.92715],[111.5554,-7.92714],[111.55548,-7.92714]]],[[[111.55535,-7.92713],[111.55538,-7.92713],[111.55536,-7.92713],[111.55535,-7.92713]]],[[[111.5559,-7.92707],[111.55586,-7.92709],[111.55588,-7.92707],[111.5559,-7.92707]]],[[[111.55197,-7.92703],[111.55207,-7.92711],[111.55188,-7.92697],[111.55197,-7.92703]]],[[[111.55181,-7.9269],[111.55182,-7.92692],[111.55182,-7.92692],[111.55181,-7.9269]]],[[[111.55515,-7.92688],[111.55523,-7.92705],[111.55518,-7.92696],[111.55515,-7.92688]]],[[[111.5563,-7.92683],[111.55627,-7.92686],[111.55633,-7.9268],[111.5563,-7.92683]]],[[[111.55513,-7.92673],[111.55514,-7.92685],[111.55511,-7.92665],[111.55513,-7.92673]]],[[[111.55181,-7.92657],[111.55179,-7.92664],[111.55179,-7.9266],[111.55181,-7.92657]]],[[[111.55184,-7.92651],[111.55181,-7.92657],[111.55183,-7.92653],[111.55184,-7.92651]]],[[[111.55505,-7.92648],[111.5551,-7.92663],[111.55503,-7.92646],[111.55505,-7.92648]]],[[[111.55194,-7.92637],[111.55188,-7.92645],[111.55192,-7.9264],[111.55194,-7.92637]]],[[[111.5537,-7.9263],[111.55345,-7.92636],[111.55319,-7.92634],[111.55345,-7.92635],[111.5537,-7.9263]]],[[[111.55293,-7.92631],[111.55297,-7.92632],[111.55287,-7.92629],[111.55293,-7.92631]]],[[[111.55206,-7.92626],[111.55201,-7.92631],[111.55202,-7.92629],[111.55206,-7.92626]]],[[[111.55267,-7.92625],[111.55277,-7.92627],[111.55274,-7.92627],[111.55267,-7.92625]]],[[[111.55484,-7.92621],[111.55486,-7.92623],[111.55482,-7.92619],[111.55484,-7.92621]]],[[[111.55248,-7.92619],[111.5525,-7.92619],[111.55241,-7.92619],[111.55248,-7.92619]]],[[[111.55411,-7.92617],[111.55376,-7.92629],[111.55401,-7.9262],[111.55411,-7.92617]]],[[[111.55473,-7.92613],[111.55478,-7.92617],[111.55473,-7.92613],[111.55473,-7.92613]]],[[[111.55428,-7.92613],[111.55425,-7.92614],[111.55427,-7.92613],[111.55428,-7.92613]]],[[[111.55447,-7.92612],[111.55446,-7.92612],[111.55449,-7.92612],[111.55447,-7.92612]]],[[[111.55469,-7.92611],[111.5547,-7.92612],[111.55468,-7.92611],[111.55469,-7.92611]]],[[[111.55689,-7.92597],[111.55688,-7.92598],[111.55697,-7.92593],[111.55689,-7.92597]]],[[[111.55724,-7.92582],[111.55721,-7.92583],[111.55725,-7.92581],[111.55724,-7.92582]]],[[[111.55737,-7.92574],[111.55736,-7.92575],[111.55737,-7.92574],[111.55737,-7.92574]]],[[[111.5582,-7.92569],[111.55816,-7.9257],[111.55814,-7.9257],[111.5582,-7.92569]]],[[[111.55826,-7.92568],[111.55825,-7.92569],[111.55826,-7.92568],[111.55826,-7.92568]]],[[[111.56069,-7.92568],[111.56079,-7.9257],[111.56066,-7.92568],[111.56069,-7.92568]]],[[[111.5612,-7.92568],[111.56116,-7.92569],[111.56121,-7.92568],[111.5612,-7.92568]]],[[[111.55837,-7.92565],[111.55836,-7.92565],[111.55837,-7.92564],[111.55837,-7.92565]]],[[[111.55789,-7.92564],[111.55804,-7.92569],[111.55783,-7.92561],[111.55789,-7.92564]]],[[[111.56055,-7.92564],[111.56061,-7.92567],[111.56044,-7.92558],[111.56055,-7.92564]]],[[[111.55775,-7.92557],[111.55776,-7.92558],[111.55773,-7.92557],[111.55775,-7.92557]]],[[[111.55763,-7.92556],[111.55761,-7.92556],[111.55762,-7.92556],[111.55763,-7.92556]]],[[[111.56033,-7.92552],[111.56036,-7.92554],[111.56034,-7.92553],[111.56033,-7.92552]]],[[[111.56006,-7.9253],[111.5601,-7.92534],[111.56003,-7.92528],[111.56006,-7.9253]]],[[[111.56165,-7.92519],[111.56162,-7.92521],[111.56164,-7.92519],[111.56165,-7.92519]]],[[[111.56271,-7.92518],[111.56246,-7.92525],[111.5628,-7.92514],[111.56271,-7.92518]]],[[[111.55983,-7.92515],[111.55986,-7.92517],[111.55979,-7.92513],[111.55983,-7.92515]]],[[[111.55876,-7.92511],[111.5585,-7.92549],[111.55853,-7.9254],[111.55867,-7.92518],[111.55875,-7.92511],[111.55876,-7.92511]]],[[[111.5629,-7.92506],[111.56286,-7.9251],[111.56293,-7.92503],[111.5629,-7.92506]]],[[[111.55941,-7.92497],[111.55945,-7.92499],[111.55933,-7.92496],[111.55941,-7.92497]]],[[[111.56316,-7.92471],[111.56301,-7.92496],[111.56311,-7.92474],[111.56325,-7.92464],[111.5633,-7.92462],[111.56316,-7.92471]]],[[[111.56363,-7.92455],[111.5636,-7.92455],[111.56367,-7.92454],[111.56363,-7.92455]]],[[[111.56721,-7.9242],[111.56726,-7.92421],[111.56723,-7.92421],[111.56721,-7.9242]]],[[[111.565,-7.92415],[111.565,-7.92415],[111.565,-7.92415],[111.565,-7.92415]]],[[[111.56487,-7.92415],[111.56492,-7.92416],[111.56487,-7.92415],[111.56487,-7.92415]]],[[[111.56763,-7.92414],[111.56777,-7.92421],[111.56768,-7.92417],[111.56763,-7.92414]]],[[[111.56505,-7.92412],[111.56505,-7.92413],[111.56506,-7.92411],[111.56505,-7.92412]]],[[[111.56476,-7.92411],[111.56477,-7.92412],[111.56477,-7.92412],[111.56476,-7.92411]]],[[[111.56412,-7.92408],[111.5641,-7.92411],[111.56415,-7.92405],[111.56412,-7.92408]]],[[[111.56677,-7.92401],[111.56687,-7.92409],[111.56685,-7.92408],[111.56677,-7.92401]]],[[[111.5651,-7.92398],[111.56509,-7.92399],[111.56509,-7.92396],[111.5651,-7.92398]]],[[[111.56508,-7.92391],[111.56508,-7.92392],[111.56506,-7.9239],[111.56508,-7.92391]]],[[[111.56796,-7.9241],[111.56812,-7.92439],[111.56796,-7.92409],[111.56771,-7.92389],[111.5677,-7.92387],[111.56796,-7.9241]]],[[[111.56503,-7.92386],[111.56503,-7.92387],[111.56503,-7.92387],[111.56503,-7.92386]]],[[[111.56501,-7.9238],[111.56501,-7.92382],[111.56501,-7.92381],[111.56501,-7.9238]]],[[[111.56556,-7.92378],[111.56549,-7.92378],[111.56547,-7.92377],[111.56556,-7.92378]]],[[[111.56562,-7.92377],[111.56561,-7.92377],[111.56563,-7.92375],[111.56562,-7.92377]]],[[[111.56539,-7.92375],[111.56541,-7.92375],[111.5654,-7.92375],[111.56539,-7.92375]]],[[[111.56663,-7.92367],[111.56663,-7.92369],[111.56662,-7.92367],[111.56663,-7.92367]]],[[[111.56602,-7.92366],[111.56598,-7.92366],[111.56595,-7.92365],[111.56602,-7.92366]]],[[[111.56612,-7.92366],[111.56612,-7.92366],[111.56616,-7.92365],[111.56612,-7.92366]]],[[[111.56783,-7.9236],[111.5678,-7.92363],[111.56782,-7.92361],[111.56783,-7.9236]]],[[[111.5662,-7.92364],[111.56616,-7.92365],[111.56625,-7.92357],[111.5662,-7.92364]]],[[[111.56629,-7.92355],[111.56627,-7.92356],[111.56628,-7.92355],[111.56629,-7.92355]]],[[[111.56648,-7.92352],[111.56649,-7.92353],[111.56647,-7.92352],[111.56648,-7.92352]]],[[[111.56831,-7.92325],[111.56822,-7.92335],[111.56839,-7.92308],[111.56831,-7.92325]]],[[[111.56853,-7.92278],[111.56845,-7.92292],[111.56851,-7.92281],[111.56853,-7.92278]]],[[[111.5687,-7.92262],[111.56858,-7.92274],[111.56866,-7.92265],[111.5687,-7.92262]]],[[[111.56898,-7.92241],[111.56883,-7.92252],[111.5689,-7.92246],[111.56898,-7.92241]]],[[[111.57009,-7.92184],[111.57005,-7.92184],[111.57011,-7.92183],[111.57009,-7.92184]]],[[[111.57045,-7.92163],[111.57038,-7.92171],[111.57049,-7.92157],[111.57045,-7.92163]]],[[[111.57056,-7.92143],[111.57055,-7.92145],[111.57056,-7.92143],[111.57056,-7.92143]]],[[[111.57061,-7.92136],[111.57057,-7.92141],[111.57058,-7.92139],[111.57061,-7.92136]]],[[[111.57099,-7.92083],[111.57098,-7.92086],[111.57099,-7.92079],[111.57099,-7.92083]]],[[[111.57088,-7.92055],[111.57099,-7.92078],[111.57066,-7.92023],[111.57088,-7.92055]]],[[[111.57049,-7.91982],[111.57049,-7.91989],[111.57048,-7.91988],[111.57049,-7.91982]]],[[[111.57049,-7.91977],[111.57049,-7.91977],[111.57049,-7.91977],[111.57049,-7.91977]]],[[[111.57068,-7.91939],[111.57067,-7.91941],[111.57068,-7.91936],[111.57068,-7.91939]]],[[[111.57067,-7.91915],[111.57066,-7.91906],[111.5707,-7.91896],[111.57067,-7.91908],[111.57067,-7.91915]]],[[[111.57091,-7.9187],[111.57077,-7.91884],[111.57082,-7.91877],[111.57091,-7.9187]]],[[[111.57117,-7.91863],[111.57112,-7.91864],[111.57121,-7.9186],[111.57117,-7.91863]]],[[[111.57194,-7.91854],[111.57195,-7.91854],[111.57194,-7.91854],[111.57194,-7.91854]]],[[[111.5714,-7.91851],[111.57138,-7.91852],[111.57154,-7.91843],[111.5714,-7.91851]]]]}}]}