{"type":"FeatureCollection","features":[{"type":"Feature","properties":{"kode_prov":35,"kriteria":"Lahan Garapan pertanian, perkebunan dan tambak","_cls":"Lahan Garapan pertanian, perkebunan dan tambak"},"geometry":{"type":"Polygon","coordinates":[[[111.55461,-8.0],[111.55461,-8.0],[111.55461,-8.0],[111.55461,-8.0]]]}},{"type":"Feature","properties":{"kode_prov":35,"kriteria":"Permukiman, fasilitas sosial dan fasilitas umum","_cls":"Permukiman, fasilitas sosial dan fasilitas umum"},"geometry":{"type":"MultiPolygon","coordinates":[[[[111.55089,-8.04421],[111.55083,-8.04427],[111.55071,-8.04408],[111.55089,-8.04421]]],[[[111.53914,-8.04228],[111.539,-8.04237],[111.53905,-8.04218],[111.53916,-8.04198],[111.53914,-8.04228]]],[[[111.54073,-8.04037],[111.54082,-8.04083],[111.54058,-8.04095],[111.54037,-8.0407],[111.53962,-8.0414],[111.53958,-8.04135],[111.53984,-8.04108],[111.54073,-8.04037]]],[[[111.54099,-8.03885],[111.54083,-8.03887],[111.5404,-8.03757],[111.53998,-8.03677],[111.53972,-8.03642],[111.53972,-8.03635],[111.53916,-8.03632],[111.53926,-8.03599],[111.53978,-8.03597],[111.54004,-8.0366],[111.54022,-8.03662],[111.54058,-8.03777],[111.54099,-8.03885]]],[[[111.60109,-8.01833],[111.60096,-8.01834],[111.60077,-8.01832],[111.60109,-8.01833],[111.60128,-8.0183],[111.60137,-8.01829],[111.60109,-8.01833]]],[[[111.61099,-8.01239],[111.61086,-8.01254],[111.61086,-8.01238],[111.61099,-8.01239]]],[[[111.61148,-8.01189],[111.61147,-8.01189],[111.61147,-8.01185],[111.61148,-8.01189]]],[[[111.61036,-8.01182],[111.61017,-8.01196],[111.61015,-8.01168],[111.61036,-8.01182]]],[[[111.61392,-8.00888],[111.61411,-8.00908],[111.61364,-8.00907],[111.61392,-8.00888]]],[[[111.62457,-8.00846],[111.62481,-8.00858],[111.62451,-8.00841],[111.62457,-8.00846]]],[[[111.61403,-8.00837],[111.61389,-8.00864],[111.61378,-8.00836],[111.61403,-8.00837]]],[[[111.62436,-8.00828],[111.6244,-8.00832],[111.62437,-8.00829],[111.62436,-8.00828]]],[[[111.62642,-8.00763],[111.62661,-8.00776],[111.62654,-8.00775],[111.62613,-8.00863],[111.62575,-8.00936],[111.62552,-8.00992],[111.62545,-8.00995],[111.62541,-8.00987],[111.62546,-8.00969],[111.62547,-8.00956],[111.62541,-8.00907],[111.62563,-8.00858],[111.62571,-8.00864],[111.62642,-8.00763]]],[[[111.65907,-7.97536],[111.65909,-7.97537],[111.65906,-7.97536],[111.65907,-7.97536]]],[[[111.65842,-7.97532],[111.65893,-7.97535],[111.65842,-7.97532],[111.65842,-7.97532]]],[[[111.65544,-7.96666],[111.65538,-7.96683],[111.65519,-7.96702],[111.65478,-7.96689],[111.65499,-7.96666],[111.65521,-7.96674],[111.65532,-7.96658],[111.65544,-7.96666]]],[[[111.57325,-7.94495],[111.57326,-7.94507],[111.57304,-7.94506],[111.57296,-7.94406],[111.57299,-7.94395],[111.57297,-7.94405],[111.57306,-7.94494],[111.57325,-7.94495]]],[[[111.57288,-7.94406],[111.57297,-7.94505],[111.57274,-7.94504],[111.57273,-7.94496],[111.57292,-7.94495],[111.57286,-7.94407],[111.57291,-7.94379],[111.57315,-7.94343],[111.57365,-7.94286],[111.5737,-7.9429],[111.57295,-7.94382],[111.57288,-7.94406]]],[[[111.57488,-7.94187],[111.57455,-7.942],[111.57474,-7.94177],[111.57488,-7.94187]]],[[[111.57526,-7.94102],[111.57449,-7.94196],[111.57446,-7.94194],[111.57507,-7.94123],[111.57531,-7.94087],[111.57526,-7.94102]]],[[[111.57561,-7.9403],[111.57557,-7.94031],[111.57562,-7.94015],[111.57561,-7.9403]]],[[[111.57571,-7.94021],[111.57586,-7.94022],[111.57612,-7.9401],[111.57614,-7.94012],[111.57613,-7.94015],[111.57568,-7.94029],[111.57569,-7.94002],[111.57586,-7.9396],[111.57571,-7.94021]]],[[[111.57618,-7.93895],[111.57572,-7.93975],[111.57588,-7.93926],[111.57609,-7.93891],[111.57616,-7.93893],[111.57618,-7.93895]]]]}}]}