{"type":"FeatureCollection","features":[{"type":"Feature","properties":{"REMARK":"Rumah Sakit Khusus","JPLYRS":2},"geometry":{"type":"Point","coordinates":[111.62829,-7.97817]}},{"type":"Feature","properties":{"REMARK":"Rumah Sakit Khusus","JPLYRS":2},"geometry":{"type":"Point","coordinates":[111.57224,-7.97475]}},{"type":"Feature","properties":{"REMARK":"Rumah Sakit Khusus","JPLYRS":2},"geometry":{"type":"Point","coordinates":[111.61231,-7.98489]}},{"type":"Feature","properties":{"REMARK":"Rumah Sakit Khusus","JPLYRS":2},"geometry":{"type":"Point","coordinates":[111.5777,-8.02293]}}]}