{"type":"FeatureCollection","features":[{"type":"Feature","properties":{"KATEGORI":"Pendidikan (jenjang belum teridentifikasi)","BOBOT":3,"NAMA":"Pendidikan/Penelitian Lainnya","SUMBER":"RBI25K PENDIDIKAN_PT_25K","WADMKD":"Sriti","_cls":"Pendidikan (jenjang belum teridentifikasi)"},"geometry":{"type":"Point","coordinates":[111.64011,-7.97361]}},{"type":"Feature","properties":{"KATEGORI":"Pendidikan (jenjang belum teridentifikasi)","BOBOT":3,"NAMA":"Pendidikan/Penelitian Lainnya","SUMBER":"RBI25K PENDIDIKAN_PT_25K","WADMKD":"Sriti","_cls":"Pendidikan (jenjang belum teridentifikasi)"},"geometry":{"type":"Point","coordinates":[111.62622,-7.97817]}},{"type":"Feature","properties":{"KATEGORI":"Pendidikan (jenjang belum teridentifikasi)","BOBOT":3,"NAMA":"Pendidikan/Penelitian Lainnya","SUMBER":"RBI25K PENDIDIKAN_PT_25K","WADMKD":"Sriti","_cls":"Pendidikan (jenjang belum teridentifikasi)"},"geometry":{"type":"Point","coordinates":[111.6273,-7.97846]}},{"type":"Feature","properties":{"KATEGORI":"Pendidikan (jenjang belum teridentifikasi)","BOBOT":3,"NAMA":"Pendidikan/Penelitian Lainnya","SUMBER":"RBI25K PENDIDIKAN_PT_25K","WADMKD":"Tempuran","_cls":"Pendidikan (jenjang belum teridentifikasi)"},"geometry":{"type":"Point","coordinates":[111.63228,-7.99105]}},{"type":"Feature","properties":{"KATEGORI":"Pendidikan (jenjang belum teridentifikasi)","BOBOT":3,"NAMA":"Pendidikan/Penelitian Lainnya","SUMBER":"RBI25K PENDIDIKAN_PT_25K","WADMKD":"Tempuran","_cls":"Pendidikan (jenjang belum teridentifikasi)"},"geometry":{"type":"Point","coordinates":[111.63661,-7.99114]}},{"type":"Feature","properties":{"KATEGORI":"Pendidikan (jenjang belum teridentifikasi)","BOBOT":3,"NAMA":"Pendidikan/Penelitian Lainnya","SUMBER":"RBI25K PENDIDIKAN_PT_25K","WADMKD":"Bondrang","_cls":"Pendidikan (jenjang belum teridentifikasi)"},"geometry":{"type":"Point","coordinates":[111.55406,-7.928]}},{"type":"Feature","properties":{"KATEGORI":"Pendidikan (jenjang belum teridentifikasi)","BOBOT":3,"NAMA":"Pendidikan/Penelitian Lainnya","SUMBER":"RBI25K PENDIDIKAN_PT_25K","WADMKD":"Bondrang","_cls":"Pendidikan (jenjang belum teridentifikasi)"},"geometry":{"type":"Point","coordinates":[111.53955,-7.93859]}},{"type":"Feature","properties":{"KATEGORI":"Pendidikan (jenjang belum teridentifikasi)","BOBOT":3,"NAMA":"Pendidikan/Penelitian Lainnya","SUMBER":"RBI25K PENDIDIKAN_PT_25K","WADMKD":"Ngindeng","_cls":"Pendidikan (jenjang belum teridentifikasi)"},"geometry":{"type":"Point","coordinates":[111.56561,-7.94147]}},{"type":"Feature","properties":{"KATEGORI":"Pendidikan (jenjang belum teridentifikasi)","BOBOT":3,"NAMA":"Pendidikan/Penelitian Lainnya","SUMBER":"RBI25K PENDIDIKAN_PT_25K","WADMKD":"Kori","_cls":"Pendidikan (jenjang belum teridentifikasi)"},"geometry":{"type":"Point","coordinates":[111.54075,-7.94797]}},{"type":"Feature","properties":{"KATEGORI":"Pendidikan (jenjang belum teridentifikasi)","BOBOT":3,"NAMA":"Pendidikan/Penelitian Lainnya","SUMBER":"RBI25K PENDIDIKAN_PT_25K","WADMKD":"Temon","_cls":"Pendidikan (jenjang belum teridentifikasi)"},"geometry":{"type":"Point","coordinates":[111.62172,-7.94893]}},{"type":"Feature","properties":{"KATEGORI":"Pendidikan (jenjang belum teridentifikasi)","BOBOT":3,"NAMA":"Pendidikan/Penelitian Lainnya","SUMBER":"RBI25K PENDIDIKAN_PT_25K","WADMKD":"Ketro","_cls":"Pendidikan (jenjang belum teridentifikasi)"},"geometry":{"type":"Point","coordinates":[111.53644,-7.95151]}},{"type":"Feature","properties":{"KATEGORI":"Pendidikan (jenjang belum teridentifikasi)","BOBOT":3,"NAMA":"Pendidikan/Penelitian Lainnya","SUMBER":"RBI25K PENDIDIKAN_PT_25K","WADMKD":"Kori","_cls":"Pendidikan (jenjang belum teridentifikasi)"},"geometry":{"type":"Point","coordinates":[111.54683,-7.95474]}},{"type":"Feature","properties":{"KATEGORI":"Pendidikan (jenjang belum teridentifikasi)","BOBOT":3,"NAMA":"Pendidikan/Penelitian Lainnya","SUMBER":"RBI25K PENDIDIKAN_PT_25K","WADMKD":"Temon","_cls":"Pendidikan (jenjang belum teridentifikasi)"},"geometry":{"type":"Point","coordinates":[111.61448,-7.96069]}},{"type":"Feature","properties":{"KATEGORI":"Pendidikan (jenjang belum teridentifikasi)","BOBOT":3,"NAMA":"Pendidikan/Penelitian Lainnya","SUMBER":"RBI25K PENDIDIKAN_PT_25K","WADMKD":"Prayungan","_cls":"Pendidikan (jenjang belum teridentifikasi)"},"geometry":{"type":"Point","coordinates":[111.55826,-7.9621]}},{"type":"Feature","properties":{"KATEGORI":"Pendidikan (jenjang belum teridentifikasi)","BOBOT":3,"NAMA":"Pendidikan/Penelitian Lainnya","SUMBER":"RBI25K PENDIDIKAN_PT_25K","WADMKD":"Temon","_cls":"Pendidikan (jenjang belum teridentifikasi)"},"geometry":{"type":"Point","coordinates":[111.61847,-7.96463]}},{"type":"Feature","properties":{"KATEGORI":"Pendidikan (jenjang belum teridentifikasi)","BOBOT":3,"NAMA":"Pendidikan/Penelitian Lainnya","SUMBER":"RBI25K PENDIDIKAN_PT_25K","WADMKD":"Prayungan","_cls":"Pendidikan (jenjang belum teridentifikasi)"},"geometry":{"type":"Point","coordinates":[111.55767,-7.96915]}},{"type":"Feature","properties":{"KATEGORI":"Pendidikan (jenjang belum teridentifikasi)","BOBOT":3,"NAMA":"Pendidikan/Penelitian Lainnya","SUMBER":"RBI25K PENDIDIKAN_PT_25K","WADMKD":"Tugurejo","_cls":"Pendidikan (jenjang belum teridentifikasi)"},"geometry":{"type":"Point","coordinates":[111.54934,-7.9716]}},{"type":"Feature","properties":{"KATEGORI":"Pendidikan (jenjang belum teridentifikasi)","BOBOT":3,"NAMA":"Pendidikan/Penelitian Lainnya","SUMBER":"RBI25K PENDIDIKAN_PT_25K","WADMKD":"Prayungan","_cls":"Pendidikan (jenjang belum teridentifikasi)"},"geometry":{"type":"Point","coordinates":[111.56959,-7.97273]}},{"type":"Feature","properties":{"KATEGORI":"Pendidikan (jenjang belum teridentifikasi)","BOBOT":3,"NAMA":"Pendidikan/Penelitian Lainnya","SUMBER":"RBI25K PENDIDIKAN_PT_25K","WADMKD":"Grogol","_cls":"Pendidikan (jenjang belum teridentifikasi)"},"geometry":{"type":"Point","coordinates":[111.53668,-7.97444]}},{"type":"Feature","properties":{"KATEGORI":"Pendidikan (jenjang belum teridentifikasi)","BOBOT":3,"NAMA":"Pendidikan/Penelitian Lainnya","SUMBER":"RBI25K PENDIDIKAN_PT_25K","WADMKD":"Sawoo","_cls":"Pendidikan (jenjang belum teridentifikasi)"},"geometry":{"type":"Point","coordinates":[111.57513,-7.97815]}},{"type":"Feature","properties":{"KATEGORI":"Pendidikan (jenjang belum teridentifikasi)","BOBOT":3,"NAMA":"Pendidikan/Penelitian Lainnya","SUMBER":"RBI25K PENDIDIKAN_PT_25K","WADMKD":"Grogol","_cls":"Pendidikan (jenjang belum teridentifikasi)"},"geometry":{"type":"Point","coordinates":[111.53622,-7.98227]}},{"type":"Feature","properties":{"KATEGORI":"Pendidikan (jenjang belum teridentifikasi)","BOBOT":3,"NAMA":"Pendidikan/Penelitian Lainnya","SUMBER":"RBI25K PENDIDIKAN_PT_25K","WADMKD":"Temon","_cls":"Pendidikan (jenjang belum teridentifikasi)"},"geometry":{"type":"Point","coordinates":[111.6096,-7.98332]}},{"type":"Feature","properties":{"KATEGORI":"Pendidikan (jenjang belum teridentifikasi)","BOBOT":3,"NAMA":"Pendidikan/Penelitian Lainnya","SUMBER":"RBI25K PENDIDIKAN_PT_25K","WADMKD":"Sawoo","_cls":"Pendidikan (jenjang belum teridentifikasi)"},"geometry":{"type":"Point","coordinates":[111.58499,-7.98513]}},{"type":"Feature","properties":{"KATEGORI":"Pendidikan (jenjang belum teridentifikasi)","BOBOT":3,"NAMA":"Pendidikan/Penelitian Lainnya","SUMBER":"RBI25K PENDIDIKAN_PT_25K","WADMKD":"Temon","_cls":"Pendidikan (jenjang belum teridentifikasi)"},"geometry":{"type":"Point","coordinates":[111.61208,-7.98572]}},{"type":"Feature","properties":{"KATEGORI":"Pendidikan (jenjang belum teridentifikasi)","BOBOT":3,"NAMA":"Pendidikan/Penelitian Lainnya","SUMBER":"RBI25K PENDIDIKAN_PT_25K","WADMKD":"Grogol","_cls":"Pendidikan (jenjang belum teridentifikasi)"},"geometry":{"type":"Point","coordinates":[111.53666,-7.98882]}},{"type":"Feature","properties":{"KATEGORI":"Pendidikan (jenjang belum teridentifikasi)","BOBOT":3,"NAMA":"Pendidikan/Penelitian Lainnya","SUMBER":"RBI25K PENDIDIKAN_PT_25K","WADMKD":"Tumpak Pelem","_cls":"Pendidikan (jenjang belum teridentifikasi)"},"geometry":{"type":"Point","coordinates":[111.60658,-7.98895]}},{"type":"Feature","properties":{"KATEGORI":"Pendidikan (jenjang belum teridentifikasi)","BOBOT":3,"NAMA":"Pendidikan/Penelitian Lainnya","SUMBER":"RBI25K PENDIDIKAN_PT_25K","WADMKD":"Tumpak Pelem","_cls":"Pendidikan (jenjang belum teridentifikasi)"},"geometry":{"type":"Point","coordinates":[111.61152,-7.98971]}},{"type":"Feature","properties":{"KATEGORI":"Pendidikan (jenjang belum teridentifikasi)","BOBOT":3,"NAMA":"Pendidikan/Penelitian Lainnya","SUMBER":"RBI25K PENDIDIKAN_PT_25K","WADMKD":"Pangkal","_cls":"Pendidikan (jenjang belum teridentifikasi)"},"geometry":{"type":"Point","coordinates":[111.579,-7.99606]}},{"type":"Feature","properties":{"KATEGORI":"Pendidikan (jenjang belum teridentifikasi)","BOBOT":3,"NAMA":"Pendidikan/Penelitian Lainnya","SUMBER":"RBI25K PENDIDIKAN_PT_25K","WADMKD":"Pangkal","_cls":"Pendidikan (jenjang belum teridentifikasi)"},"geometry":{"type":"Point","coordinates":[111.57756,-8.00114]}},{"type":"Feature","properties":{"KATEGORI":"Pendidikan (jenjang belum teridentifikasi)","BOBOT":3,"NAMA":"Pendidikan/Penelitian Lainnya","SUMBER":"RBI25K PENDIDIKAN_PT_25K","WADMKD":"Pangkal","_cls":"Pendidikan (jenjang belum teridentifikasi)"},"geometry":{"type":"Point","coordinates":[111.57077,-8.00615]}},{"type":"Feature","properties":{"KATEGORI":"Pendidikan (jenjang belum teridentifikasi)","BOBOT":3,"NAMA":"Pendidikan/Penelitian Lainnya","SUMBER":"RBI25K PENDIDIKAN_PT_25K","WADMKD":"Tumpak Pelem","_cls":"Pendidikan (jenjang belum teridentifikasi)"},"geometry":{"type":"Point","coordinates":[111.60607,-8.00731]}},{"type":"Feature","properties":{"KATEGORI":"Pendidikan (jenjang belum teridentifikasi)","BOBOT":3,"NAMA":"Pendidikan/Penelitian Lainnya","SUMBER":"RBI25K PENDIDIKAN_PT_25K","WADMKD":"Grogol","_cls":"Pendidikan (jenjang belum teridentifikasi)"},"geometry":{"type":"Point","coordinates":[111.54776,-8.01572]}},{"type":"Feature","properties":{"KATEGORI":"Pendidikan (jenjang belum teridentifikasi)","BOBOT":3,"NAMA":"Pendidikan/Penelitian Lainnya","SUMBER":"RBI25K PENDIDIKAN_PT_25K","WADMKD":"Pangkal","_cls":"Pendidikan (jenjang belum teridentifikasi)"},"geometry":{"type":"Point","coordinates":[111.57841,-8.0169]}},{"type":"Feature","properties":{"KATEGORI":"Pendidikan (jenjang belum teridentifikasi)","BOBOT":3,"NAMA":"Pendidikan/Penelitian Lainnya","SUMBER":"RBI25K PENDIDIKAN_PT_25K","WADMKD":"Pangkal","_cls":"Pendidikan (jenjang belum teridentifikasi)"},"geometry":{"type":"Point","coordinates":[111.58811,-8.02077]}},{"type":"Feature","properties":{"KATEGORI":"Pendidikan (jenjang belum teridentifikasi)","BOBOT":3,"NAMA":"Pendidikan/Penelitian Lainnya","SUMBER":"RBI25K PENDIDIKAN_PT_25K","WADMKD":"Tumpuk","_cls":"Pendidikan (jenjang belum teridentifikasi)"},"geometry":{"type":"Point","coordinates":[111.56674,-8.03286]}},{"type":"Feature","properties":{"KATEGORI":"Pendidikan (jenjang belum teridentifikasi)","BOBOT":3,"NAMA":"Pendidikan/Penelitian Lainnya","SUMBER":"RBI25K PENDIDIKAN_PT_25K","WADMKD":"Tumpuk","_cls":"Pendidikan (jenjang belum teridentifikasi)"},"geometry":{"type":"Point","coordinates":[111.56481,-8.03636]}},{"type":"Feature","properties":{"KATEGORI":"Kantor Pemerintahan","BOBOT":4,"NAMA":"Kantor Kepala Desa","SUMBER":"RBI25K PEMERINTAHAN_PT_25K","WADMKD":"Sriti","_cls":"Kantor Pemerintahan"},"geometry":{"type":"Point","coordinates":[111.62767,-7.97806]}},{"type":"Feature","properties":{"KATEGORI":"Kantor Pemerintahan","BOBOT":4,"NAMA":"Kantor Kepala Desa","SUMBER":"RBI25K PEMERINTAHAN_PT_25K","WADMKD":"Tempuran","_cls":"Kantor Pemerintahan"},"geometry":{"type":"Point","coordinates":[111.6374,-7.99228]}},{"type":"Feature","properties":{"KATEGORI":"Kantor Pemerintahan","BOBOT":4,"NAMA":"Kantor Kepala Desa","SUMBER":"RBI25K PEMERINTAHAN_PT_25K","WADMKD":"Bondrang","_cls":"Kantor Pemerintahan"},"geometry":{"type":"Point","coordinates":[111.5379,-7.93869]}},{"type":"Feature","properties":{"KATEGORI":"Kantor Pemerintahan","BOBOT":4,"NAMA":"Kantor Kepala Desa","SUMBER":"RBI25K PEMERINTAHAN_PT_25K","WADMKD":"Ngindeng","_cls":"Kantor Pemerintahan"},"geometry":{"type":"Point","coordinates":[111.56048,-7.94591]}},{"type":"Feature","properties":{"KATEGORI":"Kantor Pemerintahan","BOBOT":4,"NAMA":"Kantor Kepala Desa","SUMBER":"RBI25K PEMERINTAHAN_PT_25K","WADMKD":"Kori","_cls":"Kantor Pemerintahan"},"geometry":{"type":"Point","coordinates":[111.54451,-7.94751]}},{"type":"Feature","properties":{"KATEGORI":"Kantor Pemerintahan","BOBOT":4,"NAMA":"Kantor Kepala Desa","SUMBER":"RBI25K PEMERINTAHAN_PT_25K","WADMKD":"Ketro","_cls":"Kantor Pemerintahan"},"geometry":{"type":"Point","coordinates":[111.53643,-7.95095]}},{"type":"Feature","properties":{"KATEGORI":"Kantor Pemerintahan","BOBOT":4,"NAMA":"Kantor Kepala Desa","SUMBER":"RBI25K PEMERINTAHAN_PT_25K","WADMKD":"Temon","_cls":"Kantor Pemerintahan"},"geometry":{"type":"Point","coordinates":[111.61705,-7.96512]}},{"type":"Feature","properties":{"KATEGORI":"Kantor Pemerintahan","BOBOT":4,"NAMA":"Kantor Kepala Desa","SUMBER":"RBI25K PEMERINTAHAN_PT_25K","WADMKD":"Prayungan","_cls":"Kantor Pemerintahan"},"geometry":{"type":"Point","coordinates":[111.5573,-7.96815]}},{"type":"Feature","properties":{"KATEGORI":"Kantor Pemerintahan","BOBOT":4,"NAMA":"Kantor Kepala Desa","SUMBER":"RBI25K PEMERINTAHAN_PT_25K","WADMKD":"Grogol","_cls":"Kantor Pemerintahan"},"geometry":{"type":"Point","coordinates":[111.53565,-7.97453]}},{"type":"Feature","properties":{"KATEGORI":"Kantor Pemerintahan","BOBOT":5,"NAMA":"Kantor Camat","SUMBER":"RBI25K PEMERINTAHAN_PT_25K","WADMKD":"Sawoo","_cls":"Kantor Pemerintahan"},"geometry":{"type":"Point","coordinates":[111.57525,-7.97628]}},{"type":"Feature","properties":{"KATEGORI":"Kantor Pemerintahan","BOBOT":4,"NAMA":"Kantor Kepala Desa","SUMBER":"RBI25K PEMERINTAHAN_PT_25K","WADMKD":"Sawoo","_cls":"Kantor Pemerintahan"},"geometry":{"type":"Point","coordinates":[111.57434,-7.97663]}},{"type":"Feature","properties":{"KATEGORI":"Kantor Pemerintahan","BOBOT":4,"NAMA":"Kantor Polisi","SUMBER":"RBI25K PEMERINTAHAN_PT_25K","WADMKD":"Sawoo","_cls":"Kantor Pemerintahan"},"geometry":{"type":"Point","coordinates":[111.57521,-7.97682]}},{"type":"Feature","properties":{"KATEGORI":"Kantor Pemerintahan","BOBOT":4,"NAMA":"Kantor Kepala Desa","SUMBER":"RBI25K PEMERINTAHAN_PT_25K","WADMKD":"Tugurejo","_cls":"Kantor Pemerintahan"},"geometry":{"type":"Point","coordinates":[111.5437,-7.97849]}},{"type":"Feature","properties":{"KATEGORI":"Kantor Pemerintahan","BOBOT":4,"NAMA":"Kantor Kepala Desa","SUMBER":"RBI25K PEMERINTAHAN_PT_25K","WADMKD":"Tumpak Pelem","_cls":"Kantor Pemerintahan"},"geometry":{"type":"Point","coordinates":[111.60769,-7.98844]}},{"type":"Feature","properties":{"KATEGORI":"Kantor Pemerintahan","BOBOT":4,"NAMA":"Kantor Kepala Desa","SUMBER":"RBI25K PEMERINTAHAN_PT_25K","WADMKD":"Pangkal","_cls":"Kantor Pemerintahan"},"geometry":{"type":"Point","coordinates":[111.57921,-8.02231]}},{"type":"Feature","properties":{"KATEGORI":"Kantor Pemerintahan","BOBOT":4,"NAMA":"Kantor Kepala Desa","SUMBER":"RBI25K PEMERINTAHAN_PT_25K","WADMKD":"Tumpuk","_cls":"Kantor Pemerintahan"},"geometry":{"type":"Point","coordinates":[111.5609,-8.03088]}},{"type":"Feature","properties":{"KATEGORI":"Masjid","BOBOT":4,"NAMA":"Masjid","SUMBER":"RBI25K SARANAIBADAH_PT_25K","WADMKD":"Sriti","_cls":"Masjid"},"geometry":{"type":"Point","coordinates":[111.63159,-7.96144]}},{"type":"Feature","properties":{"KATEGORI":"Masjid","BOBOT":4,"NAMA":"Masjid","SUMBER":"RBI25K SARANAIBADAH_PT_25K","WADMKD":"Sriti","_cls":"Masjid"},"geometry":{"type":"Point","coordinates":[111.62822,-7.97023]}},{"type":"Feature","properties":{"KATEGORI":"Masjid","BOBOT":4,"NAMA":"Masjid","SUMBER":"RBI25K SARANAIBADAH_PT_25K","WADMKD":"Sriti","_cls":"Masjid"},"geometry":{"type":"Point","coordinates":[111.64365,-7.97022]}},{"type":"Feature","properties":{"KATEGORI":"Masjid","BOBOT":4,"NAMA":"Masjid","SUMBER":"RBI25K SARANAIBADAH_PT_25K","WADMKD":"Sriti","_cls":"Masjid"},"geometry":{"type":"Point","coordinates":[111.62822,-7.97536]}},{"type":"Feature","properties":{"KATEGORI":"Masjid","BOBOT":4,"NAMA":"Masjid","SUMBER":"RBI25K SARANAIBADAH_PT_25K","WADMKD":"Tempuran","_cls":"Masjid"},"geometry":{"type":"Point","coordinates":[111.64268,-7.97754]}},{"type":"Feature","properties":{"KATEGORI":"Masjid","BOBOT":4,"NAMA":"Masjid","SUMBER":"RBI25K SARANAIBADAH_PT_25K","WADMKD":"Tempuran","_cls":"Masjid"},"geometry":{"type":"Point","coordinates":[111.62554,-7.98192]}},{"type":"Feature","properties":{"KATEGORI":"Masjid","BOBOT":4,"NAMA":"Masjid","SUMBER":"RBI25K SARANAIBADAH_PT_25K","WADMKD":"Tempuran","_cls":"Masjid"},"geometry":{"type":"Point","coordinates":[111.65397,-7.99653]}},{"type":"Feature","properties":{"KATEGORI":"Masjid","BOBOT":4,"NAMA":"Masjid","SUMBER":"RBI25K SARANAIBADAH_PT_25K","WADMKD":"Tempuran","_cls":"Masjid"},"geometry":{"type":"Point","coordinates":[111.62948,-7.99932]}},{"type":"Feature","properties":{"KATEGORI":"Masjid","BOBOT":4,"NAMA":"Masjid","SUMBER":"RBI25K SARANAIBADAH_PT_25K","WADMKD":"Bondrang","_cls":"Masjid"},"geometry":{"type":"Point","coordinates":[111.55409,-7.92956]}},{"type":"Feature","properties":{"KATEGORI":"Masjid","BOBOT":4,"NAMA":"Masjid","SUMBER":"RBI25K SARANAIBADAH_PT_25K","WADMKD":"Bondrang","_cls":"Masjid"},"geometry":{"type":"Point","coordinates":[111.54622,-7.93436]}},{"type":"Feature","properties":{"KATEGORI":"Masjid","BOBOT":4,"NAMA":"Masjid","SUMBER":"RBI25K SARANAIBADAH_PT_25K","WADMKD":"Bondrang","_cls":"Masjid"},"geometry":{"type":"Point","coordinates":[111.53841,-7.93782]}},{"type":"Feature","properties":{"KATEGORI":"Masjid","BOBOT":4,"NAMA":"Masjid","SUMBER":"RBI25K SARANAIBADAH_PT_25K","WADMKD":"Ngindeng","_cls":"Masjid"},"geometry":{"type":"Point","coordinates":[111.565,-7.94093]}},{"type":"Feature","properties":{"KATEGORI":"Masjid","BOBOT":4,"NAMA":"Masjid","SUMBER":"RBI25K SARANAIBADAH_PT_25K","WADMKD":"Ngindeng","_cls":"Masjid"},"geometry":{"type":"Point","coordinates":[111.56163,-7.94436]}},{"type":"Feature","properties":{"KATEGORI":"Masjid","BOBOT":4,"NAMA":"Masjid","SUMBER":"RBI25K SARANAIBADAH_PT_25K","WADMKD":"Temon","_cls":"Masjid"},"geometry":{"type":"Point","coordinates":[111.61551,-7.94711]}},{"type":"Feature","properties":{"KATEGORI":"Masjid","BOBOT":4,"NAMA":"Masjid","SUMBER":"RBI25K SARANAIBADAH_PT_25K","WADMKD":"Kori","_cls":"Masjid"},"geometry":{"type":"Point","coordinates":[111.55594,-7.94806]}},{"type":"Feature","properties":{"KATEGORI":"Masjid","BOBOT":4,"NAMA":"Masjid","SUMBER":"RBI25K SARANAIBADAH_PT_25K","WADMKD":"Kori","_cls":"Masjid"},"geometry":{"type":"Point","coordinates":[111.5419,-7.94868]}},{"type":"Feature","properties":{"KATEGORI":"Masjid","BOBOT":4,"NAMA":"Masjid","SUMBER":"RBI25K SARANAIBADAH_PT_25K","WADMKD":"Ketro","_cls":"Masjid"},"geometry":{"type":"Point","coordinates":[111.53829,-7.95098]}},{"type":"Feature","properties":{"KATEGORI":"Masjid","BOBOT":4,"NAMA":"Masjid","SUMBER":"RBI25K SARANAIBADAH_PT_25K","WADMKD":"Kori","_cls":"Masjid"},"geometry":{"type":"Point","coordinates":[111.54659,-7.95784]}},{"type":"Feature","properties":{"KATEGORI":"Masjid","BOBOT":4,"NAMA":"Masjid","SUMBER":"RBI25K SARANAIBADAH_PT_25K","WADMKD":"Temon","_cls":"Masjid"},"geometry":{"type":"Point","coordinates":[111.62008,-7.96187]}},{"type":"Feature","properties":{"KATEGORI":"Masjid","BOBOT":4,"NAMA":"Masjid","SUMBER":"RBI25K SARANAIBADAH_PT_25K","WADMKD":"Prayungan","_cls":"Masjid"},"geometry":{"type":"Point","coordinates":[111.56143,-7.96473]}},{"type":"Feature","properties":{"KATEGORI":"Masjid","BOBOT":4,"NAMA":"Masjid","SUMBER":"RBI25K SARANAIBADAH_PT_25K","WADMKD":"Temon","_cls":"Masjid"},"geometry":{"type":"Point","coordinates":[111.61427,-7.96667]}},{"type":"Feature","properties":{"KATEGORI":"Masjid","BOBOT":4,"NAMA":"Masjid","SUMBER":"RBI25K SARANAIBADAH_PT_25K","WADMKD":"Prayungan","_cls":"Masjid"},"geometry":{"type":"Point","coordinates":[111.56684,-7.96897]}},{"type":"Feature","properties":{"KATEGORI":"Masjid","BOBOT":4,"NAMA":"Masjid","SUMBER":"RBI25K SARANAIBADAH_PT_25K","WADMKD":"Prayungan","_cls":"Masjid"},"geometry":{"type":"Point","coordinates":[111.56003,-7.96909]}},{"type":"Feature","properties":{"KATEGORI":"Masjid","BOBOT":4,"NAMA":"Masjid","SUMBER":"RBI25K SARANAIBADAH_PT_25K","WADMKD":"Grogol","_cls":"Masjid"},"geometry":{"type":"Point","coordinates":[111.53328,-7.96937]}},{"type":"Feature","properties":{"KATEGORI":"Masjid","BOBOT":4,"NAMA":"Masjid","SUMBER":"RBI25K SARANAIBADAH_PT_25K","WADMKD":"Tugurejo","_cls":"Masjid"},"geometry":{"type":"Point","coordinates":[111.54879,-7.97001]}},{"type":"Feature","properties":{"KATEGORI":"Masjid","BOBOT":4,"NAMA":"Masjid","SUMBER":"RBI25K SARANAIBADAH_PT_25K","WADMKD":"Prayungan","_cls":"Masjid"},"geometry":{"type":"Point","coordinates":[111.56873,-7.97243]}},{"type":"Feature","properties":{"KATEGORI":"Masjid","BOBOT":4,"NAMA":"Masjid","SUMBER":"RBI25K SARANAIBADAH_PT_25K","WADMKD":"Grogol","_cls":"Masjid"},"geometry":{"type":"Point","coordinates":[111.53132,-7.9729]}},{"type":"Feature","properties":{"KATEGORI":"Masjid","BOBOT":4,"NAMA":"Masjid","SUMBER":"RBI25K SARANAIBADAH_PT_25K","WADMKD":"Sawoo","_cls":"Masjid"},"geometry":{"type":"Point","coordinates":[111.57544,-7.97477]}},{"type":"Feature","properties":{"KATEGORI":"Masjid","BOBOT":4,"NAMA":"Masjid","SUMBER":"RBI25K SARANAIBADAH_PT_25K","WADMKD":"Sawoo","_cls":"Masjid"},"geometry":{"type":"Point","coordinates":[111.58535,-7.97479]}},{"type":"Feature","properties":{"KATEGORI":"Masjid","BOBOT":4,"NAMA":"Masjid","SUMBER":"RBI25K SARANAIBADAH_PT_25K","WADMKD":"Sawoo","_cls":"Masjid"},"geometry":{"type":"Point","coordinates":[111.57989,-7.97554]}},{"type":"Feature","properties":{"KATEGORI":"Masjid","BOBOT":4,"NAMA":"Masjid","SUMBER":"RBI25K SARANAIBADAH_PT_25K","WADMKD":"Sawoo","_cls":"Masjid"},"geometry":{"type":"Point","coordinates":[111.59213,-7.97707]}},{"type":"Feature","properties":{"KATEGORI":"Masjid","BOBOT":4,"NAMA":"Masjid","SUMBER":"RBI25K SARANAIBADAH_PT_25K","WADMKD":"Tugurejo","_cls":"Masjid"},"geometry":{"type":"Point","coordinates":[111.54332,-7.9789]}},{"type":"Feature","properties":{"KATEGORI":"Masjid","BOBOT":4,"NAMA":"Masjid","SUMBER":"RBI25K SARANAIBADAH_PT_25K","WADMKD":"Tugurejo","_cls":"Masjid"},"geometry":{"type":"Point","coordinates":[111.53961,-7.97999]}},{"type":"Feature","properties":{"KATEGORI":"Masjid","BOBOT":4,"NAMA":"Masjid","SUMBER":"RBI25K SARANAIBADAH_PT_25K","WADMKD":"Sriti","_cls":"Masjid"},"geometry":{"type":"Point","coordinates":[111.61936,-7.98009]}},{"type":"Feature","properties":{"KATEGORI":"Masjid","BOBOT":4,"NAMA":"Masjid","SUMBER":"RBI25K SARANAIBADAH_PT_25K","WADMKD":"Sawoo","_cls":"Masjid"},"geometry":{"type":"Point","coordinates":[111.58384,-7.98384]}},{"type":"Feature","properties":{"KATEGORI":"Masjid","BOBOT":4,"NAMA":"Masjid","SUMBER":"RBI25K SARANAIBADAH_PT_25K","WADMKD":"Sawoo","_cls":"Masjid"},"geometry":{"type":"Point","coordinates":[111.57229,-7.98428]}},{"type":"Feature","properties":{"KATEGORI":"Masjid","BOBOT":4,"NAMA":"Masjid","SUMBER":"RBI25K SARANAIBADAH_PT_25K","WADMKD":"Temon","_cls":"Masjid"},"geometry":{"type":"Point","coordinates":[111.60083,-7.98426]}},{"type":"Feature","properties":{"KATEGORI":"Masjid","BOBOT":4,"NAMA":"Masjid","SUMBER":"RBI25K SARANAIBADAH_PT_25K","WADMKD":"Temon","_cls":"Masjid"},"geometry":{"type":"Point","coordinates":[111.61046,-7.98726]}},{"type":"Feature","properties":{"KATEGORI":"Masjid","BOBOT":4,"NAMA":"Masjid","SUMBER":"RBI25K SARANAIBADAH_PT_25K","WADMKD":"Tumpak Pelem","_cls":"Masjid"},"geometry":{"type":"Point","coordinates":[111.61249,-7.9895]}},{"type":"Feature","properties":{"KATEGORI":"Masjid","BOBOT":4,"NAMA":"Masjid","SUMBER":"RBI25K SARANAIBADAH_PT_25K","WADMKD":"Sawoo","_cls":"Masjid"},"geometry":{"type":"Point","coordinates":[111.59092,-7.99129]}},{"type":"Feature","properties":{"KATEGORI":"Masjid","BOBOT":4,"NAMA":"Masjid","SUMBER":"RBI25K SARANAIBADAH_PT_25K","WADMKD":"Tumpak Pelem","_cls":"Masjid"},"geometry":{"type":"Point","coordinates":[111.61835,-7.99143]}},{"type":"Feature","properties":{"KATEGORI":"Masjid","BOBOT":4,"NAMA":"Masjid","SUMBER":"RBI25K SARANAIBADAH_PT_25K","WADMKD":"Tumpak Pelem","_cls":"Masjid"},"geometry":{"type":"Point","coordinates":[111.6086,-7.99313]}},{"type":"Feature","properties":{"KATEGORI":"Masjid","BOBOT":4,"NAMA":"Masjid","SUMBER":"RBI25K SARANAIBADAH_PT_25K","WADMKD":"Grogol","_cls":"Masjid"},"geometry":{"type":"Point","coordinates":[111.53885,-7.99644]}},{"type":"Feature","properties":{"KATEGORI":"Masjid","BOBOT":4,"NAMA":"Masjid","SUMBER":"RBI25K SARANAIBADAH_PT_25K","WADMKD":"Pangkal","_cls":"Masjid"},"geometry":{"type":"Point","coordinates":[111.57897,-7.99759]}},{"type":"Feature","properties":{"KATEGORI":"Masjid","BOBOT":4,"NAMA":"Masjid","SUMBER":"RBI25K SARANAIBADAH_PT_25K","WADMKD":"Tempuran","_cls":"Masjid"},"geometry":{"type":"Point","coordinates":[111.65139,-8.01885]}},{"type":"Feature","properties":{"KATEGORI":"Masjid","BOBOT":4,"NAMA":"Masjid","SUMBER":"RBI25K SARANAIBADAH_PT_25K","WADMKD":"Pangkal","_cls":"Masjid"},"geometry":{"type":"Point","coordinates":[111.57591,-8.00307]}},{"type":"Feature","properties":{"KATEGORI":"Masjid","BOBOT":4,"NAMA":"Masjid","SUMBER":"RBI25K SARANAIBADAH_PT_25K","WADMKD":"Grogol","_cls":"Masjid"},"geometry":{"type":"Point","coordinates":[111.55609,-8.0032]}},{"type":"Feature","properties":{"KATEGORI":"Masjid","BOBOT":4,"NAMA":"Masjid","SUMBER":"RBI25K SARANAIBADAH_PT_25K","WADMKD":"Pangkal","_cls":"Masjid"},"geometry":{"type":"Point","coordinates":[111.57093,-8.00511]}},{"type":"Feature","properties":{"KATEGORI":"Masjid","BOBOT":4,"NAMA":"Masjid","SUMBER":"RBI25K SARANAIBADAH_PT_25K","WADMKD":"Pangkal","_cls":"Masjid"},"geometry":{"type":"Point","coordinates":[111.56226,-8.0115]}},{"type":"Feature","properties":{"KATEGORI":"Masjid","BOBOT":4,"NAMA":"Masjid","SUMBER":"RBI25K SARANAIBADAH_PT_25K","WADMKD":"Grogol","_cls":"Masjid"},"geometry":{"type":"Point","coordinates":[111.54954,-8.01401]}},{"type":"Feature","properties":{"KATEGORI":"Masjid","BOBOT":4,"NAMA":"Masjid","SUMBER":"RBI25K SARANAIBADAH_PT_25K","WADMKD":"Pangkal","_cls":"Masjid"},"geometry":{"type":"Point","coordinates":[111.59197,-8.0144]}},{"type":"Feature","properties":{"KATEGORI":"Masjid","BOBOT":4,"NAMA":"Masjid","SUMBER":"RBI25K SARANAIBADAH_PT_25K","WADMKD":"Pangkal","_cls":"Masjid"},"geometry":{"type":"Point","coordinates":[111.57204,-8.01502]}},{"type":"Feature","properties":{"KATEGORI":"Masjid","BOBOT":4,"NAMA":"Masjid","SUMBER":"RBI25K SARANAIBADAH_PT_25K","WADMKD":"Tumpak Pelem","_cls":"Masjid"},"geometry":{"type":"Point","coordinates":[111.59958,-8.01546]}},{"type":"Feature","properties":{"KATEGORI":"Masjid","BOBOT":4,"NAMA":"Masjid","SUMBER":"RBI25K SARANAIBADAH_PT_25K","WADMKD":"Pangkal","_cls":"Masjid"},"geometry":{"type":"Point","coordinates":[111.5699,-8.02095]}},{"type":"Feature","properties":{"KATEGORI":"Masjid","BOBOT":4,"NAMA":"Masjid","SUMBER":"RBI25K SARANAIBADAH_PT_25K","WADMKD":"Pangkal","_cls":"Masjid"},"geometry":{"type":"Point","coordinates":[111.57927,-8.021]}},{"type":"Feature","properties":{"KATEGORI":"Masjid","BOBOT":4,"NAMA":"Masjid","SUMBER":"RBI25K SARANAIBADAH_PT_25K","WADMKD":"Tumpuk","_cls":"Masjid"},"geometry":{"type":"Point","coordinates":[111.56006,-8.03124]}},{"type":"Feature","properties":{"KATEGORI":"Masjid","BOBOT":4,"NAMA":"Masjid","SUMBER":"RBI25K SARANAIBADAH_PT_25K","WADMKD":"Tumpuk","_cls":"Masjid"},"geometry":{"type":"Point","coordinates":[111.56619,-8.03289]}},{"type":"Feature","properties":{"KATEGORI":"Masjid","BOBOT":4,"NAMA":"Masjid","SUMBER":"RBI25K SARANAIBADAH_PT_25K","WADMKD":"Tumpuk","_cls":"Masjid"},"geometry":{"type":"Point","coordinates":[111.56879,-8.03588]}},{"type":"Feature","properties":{"KATEGORI":"Masjid","BOBOT":4,"NAMA":"Masjid","SUMBER":"RBI25K SARANAIBADAH_PT_25K","WADMKD":"Tumpuk","_cls":"Masjid"},"geometry":{"type":"Point","coordinates":[111.55602,-8.03854]}},{"type":"Feature","properties":{"KATEGORI":"Faskes (jenis belum teridentifikasi)","BOBOT":4,"NAMA":"Rumah Sakit Khusus","SUMBER":"RBI25K RUMAHSAKIT_PT_25K","WADMKD":"Sriti","_cls":"Faskes (jenis belum teridentifikasi)"},"geometry":{"type":"Point","coordinates":[111.62829,-7.97817]}},{"type":"Feature","properties":{"KATEGORI":"Faskes (jenis belum teridentifikasi)","BOBOT":4,"NAMA":"Rumah Sakit Khusus","SUMBER":"RBI25K RUMAHSAKIT_PT_25K","WADMKD":"Sawoo","_cls":"Faskes (jenis belum teridentifikasi)"},"geometry":{"type":"Point","coordinates":[111.57224,-7.97475]}},{"type":"Feature","properties":{"KATEGORI":"Faskes (jenis belum teridentifikasi)","BOBOT":4,"NAMA":"Rumah Sakit Khusus","SUMBER":"RBI25K RUMAHSAKIT_PT_25K","WADMKD":"Temon","_cls":"Faskes (jenis belum teridentifikasi)"},"geometry":{"type":"Point","coordinates":[111.61231,-7.98489]}},{"type":"Feature","properties":{"KATEGORI":"Faskes (jenis belum teridentifikasi)","BOBOT":4,"NAMA":"Rumah Sakit Khusus","SUMBER":"RBI25K RUMAHSAKIT_PT_25K","WADMKD":"Pangkal","_cls":"Faskes (jenis belum teridentifikasi)"},"geometry":{"type":"Point","coordinates":[111.5777,-8.02293]}},{"type":"Feature","properties":{"KATEGORI":"Pasar","BOBOT":5,"NAMA":"Pusat Bisnis dan Perdagangan Lainnya","SUMBER":"RBI25K NIAGA_PT_25K","WADMKD":"Tempuran","_cls":"Pasar"},"geometry":{"type":"Point","coordinates":[111.63835,-7.98452]}},{"type":"Feature","properties":{"KATEGORI":"Pasar","BOBOT":5,"NAMA":"Pusat Bisnis dan Perdagangan Lainnya","SUMBER":"RBI25K NIAGA_PT_25K","WADMKD":"Temon","_cls":"Pasar"},"geometry":{"type":"Point","coordinates":[111.62047,-7.96307]}},{"type":"Feature","properties":{"KATEGORI":"Pasar","BOBOT":5,"NAMA":"Pusat Bisnis dan Perdagangan Lainnya","SUMBER":"RBI25K NIAGA_PT_25K","WADMKD":"Grogol","_cls":"Pasar"},"geometry":{"type":"Point","coordinates":[111.53602,-7.97832]}},{"type":"Feature","properties":{"KATEGORI":"Pasar","BOBOT":5,"NAMA":"Pusat Bisnis dan Perdagangan Lainnya","SUMBER":"RBI25K NIAGA_PT_25K","WADMKD":"Tumpak Pelem","_cls":"Pasar"},"geometry":{"type":"Point","coordinates":[111.60723,-7.98869]}},{"type":"Feature","properties":{"KATEGORI":"Toko/Minimarket","BOBOT":2,"NAMA":null,"SUMBER":"OSM node/5751453208","WADMKD":"Pangkal","_cls":"Toko/Minimarket"},"geometry":{"type":"Point","coordinates":[111.57821,-8.02026]}},{"type":"Feature","properties":{"KATEGORI":"Pasar","BOBOT":5,"NAMA":"Pasar Sawoo","SUMBER":"OSM node/8380550612","WADMKD":"Sawoo","_cls":"Pasar"},"geometry":{"type":"Point","coordinates":[111.57518,-7.97526]}},{"type":"Feature","properties":{"KATEGORI":"Masjid","BOBOT":4,"NAMA":null,"SUMBER":"OSM way/688825129","WADMKD":"Grogol","_cls":"Masjid"},"geometry":{"type":"Point","coordinates":[111.53273,-7.96877]}},{"type":"Feature","properties":{"KATEGORI":"Masjid","BOBOT":4,"NAMA":null,"SUMBER":"OSM way/688836954","WADMKD":"Grogol","_cls":"Masjid"},"geometry":{"type":"Point","coordinates":[111.53383,-7.9772]}},{"type":"Feature","properties":{"KATEGORI":"Masjid","BOBOT":4,"NAMA":null,"SUMBER":"OSM way/689064701","WADMKD":"Grogol","_cls":"Masjid"},"geometry":{"type":"Point","coordinates":[111.53657,-7.98287]}},{"type":"Feature","properties":{"KATEGORI":"Masjid","BOBOT":4,"NAMA":null,"SUMBER":"OSM way/689064707","WADMKD":"Grogol","_cls":"Masjid"},"geometry":{"type":"Point","coordinates":[111.53875,-7.98921]}},{"type":"Feature","properties":{"KATEGORI":"Masjid","BOBOT":4,"NAMA":null,"SUMBER":"OSM way/689064728","WADMKD":"Sawoo","_cls":"Masjid"},"geometry":{"type":"Point","coordinates":[111.57795,-7.97662]}},{"type":"Feature","properties":{"KATEGORI":"Masjid","BOBOT":4,"NAMA":null,"SUMBER":"OSM way/689064736","WADMKD":"Prayungan","_cls":"Masjid"},"geometry":{"type":"Point","coordinates":[111.56211,-7.97169]}},{"type":"Feature","properties":{"KATEGORI":"Masjid","BOBOT":4,"NAMA":null,"SUMBER":"OSM way/689064742","WADMKD":"Sawoo","_cls":"Masjid"},"geometry":{"type":"Point","coordinates":[111.58428,-7.97742]}},{"type":"Feature","properties":{"KATEGORI":"Masjid","BOBOT":4,"NAMA":null,"SUMBER":"OSM way/689064760","WADMKD":"Sawoo","_cls":"Masjid"},"geometry":{"type":"Point","coordinates":[111.58693,-7.97441]}},{"type":"Feature","properties":{"KATEGORI":"Masjid","BOBOT":4,"NAMA":null,"SUMBER":"OSM way/689064776","WADMKD":"Ngindeng","_cls":"Masjid"},"geometry":{"type":"Point","coordinates":[111.57354,-7.94263]}},{"type":"Feature","properties":{"KATEGORI":"Masjid","BOBOT":4,"NAMA":null,"SUMBER":"OSM way/689064783","WADMKD":"Ketro","_cls":"Masjid"},"geometry":{"type":"Point","coordinates":[111.53598,-7.95592]}},{"type":"Feature","properties":{"KATEGORI":"Masjid","BOBOT":4,"NAMA":null,"SUMBER":"OSM way/689068593","WADMKD":"Grogol","_cls":"Masjid"},"geometry":{"type":"Point","coordinates":[111.54077,-7.98033]}},{"type":"Feature","properties":{"KATEGORI":"Masjid","BOBOT":4,"NAMA":null,"SUMBER":"OSM way/689068597","WADMKD":"Grogol","_cls":"Masjid"},"geometry":{"type":"Point","coordinates":[111.53828,-7.98]}},{"type":"Feature","properties":{"KATEGORI":"Masjid","BOBOT":4,"NAMA":null,"SUMBER":"OSM way/689068604","WADMKD":"Ngindeng","_cls":"Masjid"},"geometry":{"type":"Point","coordinates":[111.56328,-7.94445]}},{"type":"Feature","properties":{"KATEGORI":"Masjid","BOBOT":4,"NAMA":null,"SUMBER":"OSM way/689068606","WADMKD":"Sawoo","_cls":"Masjid"},"geometry":{"type":"Point","coordinates":[111.57474,-7.98295]}},{"type":"Feature","properties":{"KATEGORI":"Masjid","BOBOT":4,"NAMA":null,"SUMBER":"OSM way/689071602","WADMKD":"Sawoo","_cls":"Masjid"},"geometry":{"type":"Point","coordinates":[111.57379,-7.97901]}},{"type":"Feature","properties":{"KATEGORI":"Masjid","BOBOT":4,"NAMA":null,"SUMBER":"OSM way/689094189","WADMKD":"Grogol","_cls":"Masjid"},"geometry":{"type":"Point","coordinates":[111.53951,-7.98483]}},{"type":"Feature","properties":{"KATEGORI":"Masjid","BOBOT":4,"NAMA":null,"SUMBER":"OSM way/689094191","WADMKD":"Ngindeng","_cls":"Masjid"},"geometry":{"type":"Point","coordinates":[111.56258,-7.94894]}},{"type":"Feature","properties":{"KATEGORI":"Masjid","BOBOT":4,"NAMA":null,"SUMBER":"OSM way/689094193","WADMKD":"Tugurejo","_cls":"Masjid"},"geometry":{"type":"Point","coordinates":[111.54145,-7.97588]}},{"type":"Feature","properties":{"KATEGORI":"Masjid","BOBOT":4,"NAMA":null,"SUMBER":"OSM way/689094196","WADMKD":"Grogol","_cls":"Masjid"},"geometry":{"type":"Point","coordinates":[111.53938,-7.98238]}},{"type":"Feature","properties":{"KATEGORI":"Masjid","BOBOT":4,"NAMA":null,"SUMBER":"OSM way/689094201","WADMKD":"Temon","_cls":"Masjid"},"geometry":{"type":"Point","coordinates":[111.61188,-7.96149]}},{"type":"Feature","properties":{"KATEGORI":"Masjid","BOBOT":4,"NAMA":null,"SUMBER":"OSM way/689094208","WADMKD":"Kori","_cls":"Masjid"},"geometry":{"type":"Point","coordinates":[111.55502,-7.94851]}},{"type":"Feature","properties":{"KATEGORI":"Masjid","BOBOT":4,"NAMA":null,"SUMBER":"OSM way/689094211","WADMKD":"Ngindeng","_cls":"Masjid"},"geometry":{"type":"Point","coordinates":[111.55831,-7.94948]}},{"type":"Feature","properties":{"KATEGORI":"Masjid","BOBOT":4,"NAMA":null,"SUMBER":"OSM way/689094213","WADMKD":"Grogol","_cls":"Masjid"},"geometry":{"type":"Point","coordinates":[111.53686,-7.98809]}},{"type":"Feature","properties":{"KATEGORI":"Masjid","BOBOT":4,"NAMA":null,"SUMBER":"OSM way/689094217","WADMKD":"Grogol","_cls":"Masjid"},"geometry":{"type":"Point","coordinates":[111.53468,-7.97146]}},{"type":"Feature","properties":{"KATEGORI":"Masjid","BOBOT":4,"NAMA":null,"SUMBER":"OSM way/689094247","WADMKD":"Tugurejo","_cls":"Masjid"},"geometry":{"type":"Point","coordinates":[111.53974,-7.97782]}},{"type":"Feature","properties":{"KATEGORI":"Masjid","BOBOT":4,"NAMA":null,"SUMBER":"OSM way/689094249","WADMKD":"Sawoo","_cls":"Masjid"},"geometry":{"type":"Point","coordinates":[111.57401,-7.98578]}},{"type":"Feature","properties":{"KATEGORI":"Masjid","BOBOT":4,"NAMA":null,"SUMBER":"OSM way/689570660","WADMKD":"Sriti","_cls":"Masjid"},"geometry":{"type":"Point","coordinates":[111.64581,-7.97258]}},{"type":"Feature","properties":{"KATEGORI":"Masjid","BOBOT":4,"NAMA":null,"SUMBER":"OSM way/689570666","WADMKD":"Tumpak Pelem","_cls":"Masjid"},"geometry":{"type":"Point","coordinates":[111.62205,-7.98905]}},{"type":"Feature","properties":{"KATEGORI":"Masjid","BOBOT":4,"NAMA":null,"SUMBER":"OSM way/1109387805","WADMKD":"Kori","_cls":"Masjid"},"geometry":{"type":"Point","coordinates":[111.54847,-7.95837]}}]}