{"type":"FeatureCollection","features":[{"type":"Feature","properties":{"REMARK":"Masjid"},"geometry":{"type":"Point","coordinates":[111.63159,-7.96144]}},{"type":"Feature","properties":{"REMARK":"Masjid"},"geometry":{"type":"Point","coordinates":[111.62822,-7.97023]}},{"type":"Feature","properties":{"REMARK":"Masjid"},"geometry":{"type":"Point","coordinates":[111.64365,-7.97022]}},{"type":"Feature","properties":{"REMARK":"Masjid"},"geometry":{"type":"Point","coordinates":[111.62822,-7.97536]}},{"type":"Feature","properties":{"REMARK":"Masjid"},"geometry":{"type":"Point","coordinates":[111.64268,-7.97754]}},{"type":"Feature","properties":{"REMARK":"Masjid"},"geometry":{"type":"Point","coordinates":[111.62554,-7.98192]}},{"type":"Feature","properties":{"REMARK":"Masjid"},"geometry":{"type":"Point","coordinates":[111.65397,-7.99653]}},{"type":"Feature","properties":{"REMARK":"Masjid"},"geometry":{"type":"Point","coordinates":[111.62948,-7.99932]}},{"type":"Feature","properties":{"REMARK":"Masjid"},"geometry":{"type":"Point","coordinates":[111.55409,-7.92956]}},{"type":"Feature","properties":{"REMARK":"Masjid"},"geometry":{"type":"Point","coordinates":[111.54622,-7.93436]}},{"type":"Feature","properties":{"REMARK":"Masjid"},"geometry":{"type":"Point","coordinates":[111.53841,-7.93782]}},{"type":"Feature","properties":{"REMARK":"Masjid"},"geometry":{"type":"Point","coordinates":[111.565,-7.94093]}},{"type":"Feature","properties":{"REMARK":"Masjid"},"geometry":{"type":"Point","coordinates":[111.56163,-7.94436]}},{"type":"Feature","properties":{"REMARK":"Masjid"},"geometry":{"type":"Point","coordinates":[111.61551,-7.94711]}},{"type":"Feature","properties":{"REMARK":"Masjid"},"geometry":{"type":"Point","coordinates":[111.55594,-7.94806]}},{"type":"Feature","properties":{"REMARK":"Masjid"},"geometry":{"type":"Point","coordinates":[111.5419,-7.94868]}},{"type":"Feature","properties":{"REMARK":"Masjid"},"geometry":{"type":"Point","coordinates":[111.53829,-7.95098]}},{"type":"Feature","properties":{"REMARK":"Masjid"},"geometry":{"type":"Point","coordinates":[111.54659,-7.95784]}},{"type":"Feature","properties":{"REMARK":"Masjid"},"geometry":{"type":"Point","coordinates":[111.62008,-7.96187]}},{"type":"Feature","properties":{"REMARK":"Masjid"},"geometry":{"type":"Point","coordinates":[111.56143,-7.96473]}},{"type":"Feature","properties":{"REMARK":"Masjid"},"geometry":{"type":"Point","coordinates":[111.61427,-7.96667]}},{"type":"Feature","properties":{"REMARK":"Masjid"},"geometry":{"type":"Point","coordinates":[111.56684,-7.96897]}},{"type":"Feature","properties":{"REMARK":"Masjid"},"geometry":{"type":"Point","coordinates":[111.56003,-7.96909]}},{"type":"Feature","properties":{"REMARK":"Masjid"},"geometry":{"type":"Point","coordinates":[111.53328,-7.96937]}},{"type":"Feature","properties":{"REMARK":"Masjid"},"geometry":{"type":"Point","coordinates":[111.54879,-7.97001]}},{"type":"Feature","properties":{"REMARK":"Masjid"},"geometry":{"type":"Point","coordinates":[111.56873,-7.97243]}},{"type":"Feature","properties":{"REMARK":"Masjid"},"geometry":{"type":"Point","coordinates":[111.53132,-7.9729]}},{"type":"Feature","properties":{"REMARK":"Masjid"},"geometry":{"type":"Point","coordinates":[111.57544,-7.97477]}},{"type":"Feature","properties":{"REMARK":"Masjid"},"geometry":{"type":"Point","coordinates":[111.58535,-7.97479]}},{"type":"Feature","properties":{"REMARK":"Masjid"},"geometry":{"type":"Point","coordinates":[111.57989,-7.97554]}},{"type":"Feature","properties":{"REMARK":"Masjid"},"geometry":{"type":"Point","coordinates":[111.59213,-7.97707]}},{"type":"Feature","properties":{"REMARK":"Masjid"},"geometry":{"type":"Point","coordinates":[111.54332,-7.9789]}},{"type":"Feature","properties":{"REMARK":"Masjid"},"geometry":{"type":"Point","coordinates":[111.53961,-7.97999]}},{"type":"Feature","properties":{"REMARK":"Masjid"},"geometry":{"type":"Point","coordinates":[111.61936,-7.98009]}},{"type":"Feature","properties":{"REMARK":"Masjid"},"geometry":{"type":"Point","coordinates":[111.58384,-7.98384]}},{"type":"Feature","properties":{"REMARK":"Masjid"},"geometry":{"type":"Point","coordinates":[111.57229,-7.98428]}},{"type":"Feature","properties":{"REMARK":"Masjid"},"geometry":{"type":"Point","coordinates":[111.60083,-7.98426]}},{"type":"Feature","properties":{"REMARK":"Masjid"},"geometry":{"type":"Point","coordinates":[111.61046,-7.98726]}},{"type":"Feature","properties":{"REMARK":"Masjid"},"geometry":{"type":"Point","coordinates":[111.61249,-7.9895]}},{"type":"Feature","properties":{"REMARK":"Masjid"},"geometry":{"type":"Point","coordinates":[111.59092,-7.99129]}},{"type":"Feature","properties":{"REMARK":"Masjid"},"geometry":{"type":"Point","coordinates":[111.61835,-7.99143]}},{"type":"Feature","properties":{"REMARK":"Masjid"},"geometry":{"type":"Point","coordinates":[111.6086,-7.99313]}},{"type":"Feature","properties":{"REMARK":"Masjid"},"geometry":{"type":"Point","coordinates":[111.53885,-7.99644]}},{"type":"Feature","properties":{"REMARK":"Masjid"},"geometry":{"type":"Point","coordinates":[111.57897,-7.99759]}},{"type":"Feature","properties":{"REMARK":"Masjid"},"geometry":{"type":"Point","coordinates":[111.65139,-8.01885]}},{"type":"Feature","properties":{"REMARK":"Masjid"},"geometry":{"type":"Point","coordinates":[111.57591,-8.00307]}},{"type":"Feature","properties":{"REMARK":"Masjid"},"geometry":{"type":"Point","coordinates":[111.55609,-8.0032]}},{"type":"Feature","properties":{"REMARK":"Masjid"},"geometry":{"type":"Point","coordinates":[111.57093,-8.00511]}},{"type":"Feature","properties":{"REMARK":"Masjid"},"geometry":{"type":"Point","coordinates":[111.56226,-8.0115]}},{"type":"Feature","properties":{"REMARK":"Masjid"},"geometry":{"type":"Point","coordinates":[111.54954,-8.01401]}},{"type":"Feature","properties":{"REMARK":"Masjid"},"geometry":{"type":"Point","coordinates":[111.59197,-8.0144]}},{"type":"Feature","properties":{"REMARK":"Masjid"},"geometry":{"type":"Point","coordinates":[111.57204,-8.01502]}},{"type":"Feature","properties":{"REMARK":"Masjid"},"geometry":{"type":"Point","coordinates":[111.59958,-8.01546]}},{"type":"Feature","properties":{"REMARK":"Masjid"},"geometry":{"type":"Point","coordinates":[111.5699,-8.02095]}},{"type":"Feature","properties":{"REMARK":"Masjid"},"geometry":{"type":"Point","coordinates":[111.57927,-8.021]}},{"type":"Feature","properties":{"REMARK":"Masjid"},"geometry":{"type":"Point","coordinates":[111.56006,-8.03124]}},{"type":"Feature","properties":{"REMARK":"Masjid"},"geometry":{"type":"Point","coordinates":[111.56619,-8.03289]}},{"type":"Feature","properties":{"REMARK":"Masjid"},"geometry":{"type":"Point","coordinates":[111.56879,-8.03588]}},{"type":"Feature","properties":{"REMARK":"Masjid"},"geometry":{"type":"Point","coordinates":[111.55602,-8.03854]}}]}