{"type":"FeatureCollection","features":[{"type":"Feature","properties":{"tanggal":"12/15/2009","waktu":"11:12:15","bujur":111.587,"lintang":-8.007,"kedalaman":95,"magnitudo":2.5,"kelaskedal":"Menengah"},"geometry":{"type":"Point","coordinates":[111.5873,-8.0074]}},{"type":"Feature","properties":{"tanggal":"11/28/2012","waktu":"21:28:52","bujur":111.569,"lintang":-7.946,"kedalaman":62,"magnitudo":1.6,"kelaskedal":"Menengah"},"geometry":{"type":"Point","coordinates":[111.5693,-7.9461]}},{"type":"Feature","properties":{"tanggal":"05/21/2021","waktu":"10:08:26","bujur":111.575,"lintang":-7.999,"kedalaman":122,"magnitudo":2.8,"kelaskedal":"Menengah"},"geometry":{"type":"Point","coordinates":[111.5749,-7.9986]}}]}