{"type":"FeatureCollection","features":[{"type":"Feature","properties":{"REMARK":"Semak Belukar"},"geometry":{"type":"Polygon","coordinates":[[[111.57188,-7.91845],[111.57197,-7.91862],[111.57188,-7.91851],[111.57188,-7.91845]]]}},{"type":"Feature","properties":{"REMARK":"Semak Belukar"},"geometry":{"type":"Polygon","coordinates":[[[111.58213,-7.93083],[111.58229,-7.93101],[111.58238,-7.93122],[111.58236,-7.93158],[111.58203,-7.93112],[111.58187,-7.931],[111.58173,-7.93098],[111.58134,-7.93102],[111.58107,-7.93113],[111.58082,-7.9313],[111.58026,-7.93178],[111.57976,-7.93228],[111.57968,-7.93247],[111.57965,-7.9328],[111.57951,-7.93343],[111.57938,-7.93376],[111.57926,-7.93387],[111.57878,-7.93397],[111.57853,-7.93408],[111.5782,-7.93429],[111.57814,-7.93442],[111.5782,-7.93513],[111.57812,-7.93527],[111.57803,-7.9353],[111.57789,-7.93525],[111.57673,-7.93469],[111.5765,-7.93464],[111.57628,-7.93467],[111.57616,-7.93474],[111.57611,-7.9349],[111.57612,-7.93514],[111.57618,-7.93521],[111.57639,-7.93526],[111.5764,-7.93534],[111.57635,-7.93549],[111.57622,-7.93573],[111.57564,-7.93617],[111.57464,-7.93675],[111.57414,-7.93711],[111.57358,-7.93762],[111.57298,-7.93738],[111.57241,-7.93721],[111.57178,-7.93785],[111.57155,-7.93748],[111.57119,-7.93705],[111.57108,-7.93706],[111.57061,-7.93735],[111.57035,-7.93757],[111.56979,-7.93814],[111.56936,-7.93893],[111.56933,-7.93926],[111.56821,-7.93894],[111.56805,-7.93848],[111.56805,-7.93828],[111.56831,-7.93786],[111.56826,-7.93768],[111.56812,-7.93748],[111.56794,-7.93696],[111.56883,-7.93657],[111.56928,-7.93633],[111.57063,-7.93577],[111.57056,-7.93596],[111.57177,-7.93573],[111.5733,-7.93592],[111.57355,-7.93591],[111.57387,-7.93579],[111.57434,-7.93542],[111.5757,-7.93394],[111.5764,-7.93366],[111.5769,-7.93357],[111.57759,-7.93362],[111.57772,-7.93355],[111.57797,-7.93312],[111.5782,-7.93284],[111.57955,-7.93178],[111.58043,-7.93097],[111.58061,-7.93085],[111.58176,-7.93063],[111.58191,-7.93066],[111.58213,-7.93083]]]}},{"type":"Feature","properties":{"REMARK":"Semak Belukar"},"geometry":{"type":"Polygon","coordinates":[[[111.58107,-7.93786],[111.58061,-7.93901],[111.58038,-7.93984],[111.58039,-7.94011],[111.58056,-7.94054],[111.58098,-7.94096],[111.58251,-7.94208],[111.58276,-7.94221],[111.58357,-7.94247],[111.58422,-7.9426],[111.58517,-7.94273],[111.58545,-7.94285],[111.58558,-7.94296],[111.58562,-7.94326],[111.58555,-7.94352],[111.58512,-7.94409],[111.5851,-7.9442],[111.5852,-7.94432],[111.58562,-7.94462],[111.58731,-7.94531],[111.58736,-7.94529],[111.58755,-7.9449],[111.58768,-7.94472],[111.58839,-7.94422],[111.58841,-7.9441],[111.58929,-7.9449],[111.58949,-7.94512],[111.5897,-7.94547],[111.58994,-7.94568],[111.59077,-7.94617],[111.59131,-7.94655],[111.59142,-7.94668],[111.59186,-7.94774],[111.59255,-7.95009],[111.59257,-7.95068],[111.59245,-7.95131],[111.59249,-7.95149],[111.59267,-7.95193],[111.59338,-7.9531],[111.59348,-7.95318],[111.59359,-7.9532],[111.59379,-7.95315],[111.59414,-7.95286],[111.59433,-7.95282],[111.59447,-7.95285],[111.5946,-7.95294],[111.59469,-7.95313],[111.59476,-7.95399],[111.59461,-7.95467],[111.59461,-7.95488],[111.59503,-7.95572],[111.59509,-7.95595],[111.59508,-7.95605],[111.59492,-7.9562],[111.59415,-7.9566],[111.59396,-7.95675],[111.59373,-7.95706],[111.59342,-7.95816],[111.59334,-7.9583],[111.59264,-7.9586],[111.5921,-7.95968],[111.59205,-7.96022],[111.59204,-7.96111],[111.59206,-7.96133],[111.59212,-7.96146],[111.59229,-7.96161],[111.59326,-7.96189],[111.59363,-7.96212],[111.5938,-7.96226],[111.59406,-7.96265],[111.59416,-7.96289],[111.59419,-7.96336],[111.59414,-7.96385],[111.59378,-7.96484],[111.5938,-7.96507],[111.59418,-7.96572],[111.59463,-7.96638],[111.59488,-7.96665],[111.59518,-7.96686],[111.5954,-7.96694],[111.59582,-7.96693],[111.59674,-7.96674],[111.597,-7.96664],[111.59719,-7.96651],[111.59753,-7.96591],[111.59774,-7.96578],[111.59814,-7.96569],[111.5986,-7.96572],[111.5987,-7.96555],[111.59879,-7.96548],[111.59934,-7.9653],[111.59944,-7.96532],[111.59931,-7.96546],[111.59934,-7.96577],[111.59965,-7.96582],[111.59985,-7.96589],[111.59998,-7.966],[111.60009,-7.96643],[111.60025,-7.96654],[111.60045,-7.96661],[111.60058,-7.96661],[111.60075,-7.9665],[111.60085,-7.96637],[111.60085,-7.96662],[111.60096,-7.96701],[111.60105,-7.96764],[111.60118,-7.96781],[111.60167,-7.96802],[111.60184,-7.96815],[111.60195,-7.96838],[111.60199,-7.96859],[111.60197,-7.96873],[111.60186,-7.96898],[111.601,-7.97041],[111.60054,-7.97129],[111.59986,-7.97181],[111.59952,-7.97219],[111.59968,-7.97233],[111.59974,-7.97269],[111.59972,-7.97318],[111.59959,-7.97374],[111.5993,-7.97451],[111.599,-7.97502],[111.59885,-7.97517],[111.59871,-7.97554],[111.59864,-7.97563],[111.59836,-7.97565],[111.59768,-7.97579],[111.59745,-7.97575],[111.59723,-7.97566],[111.59716,-7.97599],[111.59722,-7.97617],[111.59707,-7.97691],[111.597,-7.97779],[111.59692,-7.97823],[111.59677,-7.97847],[111.5963,-7.9789],[111.59602,-7.97897],[111.59583,-7.97894],[111.59519,-7.97863],[111.59488,-7.97844],[111.59449,-7.97805],[111.59432,-7.97781],[111.59366,-7.9771],[111.59414,-7.97645],[111.59429,-7.97583],[111.59474,-7.97522],[111.59486,-7.97513],[111.59502,-7.9751],[111.59512,-7.97513],[111.59557,-7.97558],[111.59608,-7.97584],[111.59636,-7.97592],[111.59646,-7.9759],[111.5967,-7.97562],[111.59567,-7.97496],[111.59545,-7.97475],[111.59525,-7.97437],[111.59503,-7.97333],[111.59497,-7.9732],[111.59481,-7.97307],[111.59456,-7.97294],[111.59373,-7.97269],[111.59251,-7.97244],[111.59232,-7.9723],[111.59215,-7.97204],[111.592,-7.97163],[111.59188,-7.97088],[111.5919,-7.9706],[111.59198,-7.9702],[111.59209,-7.97001],[111.59296,-7.96924],[111.59335,-7.96896],[111.5935,-7.96889],[111.59324,-7.96878],[111.59307,-7.96877],[111.5927,-7.96884],[111.59244,-7.96894],[111.59213,-7.96911],[111.59159,-7.96946],[111.59228,-7.96876],[111.59236,-7.96863],[111.5925,-7.96823],[111.59215,-7.96862],[111.59183,-7.96891],[111.59161,-7.96898],[111.59148,-7.96896],[111.59131,-7.96883],[111.59121,-7.96881],[111.59092,-7.96888],[111.58984,-7.96942],[111.58949,-7.96951],[111.58924,-7.9695],[111.589,-7.96941],[111.58863,-7.96913],[111.58816,-7.96867],[111.58799,-7.96865],[111.58751,-7.9688],[111.58726,-7.96879],[111.58706,-7.96868],[111.58655,-7.96827],[111.58619,-7.96788],[111.58576,-7.96728],[111.58554,-7.96709],[111.58538,-7.96703],[111.58472,-7.96715],[111.58446,-7.96696],[111.58407,-7.9666],[111.5839,-7.96638],[111.58349,-7.96564],[111.58333,-7.96522],[111.58271,-7.96449],[111.5829,-7.96399],[111.58291,-7.96374],[111.58274,-7.96278],[111.58254,-7.96235],[111.58245,-7.96209],[111.58253,-7.96136],[111.58218,-7.96118],[111.58142,-7.961],[111.58131,-7.96089],[111.58145,-7.96022],[111.58024,-7.95998],[111.58008,-7.96058],[111.57949,-7.96056],[111.57871,-7.96061],[111.5784,-7.96054],[111.57787,-7.96026],[111.57734,-7.9604],[111.57686,-7.96062],[111.57642,-7.96028],[111.57524,-7.96091],[111.57506,-7.96082],[111.57371,-7.96144],[111.57402,-7.96062],[111.57419,-7.95996],[111.57371,-7.95883],[111.57357,-7.95842],[111.57355,-7.95817],[111.57385,-7.95669],[111.57392,-7.95612],[111.57387,-7.95314],[111.57404,-7.95043],[111.57412,-7.95013],[111.57408,-7.95007],[111.57395,-7.94811],[111.57382,-7.94755],[111.57352,-7.94674],[111.57316,-7.94626],[111.57284,-7.94601],[111.57204,-7.9457],[111.57172,-7.94562],[111.57154,-7.94561],[111.57149,-7.94693],[111.57153,-7.94753],[111.57146,-7.9479],[111.57136,-7.94801],[111.5708,-7.94835],[111.56954,-7.94936],[111.5688,-7.95003],[111.56769,-7.95137],[111.56735,-7.95191],[111.56689,-7.95304],[111.56678,-7.95319],[111.56662,-7.95328],[111.56542,-7.95355],[111.56524,-7.9537],[111.56381,-7.95531],[111.56343,-7.95428],[111.56318,-7.95373],[111.56303,-7.95341],[111.56253,-7.95255],[111.56397,-7.95216],[111.56441,-7.952],[111.56446,-7.95188],[111.56453,-7.95151],[111.56458,-7.95018],[111.5647,-7.94907],[111.5647,-7.94824],[111.56513,-7.94774],[111.56532,-7.9476],[111.56594,-7.94739],[111.56666,-7.94719],[111.56692,-7.94708],[111.56722,-7.94679],[111.56734,-7.94661],[111.56766,-7.94594],[111.56831,-7.94543],[111.56858,-7.9453],[111.56894,-7.94507],[111.56906,-7.94491],[111.5694,-7.94385],[111.56983,-7.94313],[111.57011,-7.94277],[111.57105,-7.94259],[111.57176,-7.94253],[111.57267,-7.94235],[111.57282,-7.94215],[111.57309,-7.94155],[111.57319,-7.94142],[111.57465,-7.94102],[111.57525,-7.94068],[111.57534,-7.94052],[111.57537,-7.94032],[111.57526,-7.93905],[111.57541,-7.93878],[111.57593,-7.93832],[111.57609,-7.93789],[111.57655,-7.93776],[111.57696,-7.93801],[111.57758,-7.93827],[111.57768,-7.93823],[111.57788,-7.93758],[111.57806,-7.9373],[111.5783,-7.93708],[111.57851,-7.93701],[111.57954,-7.9369],[111.57975,-7.93678],[111.58003,-7.93656],[111.58094,-7.93571],[111.58117,-7.93514],[111.58135,-7.93538],[111.58161,-7.9365],[111.58158,-7.9367],[111.5814,-7.9372],[111.58107,-7.93786]],[[111.57571,-7.95492],[111.57559,-7.95502],[111.57522,-7.95496],[111.57507,-7.95501],[111.57499,-7.9551],[111.57481,-7.95551],[111.57482,-7.95684],[111.57452,-7.95785],[111.5742,-7.95812],[111.57416,-7.95826],[111.57418,-7.95844],[111.57426,-7.95863],[111.57439,-7.95882],[111.57456,-7.95898],[111.57496,-7.9592],[111.57485,-7.95935],[111.57453,-7.95939],[111.57439,-7.95949],[111.57435,-7.95964],[111.57438,-7.95973],[111.57461,-7.96],[111.57466,-7.96],[111.57478,-7.95992],[111.57494,-7.95974],[111.57542,-7.95998],[111.57578,-7.96003],[111.57653,-7.96001],[111.57702,-7.96021],[111.57719,-7.96024],[111.57758,-7.9602],[111.57884,-7.9597],[111.57954,-7.95896],[111.57964,-7.95895],[111.57988,-7.95904],[111.58042,-7.95934],[111.58154,-7.95957],[111.58204,-7.95975],[111.58181,-7.95938],[111.58136,-7.95835],[111.58129,-7.95796],[111.58128,-7.95707],[111.58135,-7.95616],[111.5813,-7.95587],[111.58123,-7.95569],[111.58062,-7.95499],[111.58023,-7.95472],[111.5795,-7.95445],[111.57872,-7.95425],[111.57748,-7.95403],[111.57651,-7.95382],[111.57597,-7.95377],[111.57551,-7.95378],[111.57536,-7.95434],[111.57538,-7.95448],[111.57571,-7.95492]]]}},{"type":"Feature","properties":{"REMARK":"Semak Belukar"},"geometry":{"type":"Polygon","coordinates":[[[111.56567,-7.96173],[111.56445,-7.96317],[111.56409,-7.96304],[111.56381,-7.96299],[111.56381,-7.96301],[111.56181,-7.96196],[111.56059,-7.96142],[111.56079,-7.96056],[111.56095,-7.95925],[111.56109,-7.95871],[111.56121,-7.95857],[111.56144,-7.95842],[111.56162,-7.95839],[111.56183,-7.95843],[111.56261,-7.95891],[111.56356,-7.95971],[111.56432,-7.9606],[111.56467,-7.96093],[111.56567,-7.96173]]]}},{"type":"Feature","properties":{"REMARK":"Semak Belukar"},"geometry":{"type":"MultiPolygon","coordinates":[[[[111.65367,-7.98499],[111.65367,-7.98499],[111.65369,-7.98524],[111.65367,-7.98499]]],[[[111.65327,-7.98587],[111.65358,-7.98614],[111.65369,-7.98584],[111.6537,-7.98559],[111.65369,-7.98584],[111.65358,-7.98614],[111.65367,-7.98644],[111.65373,-7.98651],[111.65367,-7.98644],[111.65343,-7.9867],[111.65236,-7.98703],[111.65203,-7.98703],[111.65129,-7.98669],[111.65111,-7.98657],[111.65074,-7.98626],[111.65074,-7.98614],[111.6508,-7.98586],[111.65097,-7.98546],[111.65104,-7.9852],[111.65106,-7.98491],[111.65189,-7.98533],[111.65304,-7.98572],[111.65327,-7.98587]]],[[[111.65367,-7.98499],[111.65358,-7.98474],[111.65351,-7.98448],[111.65342,-7.98378],[111.65351,-7.98448],[111.65367,-7.98499]]],[[[111.65335,-7.98357],[111.65341,-7.98374],[111.65335,-7.98357],[111.65338,-7.98336],[111.65348,-7.98307],[111.65335,-7.98357]]],[[[111.65376,-7.98223],[111.65362,-7.98261],[111.65368,-7.98239],[111.65376,-7.98223],[111.65371,-7.98182],[111.65376,-7.98223]]],[[[111.65372,-7.98154],[111.65369,-7.98162],[111.65372,-7.98154],[111.65387,-7.98141],[111.65372,-7.98154]]],[[[111.65499,-7.98059],[111.65388,-7.9814],[111.65429,-7.98109],[111.65499,-7.98059],[111.6551,-7.98043],[111.65499,-7.98059]]],[[[111.65523,-7.98013],[111.65513,-7.98035],[111.65525,-7.98007],[111.65523,-7.98013]]],[[[111.65529,-7.97886],[111.65532,-7.97909],[111.6553,-7.97876],[111.65529,-7.97886]]],[[[111.65545,-7.97824],[111.65544,-7.97828],[111.65547,-7.97819],[111.65545,-7.97824]]],[[[111.65565,-7.9778],[111.6556,-7.97791],[111.65565,-7.9778],[111.65565,-7.9778]]],[[[111.65599,-7.97665],[111.6557,-7.97746],[111.65574,-7.97731],[111.6558,-7.97711],[111.65599,-7.97665]]],[[[111.65626,-7.97593],[111.65625,-7.97596],[111.65631,-7.97588],[111.65626,-7.97593]]],[[[111.65659,-7.97572],[111.65651,-7.97575],[111.6567,-7.97568],[111.65659,-7.97572]]],[[[111.65721,-7.97557],[111.6567,-7.97568],[111.6568,-7.97565],[111.65704,-7.97558],[111.65721,-7.97557]]],[[[111.65755,-7.97547],[111.6574,-7.97554],[111.65755,-7.97547],[111.65755,-7.97547]]]]}},{"type":"Feature","properties":{"REMARK":"Semak Belukar"},"geometry":{"type":"Polygon","coordinates":[[[111.64326,-7.99545],[111.64322,-7.99637],[111.64313,-7.99669],[111.64262,-7.99729],[111.6412,-7.99776],[111.64038,-7.99807],[111.64027,-7.99777],[111.64011,-7.99699],[111.63995,-7.99597],[111.63987,-7.99575],[111.64057,-7.99591],[111.64072,-7.99588],[111.64111,-7.99548],[111.64169,-7.9948],[111.64211,-7.99452],[111.64229,-7.99445],[111.64249,-7.99446],[111.64263,-7.99455],[111.64319,-7.99525],[111.64326,-7.99545]]]}},{"type":"Feature","properties":{"REMARK":"Semak Belukar"},"geometry":{"type":"Polygon","coordinates":[[[111.54402,-8.04038],[111.54443,-8.04089],[111.54472,-8.04115],[111.54488,-8.04125],[111.5442,-8.04141],[111.54374,-8.04127],[111.54318,-8.04081],[111.54306,-8.041],[111.54299,-8.04104],[111.54293,-8.04121],[111.5425,-8.04189],[111.54235,-8.04195],[111.5422,-8.04184],[111.54192,-8.04183],[111.54175,-8.04158],[111.54167,-8.04156],[111.54131,-8.04199],[111.54103,-8.04203],[111.54048,-8.04221],[111.54024,-8.04212],[111.5398,-8.04225],[111.5396,-8.04207],[111.53947,-8.04208],[111.53878,-8.0425],[111.53887,-8.04218],[111.5393,-8.04142],[111.53974,-8.04104],[111.54022,-8.04074],[111.54042,-8.04048],[111.54092,-8.04067],[111.54115,-8.04061],[111.5415,-8.04024],[111.5418,-8.04002],[111.54232,-8.03974],[111.54265,-8.03966],[111.54286,-8.03966],[111.54328,-8.03987],[111.54362,-8.04018],[111.54402,-8.04038]]]}},{"type":"Feature","properties":{"REMARK":"Semak Belukar"},"geometry":{"type":"MultiPolygon","coordinates":[[[[111.65141,-8.02146],[111.65142,-8.02146],[111.65141,-8.02146],[111.65141,-8.02146]]],[[[111.65294,-8.02067],[111.65164,-8.0214],[111.65269,-8.02081],[111.65294,-8.02067]]],[[[111.65319,-8.02058],[111.65294,-8.02067],[111.65319,-8.02058],[111.65319,-8.02058]]]]}},{"type":"Feature","properties":{"REMARK":"Semak Belukar"},"geometry":{"type":"MultiPolygon","coordinates":[[[[111.57089,-8.03128],[111.57074,-8.03217],[111.57157,-8.0328],[111.57185,-8.03216],[111.57206,-8.03253],[111.57209,-8.03253],[111.57224,-8.03249],[111.57282,-8.03218],[111.57306,-8.03211],[111.57332,-8.03214],[111.57342,-8.0321],[111.57345,-8.03199],[111.57348,-8.03164],[111.5736,-8.03157],[111.57369,-8.03159],[111.57398,-8.03185],[111.57424,-8.03179],[111.57447,-8.03178],[111.57437,-8.03201],[111.57439,-8.03213],[111.57449,-8.03217],[111.57526,-8.03202],[111.57569,-8.03208],[111.57575,-8.03217],[111.57577,-8.03228],[111.57564,-8.03249],[111.57545,-8.03268],[111.57517,-8.03282],[111.57507,-8.03293],[111.57506,-8.03307],[111.57513,-8.03332],[111.57548,-8.03366],[111.57586,-8.03462],[111.57666,-8.03549],[111.57682,-8.03593],[111.57699,-8.03613],[111.57706,-8.03613],[111.57734,-8.03595],[111.57759,-8.03593],[111.57759,-8.0365],[111.57747,-8.0371],[111.57679,-8.03858],[111.57651,-8.03858],[111.57598,-8.03871],[111.57495,-8.03934],[111.57448,-8.03968],[111.57425,-8.03993],[111.57403,-8.04034],[111.57395,-8.04064],[111.57399,-8.04209],[111.57371,-8.04278],[111.57349,-8.04372],[111.57368,-8.04471],[111.57361,-8.04506],[111.57332,-8.04752],[111.57323,-8.0477],[111.57295,-8.04797],[111.57265,-8.04812],[111.57194,-8.04825],[111.57154,-8.04827],[111.57094,-8.0482],[111.57054,-8.04821],[111.56961,-8.04857],[111.56922,-8.04859],[111.56846,-8.04886],[111.56754,-8.04871],[111.56719,-8.0486],[111.56649,-8.0483],[111.56591,-8.04788],[111.56557,-8.04782],[111.56527,-8.04785],[111.56465,-8.04801],[111.56423,-8.04908],[111.56412,-8.04927],[111.56399,-8.04942],[111.56298,-8.04962],[111.56271,-8.04956],[111.56239,-8.04932],[111.56164,-8.04916],[111.56147,-8.04904],[111.56098,-8.04889],[111.56052,-8.04931],[111.55964,-8.04938],[111.5594,-8.04944],[111.55869,-8.0497],[111.55746,-8.04988],[111.55738,-8.04978],[111.55685,-8.04979],[111.55671,-8.04998],[111.55664,-8.05],[111.5565,-8.04997],[111.55638,-8.04989],[111.55625,-8.04959],[111.55647,-8.04962],[111.55696,-8.04959],[111.55741,-8.04945],[111.5587,-8.04868],[111.55954,-8.04823],[111.55987,-8.04816],[111.56157,-8.04806],[111.56291,-8.04757],[111.56374,-8.04719],[111.5645,-8.04691],[111.56512,-8.04669],[111.56575,-8.04652],[111.56579,-8.04642],[111.56576,-8.0463],[111.56566,-8.04613],[111.56582,-8.04599],[111.56607,-8.0459],[111.56735,-8.0457],[111.56768,-8.04578],[111.56785,-8.04589],[111.56805,-8.04613],[111.56811,-8.04664],[111.56817,-8.04671],[111.5684,-8.04677],[111.56865,-8.04676],[111.57015,-8.04649],[111.5706,-8.04652],[111.57063,-8.04648],[111.57061,-8.04626],[111.57067,-8.04598],[111.5708,-8.04578],[111.57097,-8.04562],[111.57098,-8.04552],[111.57092,-8.04454],[111.5708,-8.04407],[111.57094,-8.04305],[111.57101,-8.04282],[111.57157,-8.04176],[111.57184,-8.04147],[111.5723,-8.04073],[111.57241,-8.04039],[111.57247,-8.03938],[111.57252,-8.03921],[111.57291,-8.0386],[111.57313,-8.03791],[111.5731,-8.03725],[111.573,-8.03696],[111.57276,-8.03647],[111.5725,-8.0361],[111.57209,-8.03569],[111.57172,-8.03547],[111.57108,-8.03522],[111.57097,-8.03526],[111.57074,-8.03545],[111.56955,-8.03508],[111.56932,-8.03489],[111.56914,-8.03464],[111.56914,-8.03413],[111.56943,-8.0334],[111.56953,-8.03271],[111.56954,-8.03266],[111.56968,-8.03256],[111.5698,-8.03263],[111.56979,-8.03236],[111.56967,-8.03182],[111.56947,-8.03139],[111.56972,-8.03123],[111.56992,-8.03122],[111.57054,-8.03131],[111.57069,-8.03113],[111.57075,-8.03115],[111.57089,-8.03128]]],[[[111.60713,-8.01742],[111.60718,-8.01757],[111.60713,-8.01742],[111.60713,-8.01742]]],[[[111.60638,-8.01609],[111.60639,-8.01625],[111.60639,-8.01625],[111.60638,-8.01609]]],[[[111.60662,-8.01588],[111.60637,-8.01607],[111.60636,-8.01588],[111.60641,-8.01573],[111.60677,-8.01527],[111.60687,-8.01494],[111.60691,-8.01356],[111.60713,-8.01363],[111.6073,-8.01411],[111.60728,-8.01458],[111.60712,-8.01544],[111.60715,-8.01565],[111.60662,-8.01588]]]]}},{"type":"Feature","properties":{"REMARK":"Semak Belukar"},"geometry":{"type":"Polygon","coordinates":[[[111.65454,-8.00347],[111.65463,-8.00388],[111.65468,-8.00512],[111.65465,-8.00537],[111.65454,-8.00583],[111.65396,-8.00733],[111.65355,-8.00662],[111.65283,-8.00593],[111.65232,-8.00655],[111.65214,-8.00665],[111.65184,-8.00669],[111.65183,-8.00683],[111.65249,-8.00691],[111.65265,-8.00699],[111.65322,-8.00748],[111.65341,-8.0077],[111.65397,-8.00848],[111.65414,-8.00884],[111.65409,-8.00894],[111.65384,-8.00918],[111.65404,-8.00974],[111.6542,-8.00998],[111.65478,-8.01134],[111.65489,-8.01168],[111.6549,-8.01208],[111.6548,-8.01243],[111.65466,-8.01264],[111.6544,-8.01295],[111.65395,-8.01283],[111.65348,-8.01289],[111.65352,-8.01276],[111.65349,-8.01273],[111.65237,-8.01268],[111.65224,-8.01275],[111.65218,-8.01283],[111.65218,-8.013],[111.65231,-8.0135],[111.6522,-8.01332],[111.6521,-8.01328],[111.65132,-8.01341],[111.64958,-8.01396],[111.64931,-8.01399],[111.64915,-8.01391],[111.64869,-8.01356],[111.64841,-8.01326],[111.64815,-8.01309],[111.64793,-8.01288],[111.64779,-8.01264],[111.64784,-8.01196],[111.64788,-8.01173],[111.64787,-8.01142],[111.64812,-8.00965],[111.64805,-8.00946],[111.64808,-8.00934],[111.64838,-8.00888],[111.6484,-8.00868],[111.6483,-8.00806],[111.64847,-8.00743],[111.64835,-8.00695],[111.64836,-8.00633],[111.64824,-8.00577],[111.64815,-8.00563],[111.64843,-8.00517],[111.64858,-8.00499],[111.64923,-8.0045],[111.64995,-8.00437],[111.65013,-8.00429],[111.65022,-8.00417],[111.6503,-8.00393],[111.65027,-8.00384],[111.65059,-8.00392],[111.65131,-8.00418],[111.65144,-8.00427],[111.65173,-8.00477],[111.65189,-8.0047],[111.6522,-8.00468],[111.65277,-8.00483],[111.65295,-8.00483],[111.65309,-8.00478],[111.65314,-8.00467],[111.6531,-8.00446],[111.65296,-8.0042],[111.65278,-8.00365],[111.65301,-8.00388],[111.65322,-8.0037],[111.65302,-8.00339],[111.65351,-8.00289],[111.65325,-8.00255],[111.65328,-8.00252],[111.65348,-8.00197],[111.65392,-8.0022],[111.6541,-8.00239],[111.65429,-8.00295],[111.65454,-8.00347]]]}},{"type":"Feature","properties":{"REMARK":"Semak Belukar"},"geometry":{"type":"MultiPolygon","coordinates":[[[[111.63108,-8.00754],[111.63104,-8.00754],[111.63109,-8.00752],[111.63108,-8.00754]]],[[[111.63304,-8.00462],[111.63302,-8.00463],[111.63304,-8.00461],[111.63304,-8.00462]]],[[[111.6343,-8.00326],[111.63484,-8.00278],[111.63511,-8.0027],[111.6343,-8.00326]]],[[[111.63528,-8.00258],[111.63596,-8.00217],[111.6361,-8.00215],[111.63528,-8.00258]]],[[[111.64369,-8.00133],[111.64373,-8.00174],[111.64337,-8.00161],[111.64326,-8.00219],[111.64341,-8.00227],[111.64328,-8.00282],[111.64329,-8.0033],[111.64388,-8.00336],[111.64393,-8.00318],[111.64438,-8.00321],[111.64523,-8.00371],[111.64487,-8.00433],[111.64455,-8.00468],[111.64429,-8.00485],[111.64372,-8.00504],[111.643,-8.00521],[111.6426,-8.00526],[111.64242,-8.00536],[111.64147,-8.00526],[111.64145,-8.00535],[111.64135,-8.00524],[111.64121,-8.00523],[111.63929,-8.00326],[111.63799,-8.00249],[111.63723,-8.00208],[111.63612,-8.00215],[111.63625,-8.00213],[111.63661,-8.00196],[111.63694,-8.00189],[111.63765,-8.00134],[111.63785,-8.00104],[111.63824,-8.00175],[111.63857,-8.00221],[111.63873,-8.00233],[111.63893,-8.00239],[111.63907,-8.00234],[111.64005,-8.0018],[111.64069,-8.0018],[111.64123,-8.00186],[111.64157,-8.00181],[111.64173,-8.00175],[111.64162,-8.00157],[111.64147,-8.00142],[111.64243,-8.00057],[111.6427,-8.00037],[111.64312,-8.00014],[111.64314,-8.00051],[111.64323,-8.00069],[111.64369,-8.00133]]]]}},{"type":"Feature","properties":{"REMARK":"Semak Belukar"},"geometry":{"type":"MultiPolygon","coordinates":[[[[111.65562,-8.00547],[111.65562,-8.00547],[111.65564,-8.00523],[111.65562,-8.00547]]],[[[111.6557,-8.00476],[111.65568,-8.00487],[111.65572,-8.00468],[111.6557,-8.00476]]],[[[111.65574,-8.00436],[111.65574,-8.00442],[111.65573,-8.00434],[111.65574,-8.00436]]],[[[111.6556,-8.00388],[111.65567,-8.00412],[111.65562,-8.00395],[111.6556,-8.00388],[111.65547,-8.00359],[111.65536,-8.00331],[111.6556,-8.00388]]],[[[111.65446,-8.00192],[111.65454,-8.00208],[111.65441,-8.00176],[111.65446,-8.00192]]],[[[111.65434,-8.00138],[111.65435,-8.00143],[111.65434,-8.00137],[111.65434,-8.00138]]],[[[111.65435,-8.00125],[111.65435,-8.00128],[111.65435,-8.00125],[111.65435,-8.00125]]],[[[111.6564,-7.99023],[111.65558,-7.99081],[111.65583,-7.99141],[111.65566,-7.99124],[111.6555,-7.99116],[111.65478,-7.99128],[111.65459,-7.99109],[111.6549,-7.99097],[111.65571,-7.99048],[111.65606,-7.99031],[111.65621,-7.99034],[111.65631,-7.99019],[111.65637,-7.98994],[111.65635,-7.98974],[111.65627,-7.98943],[111.65637,-7.98956],[111.65686,-7.98998],[111.6564,-7.99023]]]]}}]}