{"type":"FeatureCollection","features":[{"type":"Feature","properties":{"REMARK":"Spot Height","ELEVAS":217.16},"geometry":{"type":"Point","coordinates":[111.56959,-7.92428]}},{"type":"Feature","properties":{"REMARK":"Spot Height","ELEVAS":234.01},"geometry":{"type":"Point","coordinates":[111.57335,-7.93075]}},{"type":"Feature","properties":{"REMARK":"Spot Height","ELEVAS":203.81},"geometry":{"type":"Point","coordinates":[111.55738,-7.93198]}},{"type":"Feature","properties":{"REMARK":"Spot Height","ELEVAS":131.96},"geometry":{"type":"Point","coordinates":[111.54059,-7.9365]}},{"type":"Feature","properties":{"REMARK":"Spot Height","ELEVAS":238.5},"geometry":{"type":"Point","coordinates":[111.57788,-7.937]}},{"type":"Feature","properties":{"REMARK":"Spot Height","ELEVAS":301.32},"geometry":{"type":"Point","coordinates":[111.60071,-7.937]}},{"type":"Feature","properties":{"REMARK":"Spot Height","ELEVAS":172.67},"geometry":{"type":"Point","coordinates":[111.55524,-7.93775]}},{"type":"Feature","properties":{"REMARK":"Spot Height","ELEVAS":164.162},"geometry":{"type":"Point","coordinates":[111.58663,-7.93839]}},{"type":"Feature","properties":{"REMARK":"Spot Height","ELEVAS":231.76},"geometry":{"type":"Point","coordinates":[111.61216,-7.93949]}},{"type":"Feature","properties":{"REMARK":"Spot Height","ELEVAS":244.46},"geometry":{"type":"Point","coordinates":[111.58913,-7.93998]}},{"type":"Feature","properties":{"REMARK":"Spot Height","ELEVAS":146.46},"geometry":{"type":"Point","coordinates":[111.5473,-7.94303]}},{"type":"Feature","properties":{"REMARK":"Spot Height","ELEVAS":644.51},"geometry":{"type":"Point","coordinates":[111.59841,-7.94386]}},{"type":"Feature","properties":{"REMARK":"Spot Height","ELEVAS":0},"geometry":{"type":"Point","coordinates":[111.5831,-7.94399]}},{"type":"Feature","properties":{"REMARK":"Spot Height","ELEVAS":202.63},"geometry":{"type":"Point","coordinates":[111.57786,-7.9444]}},{"type":"Feature","properties":{"REMARK":"Spot Height","ELEVAS":687.5},"geometry":{"type":"Point","coordinates":[111.60077,-7.94509]}},{"type":"Feature","properties":{"REMARK":"Spot Height","ELEVAS":332.34},"geometry":{"type":"Point","coordinates":[111.61961,-7.9451]}},{"type":"Feature","properties":{"REMARK":"Spot Height","ELEVAS":135.84},"geometry":{"type":"Point","coordinates":[111.5389,-7.94562]}},{"type":"Feature","properties":{"REMARK":"Spot Height","ELEVAS":204.63},"geometry":{"type":"Point","coordinates":[111.57403,-7.9457]}},{"type":"Feature","properties":{"REMARK":"Spot Height","ELEVAS":397},"geometry":{"type":"Point","coordinates":[111.61428,-7.94658]}},{"type":"Feature","properties":{"REMARK":"Spot Height","ELEVAS":712.5},"geometry":{"type":"Point","coordinates":[111.60199,-7.94696]}},{"type":"Feature","properties":{"REMARK":"Spot Height","ELEVAS":0},"geometry":{"type":"Point","coordinates":[111.60511,-7.94824]}},{"type":"Feature","properties":{"REMARK":"Spot Height","ELEVAS":450},"geometry":{"type":"Point","coordinates":[111.58224,-7.94828]}},{"type":"Feature","properties":{"REMARK":"Spot Height","ELEVAS":447.81},"geometry":{"type":"Point","coordinates":[111.58729,-7.9508]}},{"type":"Feature","properties":{"REMARK":"Spot Height","ELEVAS":487.5},"geometry":{"type":"Point","coordinates":[111.61737,-7.95218]}},{"type":"Feature","properties":{"REMARK":"Spot Height","ELEVAS":147.88},"geometry":{"type":"Point","coordinates":[111.55657,-7.95261]}},{"type":"Feature","properties":{"REMARK":"Spot Height","ELEVAS":184.11},"geometry":{"type":"Point","coordinates":[111.56809,-7.95263]}},{"type":"Feature","properties":{"REMARK":"Spot Height","ELEVAS":130.65},"geometry":{"type":"Point","coordinates":[111.54956,-7.95291]}},{"type":"Feature","properties":{"REMARK":"Spot Height","ELEVAS":463.89},"geometry":{"type":"Point","coordinates":[111.58745,-7.95486]}},{"type":"Feature","properties":{"REMARK":"Spot Height","ELEVAS":505.35},"geometry":{"type":"Point","coordinates":[111.60607,-7.95543]}},{"type":"Feature","properties":{"REMARK":"Spot Height","ELEVAS":172.01},"geometry":{"type":"Point","coordinates":[111.56265,-7.95674]}},{"type":"Feature","properties":{"REMARK":"Spot Height","ELEVAS":172.18},"geometry":{"type":"Point","coordinates":[111.57792,-7.95705]}},{"type":"Feature","properties":{"REMARK":"Spot Height","ELEVAS":371.68},"geometry":{"type":"Point","coordinates":[111.59789,-7.95728]}},{"type":"Feature","properties":{"REMARK":"Spot Height","ELEVAS":474.54},"geometry":{"type":"Point","coordinates":[111.59945,-7.96007]}},{"type":"Feature","properties":{"REMARK":"Spot Height","ELEVAS":430.09},"geometry":{"type":"Point","coordinates":[111.60646,-7.96017]}},{"type":"Feature","properties":{"REMARK":"Spot Height","ELEVAS":154.39},"geometry":{"type":"Point","coordinates":[111.55785,-7.96093]}},{"type":"Feature","properties":{"REMARK":"Spot Height","ELEVAS":337.39},"geometry":{"type":"Point","coordinates":[111.59504,-7.96123]}},{"type":"Feature","properties":{"REMARK":"Spot Height","ELEVAS":153.25},"geometry":{"type":"Point","coordinates":[111.56827,-7.96145]}},{"type":"Feature","properties":{"REMARK":"Spot Height","ELEVAS":195.82},"geometry":{"type":"Point","coordinates":[111.57794,-7.96194]}},{"type":"Feature","properties":{"REMARK":"Spot Height","ELEVAS":475},"geometry":{"type":"Point","coordinates":[111.58825,-7.9629]}},{"type":"Feature","properties":{"REMARK":"Spot Height","ELEVAS":493.18},"geometry":{"type":"Point","coordinates":[111.61222,-7.96332]}},{"type":"Feature","properties":{"REMARK":"Spot Height","ELEVAS":523.72},"geometry":{"type":"Point","coordinates":[111.61896,-7.96604]}},{"type":"Feature","properties":{"REMARK":"Spot Height","ELEVAS":176.06},"geometry":{"type":"Point","coordinates":[111.58199,-7.96748]}},{"type":"Feature","properties":{"REMARK":"Spot Height","ELEVAS":445.47},"geometry":{"type":"Point","coordinates":[111.60692,-7.96859]}},{"type":"Feature","properties":{"REMARK":"Spot Height","ELEVAS":153.096},"geometry":{"type":"Point","coordinates":[111.56856,-7.96963]}},{"type":"Feature","properties":{"REMARK":"Spot Height","ELEVAS":562.5},"geometry":{"type":"Point","coordinates":[111.62266,-7.96981]}},{"type":"Feature","properties":{"REMARK":"Spot Height","ELEVAS":481.23},"geometry":{"type":"Point","coordinates":[111.59895,-7.97129]}},{"type":"Feature","properties":{"REMARK":"Spot Height","ELEVAS":125.583},"geometry":{"type":"Point","coordinates":[111.53623,-7.97142]}},{"type":"Feature","properties":{"REMARK":"Spot Height","ELEVAS":526},"geometry":{"type":"Point","coordinates":[111.60328,-7.97246]}},{"type":"Feature","properties":{"REMARK":"Spot Height","ELEVAS":437.5},"geometry":{"type":"Point","coordinates":[111.60981,-7.97247]}},{"type":"Feature","properties":{"REMARK":"Spot Height","ELEVAS":254.53},"geometry":{"type":"Point","coordinates":[111.55475,-7.97293]}},{"type":"Feature","properties":{"REMARK":"Spot Height","ELEVAS":390.05},"geometry":{"type":"Point","coordinates":[111.60353,-7.97753]}},{"type":"Feature","properties":{"REMARK":"Spot Height","ELEVAS":643.48},"geometry":{"type":"Point","coordinates":[111.62367,-7.97887]}},{"type":"Feature","properties":{"REMARK":"Spot Height","ELEVAS":348.41},"geometry":{"type":"Point","coordinates":[111.59642,-7.97967]}},{"type":"Feature","properties":{"REMARK":"Spot Height","ELEVAS":575},"geometry":{"type":"Point","coordinates":[111.61144,-7.98053]}},{"type":"Feature","properties":{"REMARK":"Spot Height","ELEVAS":147.327},"geometry":{"type":"Point","coordinates":[111.54534,-7.98157]}},{"type":"Feature","properties":{"REMARK":"Spot Height","ELEVAS":190.013},"geometry":{"type":"Point","coordinates":[111.56168,-7.98155]}},{"type":"Feature","properties":{"REMARK":"Spot Height","ELEVAS":192.234},"geometry":{"type":"Point","coordinates":[111.56984,-7.98154]}},{"type":"Feature","properties":{"REMARK":"Spot Height","ELEVAS":140.204},"geometry":{"type":"Point","coordinates":[111.5399,-7.98248]}},{"type":"Feature","properties":{"REMARK":"Spot Height","ELEVAS":183.296},"geometry":{"type":"Point","coordinates":[111.57982,-7.98243]}},{"type":"Feature","properties":{"REMARK":"Spot Height","ELEVAS":190.934},"geometry":{"type":"Point","coordinates":[111.58436,-7.98242]}},{"type":"Feature","properties":{"REMARK":"Spot Height","ELEVAS":537.5},"geometry":{"type":"Point","coordinates":[111.55521,-7.98414]}},{"type":"Feature","properties":{"REMARK":"Spot Height","ELEVAS":228.583},"geometry":{"type":"Point","coordinates":[111.5635,-7.98607]}},{"type":"Feature","properties":{"REMARK":"Spot Height","ELEVAS":192.614},"geometry":{"type":"Point","coordinates":[111.58164,-7.98604]}},{"type":"Feature","properties":{"REMARK":"Spot Height","ELEVAS":519.695},"geometry":{"type":"Point","coordinates":[111.59798,-7.98602]}},{"type":"Feature","properties":{"REMARK":"Spot Height","ELEVAS":445.265},"geometry":{"type":"Point","coordinates":[111.60705,-7.98601]}},{"type":"Feature","properties":{"REMARK":"Spot Height","ELEVAS":520.534},"geometry":{"type":"Point","coordinates":[111.6134,-7.986]}},{"type":"Feature","properties":{"REMARK":"Spot Height","ELEVAS":559.28},"geometry":{"type":"Point","coordinates":[111.62164,-7.98648]}},{"type":"Feature","properties":{"REMARK":"Spot Height","ELEVAS":245.43},"geometry":{"type":"Point","coordinates":[111.58863,-7.9877]}},{"type":"Feature","properties":{"REMARK":"Spot Height","ELEVAS":213.794},"geometry":{"type":"Point","coordinates":[111.57167,-7.98787]}},{"type":"Feature","properties":{"REMARK":"Spot Height","ELEVAS":152.824},"geometry":{"type":"Point","coordinates":[111.53719,-7.98882]}},{"type":"Feature","properties":{"REMARK":"Spot Height","ELEVAS":484.765},"geometry":{"type":"Point","coordinates":[111.6116,-7.99233]}},{"type":"Feature","properties":{"REMARK":"Spot Height","ELEVAS":581.678},"geometry":{"type":"Point","coordinates":[111.62067,-7.99322]}},{"type":"Feature","properties":{"REMARK":"Spot Height","ELEVAS":503.39},"geometry":{"type":"Point","coordinates":[111.60434,-7.99415]}},{"type":"Feature","properties":{"REMARK":"Spot Height","ELEVAS":312.5},"geometry":{"type":"Point","coordinates":[111.54611,-7.99434]}},{"type":"Feature","properties":{"REMARK":"Spot Height","ELEVAS":457.453},"geometry":{"type":"Point","coordinates":[111.5989,-7.99506]}},{"type":"Feature","properties":{"REMARK":"Spot Height","ELEVAS":327.77},"geometry":{"type":"Point","coordinates":[111.54829,-7.99757]}},{"type":"Feature","properties":{"REMARK":"Spot Height","ELEVAS":184.916},"geometry":{"type":"Point","coordinates":[111.53901,-7.99786]}},{"type":"Feature","properties":{"REMARK":"Spot Height","ELEVAS":229.016},"geometry":{"type":"Point","coordinates":[111.57985,-7.9978]}},{"type":"Feature","properties":{"REMARK":"Spot Height","ELEVAS":562.5},"geometry":{"type":"Point","coordinates":[111.5682,-7.99818]}},{"type":"Feature","properties":{"REMARK":"Spot Height","ELEVAS":601},"geometry":{"type":"Point","coordinates":[111.61451,-7.99953]}},{"type":"Feature","properties":{"REMARK":"Spot Height","ELEVAS":248.828},"geometry":{"type":"Point","coordinates":[111.53448,-7.99967]}},{"type":"Feature","properties":{"REMARK":"Spot Height","ELEVAS":675},"geometry":{"type":"Point","coordinates":[111.5615,-7.99984]}},{"type":"Feature","properties":{"REMARK":"Spot Height","ELEVAS":649.06},"geometry":{"type":"Point","coordinates":[111.62782,-7.96078]}},{"type":"Feature","properties":{"REMARK":"Spot Height","ELEVAS":636.52},"geometry":{"type":"Point","coordinates":[111.63223,-7.96442]}},{"type":"Feature","properties":{"REMARK":"Spot Height","ELEVAS":701.1},"geometry":{"type":"Point","coordinates":[111.64545,-7.96482]}},{"type":"Feature","properties":{"REMARK":"Spot Height","ELEVAS":733.6},"geometry":{"type":"Point","coordinates":[111.64148,-7.96796]}},{"type":"Feature","properties":{"REMARK":"Spot Height","ELEVAS":643.9},"geometry":{"type":"Point","coordinates":[111.64644,-7.97365]}},{"type":"Feature","properties":{"REMARK":"Spot Height","ELEVAS":677.04},"geometry":{"type":"Point","coordinates":[111.63147,-7.97381]}},{"type":"Feature","properties":{"REMARK":"Spot Height","ELEVAS":660.79},"geometry":{"type":"Point","coordinates":[111.63807,-7.97418]}},{"type":"Feature","properties":{"REMARK":"Spot Height","ELEVAS":590.6},"geometry":{"type":"Point","coordinates":[111.64207,-7.98417]}},{"type":"Feature","properties":{"REMARK":"Spot Height","ELEVAS":634.37},"geometry":{"type":"Point","coordinates":[111.63637,-7.99478]}},{"type":"Feature","properties":{"REMARK":"Spot Height","ELEVAS":616.9},"geometry":{"type":"Point","coordinates":[111.64164,-7.99618]}},{"type":"Feature","properties":{"REMARK":"Spot Height","ELEVAS":587.5},"geometry":{"type":"Point","coordinates":[111.64808,-7.9985]}},{"type":"Feature","properties":{"REMARK":"Spot Height","ELEVAS":419.93},"geometry":{"type":"Point","coordinates":[111.61867,-8.00193]}},{"type":"Feature","properties":{"REMARK":"Spot Height","ELEVAS":380.96},"geometry":{"type":"Point","coordinates":[111.57317,-8.00207]}},{"type":"Feature","properties":{"REMARK":"Spot Height","ELEVAS":272.14},"geometry":{"type":"Point","coordinates":[111.58789,-8.00207]}},{"type":"Feature","properties":{"REMARK":"Spot Height","ELEVAS":210.11},"geometry":{"type":"Point","coordinates":[111.58187,-8.00221]}},{"type":"Feature","properties":{"REMARK":"Spot Height","ELEVAS":496.24},"geometry":{"type":"Point","coordinates":[111.60355,-8.00239]}},{"type":"Feature","properties":{"REMARK":"Spot Height","ELEVAS":393.85},"geometry":{"type":"Point","coordinates":[111.61178,-8.00243]}},{"type":"Feature","properties":{"REMARK":"Spot Height","ELEVAS":294.83},"geometry":{"type":"Point","coordinates":[111.55028,-8.00252]}},{"type":"Feature","properties":{"REMARK":"Spot Height","ELEVAS":613.3},"geometry":{"type":"Point","coordinates":[111.56125,-8.00292]}},{"type":"Feature","properties":{"REMARK":"Spot Height","ELEVAS":235.34},"geometry":{"type":"Point","coordinates":[111.54071,-8.0032]}},{"type":"Feature","properties":{"REMARK":"Spot Height","ELEVAS":503.23},"geometry":{"type":"Point","coordinates":[111.59524,-8.00344]}},{"type":"Feature","properties":{"REMARK":"Spot Height","ELEVAS":304.91},"geometry":{"type":"Point","coordinates":[111.56823,-8.00352]}},{"type":"Feature","properties":{"REMARK":"Spot Height","ELEVAS":388.76},"geometry":{"type":"Point","coordinates":[111.55299,-8.00362]}},{"type":"Feature","properties":{"REMARK":"Spot Height","ELEVAS":386.58},"geometry":{"type":"Point","coordinates":[111.62103,-8.00426]}},{"type":"Feature","properties":{"REMARK":"Spot Height","ELEVAS":569.53},"geometry":{"type":"Point","coordinates":[111.59715,-8.00662]}},{"type":"Feature","properties":{"REMARK":"Spot Height","ELEVAS":485.85},"geometry":{"type":"Point","coordinates":[111.60179,-8.00674]}},{"type":"Feature","properties":{"REMARK":"Spot Height","ELEVAS":535.18},"geometry":{"type":"Point","coordinates":[111.55632,-8.0074]}},{"type":"Feature","properties":{"REMARK":"Spot Height","ELEVAS":338.75},"geometry":{"type":"Point","coordinates":[111.54733,-8.00747]}},{"type":"Feature","properties":{"REMARK":"Spot Height","ELEVAS":237.51},"geometry":{"type":"Point","coordinates":[111.57721,-8.00746]}},{"type":"Feature","properties":{"REMARK":"Spot Height","ELEVAS":519.37},"geometry":{"type":"Point","coordinates":[111.5919,-8.00829]}},{"type":"Feature","properties":{"REMARK":"Spot Height","ELEVAS":338.92},"geometry":{"type":"Point","coordinates":[111.61069,-8.00834]}},{"type":"Feature","properties":{"REMARK":"Spot Height","ELEVAS":371.82},"geometry":{"type":"Point","coordinates":[111.56423,-8.00868]}},{"type":"Feature","properties":{"REMARK":"Spot Height","ELEVAS":272.79},"geometry":{"type":"Point","coordinates":[111.56977,-8.00867]}},{"type":"Feature","properties":{"REMARK":"Spot Height","ELEVAS":279.73},"geometry":{"type":"Point","coordinates":[111.54158,-8.00892]}},{"type":"Feature","properties":{"REMARK":"Spot Height","ELEVAS":286.05},"geometry":{"type":"Point","coordinates":[111.58449,-8.00933]}},{"type":"Feature","properties":{"REMARK":"Spot Height","ELEVAS":542.63},"geometry":{"type":"Point","coordinates":[111.59276,-8.01121]}},{"type":"Feature","properties":{"REMARK":"Spot Height","ELEVAS":310.41},"geometry":{"type":"Point","coordinates":[111.54188,-8.01139]}},{"type":"Feature","properties":{"REMARK":"Spot Height","ELEVAS":295.21},"geometry":{"type":"Point","coordinates":[111.56686,-8.0114]}},{"type":"Feature","properties":{"REMARK":"Spot Height","ELEVAS":625.88},"geometry":{"type":"Point","coordinates":[111.55461,-8.0118]}},{"type":"Feature","properties":{"REMARK":"Spot Height","ELEVAS":272.59},"geometry":{"type":"Point","coordinates":[111.58093,-8.01198]}},{"type":"Feature","properties":{"REMARK":"Spot Height","ELEVAS":397.16},"geometry":{"type":"Point","coordinates":[111.60352,-8.01221]}},{"type":"Feature","properties":{"REMARK":"Spot Height","ELEVAS":496.16},"geometry":{"type":"Point","coordinates":[111.58707,-8.01403]}},{"type":"Feature","properties":{"REMARK":"Spot Height","ELEVAS":389.64},"geometry":{"type":"Point","coordinates":[111.57403,-8.01424]}},{"type":"Feature","properties":{"REMARK":"Spot Height","ELEVAS":553.3},"geometry":{"type":"Point","coordinates":[111.55884,-8.01468]}},{"type":"Feature","properties":{"REMARK":"Spot Height","ELEVAS":600.41},"geometry":{"type":"Point","coordinates":[111.55003,-8.01552]}},{"type":"Feature","properties":{"REMARK":"Spot Height","ELEVAS":687.5},"geometry":{"type":"Point","coordinates":[111.55416,-8.01657]}},{"type":"Feature","properties":{"REMARK":"Spot Height","ELEVAS":376.64},"geometry":{"type":"Point","coordinates":[111.58127,-8.01731]}},{"type":"Feature","properties":{"REMARK":"Spot Height","ELEVAS":541},"geometry":{"type":"Point","coordinates":[111.57616,-8.01768]}},{"type":"Feature","properties":{"REMARK":"Spot Height","ELEVAS":577.5},"geometry":{"type":"Point","coordinates":[111.53987,-8.01775]}},{"type":"Feature","properties":{"REMARK":"Spot Height","ELEVAS":360.63},"geometry":{"type":"Point","coordinates":[111.60156,-8.0178]}},{"type":"Feature","properties":{"REMARK":"Spot Height","ELEVAS":411.09},"geometry":{"type":"Point","coordinates":[111.56678,-8.01849]}},{"type":"Feature","properties":{"REMARK":"Spot Height","ELEVAS":470.51},"geometry":{"type":"Point","coordinates":[111.57618,-8.01894]}},{"type":"Feature","properties":{"REMARK":"Spot Height","ELEVAS":574.5},"geometry":{"type":"Point","coordinates":[111.55478,-8.02017]}},{"type":"Feature","properties":{"REMARK":"Spot Height","ELEVAS":646.45},"geometry":{"type":"Point","coordinates":[111.54744,-8.02025]}},{"type":"Feature","properties":{"REMARK":"Spot Height","ELEVAS":650.89},"geometry":{"type":"Point","coordinates":[111.56267,-8.02061]}},{"type":"Feature","properties":{"REMARK":"Spot Height","ELEVAS":611.95},"geometry":{"type":"Point","coordinates":[111.54875,-8.02258]}},{"type":"Feature","properties":{"REMARK":"Spot Height","ELEVAS":468.31},"geometry":{"type":"Point","coordinates":[111.57113,-8.02269]}},{"type":"Feature","properties":{"REMARK":"Spot Height","ELEVAS":865.68},"geometry":{"type":"Point","coordinates":[111.54031,-8.02477]}},{"type":"Feature","properties":{"REMARK":"Spot Height","ELEVAS":463.76},"geometry":{"type":"Point","coordinates":[111.55808,-8.02575]}},{"type":"Feature","properties":{"REMARK":"Spot Height","ELEVAS":556.6},"geometry":{"type":"Point","coordinates":[111.5816,-8.02599]}},{"type":"Feature","properties":{"REMARK":"Spot Height","ELEVAS":494.27},"geometry":{"type":"Point","coordinates":[111.55346,-8.02626]}},{"type":"Feature","properties":{"REMARK":"Spot Height","ELEVAS":515.5},"geometry":{"type":"Point","coordinates":[111.56214,-8.02703]}},{"type":"Feature","properties":{"REMARK":"Spot Height","ELEVAS":386.41},"geometry":{"type":"Point","coordinates":[111.57692,-8.0271]}},{"type":"Feature","properties":{"REMARK":"Spot Height","ELEVAS":580.9},"geometry":{"type":"Point","coordinates":[111.55051,-8.02872]}},{"type":"Feature","properties":{"REMARK":"Spot Height","ELEVAS":353.62},"geometry":{"type":"Point","coordinates":[111.57146,-8.02916]}},{"type":"Feature","properties":{"REMARK":"Spot Height","ELEVAS":391.17},"geometry":{"type":"Point","coordinates":[111.55718,-8.0302]}},{"type":"Feature","properties":{"REMARK":"Spot Height","ELEVAS":909.66},"geometry":{"type":"Point","coordinates":[111.54104,-8.03104]}},{"type":"Feature","properties":{"REMARK":"Spot Height","ELEVAS":885.37},"geometry":{"type":"Point","coordinates":[111.53995,-8.03611]}},{"type":"Feature","properties":{"REMARK":"Spot Height","ELEVAS":560.08},"geometry":{"type":"Point","coordinates":[111.55663,-8.03612]}},{"type":"Feature","properties":{"REMARK":"Spot Height","ELEVAS":481.66},"geometry":{"type":"Point","coordinates":[111.56856,-8.0372]}},{"type":"Feature","properties":{"REMARK":"Spot Height","ELEVAS":753.81},"geometry":{"type":"Point","coordinates":[111.54428,-8.04019]}},{"type":"Feature","properties":{"REMARK":"Spot Height","ELEVAS":484.04},"geometry":{"type":"Point","coordinates":[111.56137,-8.04245]}},{"type":"Feature","properties":{"REMARK":"Spot Height","ELEVAS":467.97},"geometry":{"type":"Point","coordinates":[111.55786,-8.04687]}},{"type":"Feature","properties":{"REMARK":"Spot Height","ELEVAS":281.35},"geometry":{"type":"Point","coordinates":[111.57052,-8.04807]}}]}