{"type":"FeatureCollection","features":[{"type":"Feature","properties":{"namaobj":"Kelurusan","klsstr":"Not Defined","remark":"No Name","_cls":"Not Defined"},"geometry":{"type":"LineString","coordinates":[[111.58097,-7.9521],[111.58463,-7.9551],[111.59428,-7.9581],[111.59541,-7.95856],[111.59672,-7.96006],[111.59831,-7.96109],[111.59925,-7.96259],[111.60281,-7.96381],[111.6044,-7.96559],[111.6074,-7.96737],[111.61134,-7.96858]]}},{"type":"Feature","properties":{"namaobj":"Patahan","klsstr":"Sesar","remark":"No Name","_cls":"Sesar"},"geometry":{"type":"LineString","coordinates":[[111.62721,-7.96518],[111.62309,-7.96929]]}},{"type":"Feature","properties":{"namaobj":"Kelurusan","klsstr":"Not Defined","remark":"No Name","_cls":"Not Defined"},"geometry":{"type":"LineString","coordinates":[[111.56926,-7.94667],[111.56616,-7.95107],[111.56428,-7.95313],[111.56297,-7.95519],[111.56259,-7.95632]]}},{"type":"Feature","properties":{"namaobj":"Patahan","klsstr":"Sesar","remark":"No Name","_cls":"Sesar"},"geometry":{"type":"LineString","coordinates":[[111.53778,-8.0198],[111.54357,-8.01447],[111.54881,-8.00883]]}},{"type":"Feature","properties":{"namaobj":"Kelurusan","klsstr":"Not Defined","remark":"No Name","_cls":"Not Defined"},"geometry":{"type":"LineString","coordinates":[[111.5565,-7.95014],[111.55547,-7.95098],[111.55444,-7.9521],[111.55368,-7.95267],[111.55209,-7.95304]]}},{"type":"Feature","properties":{"namaobj":"Kelurusan","klsstr":"Not Defined","remark":"No Name","_cls":"Not Defined"},"geometry":{"type":"LineString","coordinates":[[111.60949,-7.94011],[111.59494,-7.95735]]}},{"type":"Feature","properties":{"namaobj":"Patahan","klsstr":"Sesar Diperkirakan","remark":"No Name","_cls":"Sesar Diperkirakan"},"geometry":{"type":"LineString","coordinates":[[111.54881,-8.00888],[111.55374,-8.00263]]}},{"type":"Feature","properties":{"namaobj":"Patahan","klsstr":"Sesar","remark":"No Name","_cls":"Sesar"},"geometry":{"type":"LineString","coordinates":[[111.57349,-7.93675],[111.57214,-7.95595],[111.571,-7.96221]]}},{"type":"Feature","properties":{"namaobj":"Patahan","klsstr":"Sesar Diperkirakan","remark":"No Name","_cls":"Sesar Diperkirakan"},"geometry":{"type":"LineString","coordinates":[[111.65728,-7.96635],[111.6512,-7.97162],[111.64366,-7.97923],[111.63927,-7.98448],[111.63296,-7.99148],[111.62402,-7.99988]]}},{"type":"Feature","properties":{"namaobj":"Kelurusan","klsstr":"Not Defined","remark":"No Name","_cls":"Not Defined"},"geometry":{"type":"LineString","coordinates":[[111.57028,-7.95426],[111.56906,-7.95726],[111.56643,-7.96194]]}},{"type":"Feature","properties":{"namaobj":"Patahan","klsstr":"Sesar","remark":"No Name","_cls":"Sesar"},"geometry":{"type":"LineString","coordinates":[[111.61244,-8.01148],[111.62103,-8.00413],[111.62662,-7.99903]]}},{"type":"Feature","properties":{"namaobj":"Kelurusan","klsstr":"Not Defined","remark":"No Name","_cls":"Not Defined"},"geometry":{"type":"LineString","coordinates":[[111.56335,-7.9462],[111.55988,-7.94751],[111.55903,-7.94836],[111.55716,-7.95079],[111.5564,-7.95164],[111.55528,-7.95248]]}},{"type":"Feature","properties":{"namaobj":"Patahan","klsstr":"Sesar Diperkirakan","remark":"No Name","_cls":"Sesar Diperkirakan"},"geometry":{"type":"LineString","coordinates":[[111.57985,-8.03153],[111.57986,-8.02338],[111.57923,-8.01223],[111.57856,-8.00623]]}},{"type":"Feature","properties":{"namaobj":"Patahan","klsstr":"Sesar Diperkirakan","remark":"No Name","_cls":"Sesar Diperkirakan"},"geometry":{"type":"MultiLineString","coordinates":[[[111.61244,-8.01148],[111.61217,-8.01168]],[[111.61031,-8.01303],[111.60922,-8.01381]]]}},{"type":"Feature","properties":{"namaobj":"Kelurusan","klsstr":"Not Defined","remark":"No Name","_cls":"Not Defined"},"geometry":{"type":"LineString","coordinates":[[111.58856,-7.96362],[111.58518,-7.96709]]}},{"type":"Feature","properties":{"namaobj":"Kelurusan","klsstr":"Not Defined","remark":"No Name","_cls":"Not Defined"},"geometry":{"type":"LineString","coordinates":[[111.59532,-7.94714],[111.5911,-7.94976]]}},{"type":"Feature","properties":{"namaobj":"Patahan","klsstr":"Sesar","remark":"No Name","_cls":"Sesar"},"geometry":{"type":"LineString","coordinates":[[111.59699,-7.97586],[111.5975,-7.97853],[111.59739,-7.98192],[111.59502,-7.98756],[111.59194,-7.99157],[111.59122,-7.99331],[111.59121,-7.99526],[111.59337,-7.99691],[111.59573,-7.99968]]}},{"type":"Feature","properties":{"namaobj":"Kelurusan","klsstr":"Not Defined","remark":"No Name","_cls":"Not Defined"},"geometry":{"type":"LineString","coordinates":[[111.65025,-7.96184],[111.64904,-7.96849]]}},{"type":"Feature","properties":{"namaobj":"Patahan","klsstr":"Sesar","remark":"No Name","_cls":"Sesar"},"geometry":{"type":"LineString","coordinates":[[111.60206,-8.00177],[111.59843,-8.01781],[111.59827,-8.01842]]}},{"type":"Feature","properties":{"namaobj":"Patahan","klsstr":"Sesar","remark":"No Name","_cls":"Sesar"},"geometry":{"type":"LineString","coordinates":[[111.61479,-7.94373],[111.60769,-7.95646],[111.60368,-7.96303],[111.59936,-7.96744]]}},{"type":"Feature","properties":{"namaobj":"Patahan","klsstr":"Sesar","remark":"No Name","_cls":"Sesar"},"geometry":{"type":"MultiLineString","coordinates":[[[111.66339,-7.9686],[111.66191,-7.97117]],[[111.66167,-7.97159],[111.65946,-7.97544]]]}},{"type":"Feature","properties":{"namaobj":"Patahan","klsstr":"Sesar","remark":"No Name","_cls":"Sesar"},"geometry":{"type":"LineString","coordinates":[[111.57945,-7.93429],[111.59249,-7.94507]]}},{"type":"Feature","properties":{"namaobj":"Kelurusan","klsstr":"Not Defined","remark":"No Name","_cls":"Not Defined"},"geometry":{"type":"LineString","coordinates":[[111.57327,-7.9362],[111.57224,-7.93704],[111.57087,-7.93705],[111.569,-7.93729],[111.56737,-7.93807]]}},{"type":"Feature","properties":{"namaobj":"Kelurusan","klsstr":"Not Defined","remark":"No Name","_cls":"Not Defined"},"geometry":{"type":"LineString","coordinates":[[111.5805,-7.95491],[111.58519,-7.9595],[111.58978,-7.96353],[111.59324,-7.96625],[111.59559,-7.96765]]}},{"type":"Feature","properties":{"namaobj":"Patahan","klsstr":"Sesar","remark":"No Name","_cls":"Sesar"},"geometry":{"type":"LineString","coordinates":[[111.6231,-7.95892],[111.62526,-7.96169]]}},{"type":"Feature","properties":{"namaobj":"Patahan","klsstr":"Sesar Diperkirakan","remark":"No Name","_cls":"Sesar Diperkirakan"},"geometry":{"type":"LineString","coordinates":[[111.63044,-7.97372],[111.64208,-7.98054]]}},{"type":"Feature","properties":{"namaobj":"Kelurusan","klsstr":"Not Defined","remark":"No Name","_cls":"Not Defined"},"geometry":{"type":"LineString","coordinates":[[111.59861,-7.94367],[111.59448,-7.94667]]}},{"type":"Feature","properties":{"namaobj":"Kelurusan","klsstr":"Not Defined","remark":"No Name","_cls":"Not Defined"},"geometry":{"type":"LineString","coordinates":[[111.5717,-7.94077],[111.57104,-7.94058],[111.56954,-7.94152],[111.56832,-7.94292],[111.56673,-7.94358],[111.56532,-7.94377],[111.56373,-7.94442],[111.56232,-7.94527],[111.55988,-7.94583],[111.55838,-7.94602],[111.55763,-7.94676],[111.55744,-7.94733]]}},{"type":"Feature","properties":{"namaobj":"Patahan","klsstr":"Sesar","remark":"No Name","_cls":"Sesar"},"geometry":{"type":"LineString","coordinates":[[111.61311,-7.98222],[111.60715,-7.99003]]}},{"type":"Feature","properties":{"namaobj":"Kelurusan","klsstr":"Not Defined","remark":"No Name","_cls":"Not Defined"},"geometry":{"type":"LineString","coordinates":[[111.62574,-7.95126],[111.62401,-7.95425]]}},{"type":"Feature","properties":{"namaobj":"Patahan","klsstr":"Sesar","remark":"No Name","_cls":"Sesar"},"geometry":{"type":"LineString","coordinates":[[111.59342,-7.94568],[111.60132,-7.95071]]}},{"type":"Feature","properties":{"namaobj":"Patahan","klsstr":"Sesar","remark":"No Name","_cls":"Sesar"},"geometry":{"type":"LineString","coordinates":[[111.60141,-7.9698],[111.59627,-7.97648]]}},{"type":"Feature","properties":{"namaobj":"Kelurusan","klsstr":"Not Defined","remark":"No Name","_cls":"Not Defined"},"geometry":{"type":"LineString","coordinates":[[111.56625,-7.95379],[111.5655,-7.95548],[111.56503,-7.95669],[111.56381,-7.95801]]}},{"type":"Feature","properties":{"namaobj":"Kelurusan","klsstr":"Not Defined","remark":"No Name","_cls":"Not Defined"},"geometry":{"type":"LineString","coordinates":[[111.60996,-7.93992],[111.61932,-7.95538]]}},{"type":"Feature","properties":{"namaobj":"Patahan","klsstr":"Sesar","remark":"No Name","_cls":"Sesar"},"geometry":{"type":"LineString","coordinates":[[111.63074,-7.95771],[111.6269,-7.96138],[111.62433,-7.96487]]}}]}