{"type":"FeatureCollection","features":[{"type":"Feature","properties":{"REMARK":"Sungai"},"geometry":{"type":"Polygon","coordinates":[[[111.57268,-8.04823],[111.57189,-8.04837],[111.57092,-8.04834],[111.57026,-8.0484],[111.56979,-8.04867],[111.5696,-8.0487],[111.56911,-8.04872],[111.56851,-8.04892],[111.56828,-8.04891],[111.56761,-8.0488],[111.56716,-8.04869],[111.56577,-8.04796],[111.56542,-8.04795],[111.56486,-8.04799],[111.56468,-8.04806],[111.56459,-8.04828],[111.56457,-8.04852],[111.56426,-8.0492],[111.56408,-8.04944],[111.5637,-8.04957],[111.56297,-8.04968],[111.56286,-8.04967],[111.56263,-8.04957],[111.56239,-8.04932],[111.56271,-8.04956],[111.56298,-8.04962],[111.56399,-8.04942],[111.56412,-8.04927],[111.56423,-8.04908],[111.56465,-8.04801],[111.56527,-8.04785],[111.56557,-8.04782],[111.56591,-8.04788],[111.56649,-8.0483],[111.56719,-8.0486],[111.56754,-8.04871],[111.56846,-8.04886],[111.56922,-8.04859],[111.56961,-8.04857],[111.57054,-8.04821],[111.57094,-8.0482],[111.57154,-8.04827],[111.57194,-8.04825],[111.57265,-8.04812],[111.57295,-8.04797],[111.57323,-8.0477],[111.57332,-8.04752],[111.57361,-8.04506],[111.57368,-8.04471],[111.57349,-8.04372],[111.57371,-8.04278],[111.57399,-8.04209],[111.57395,-8.04064],[111.57403,-8.04034],[111.57425,-8.03993],[111.57448,-8.03968],[111.57495,-8.03934],[111.57598,-8.03871],[111.57651,-8.03858],[111.57679,-8.03858],[111.57671,-8.03871],[111.57634,-8.03876],[111.57462,-8.03971],[111.57432,-8.04],[111.57412,-8.0405],[111.57409,-8.04211],[111.57375,-8.04283],[111.57366,-8.0431],[111.57359,-8.04369],[111.57384,-8.04466],[111.5735,-8.0463],[111.57352,-8.0468],[111.57345,-8.04763],[111.57339,-8.04782],[111.57327,-8.04795],[111.57268,-8.04823]]]}},{"type":"Feature","properties":{"REMARK":"Sungai"},"geometry":{"type":"MultiPolygon","coordinates":[[[[111.54585,-7.96352],[111.54567,-7.96367],[111.54562,-7.96313],[111.54566,-7.96302],[111.54572,-7.96297],[111.54594,-7.96339],[111.54585,-7.96352]]],[[[111.54537,-7.96389],[111.54531,-7.9639],[111.54513,-7.96385],[111.545,-7.96375],[111.54444,-7.96294],[111.54427,-7.96287],[111.54414,-7.96287],[111.54455,-7.9627],[111.54467,-7.96282],[111.54481,-7.96312],[111.54491,-7.96351],[111.54498,-7.96364],[111.54507,-7.96375],[111.54537,-7.96389]]],[[[111.54654,-7.9615],[111.54703,-7.96164],[111.54714,-7.9617],[111.54755,-7.96216],[111.54805,-7.96292],[111.54816,-7.96304],[111.54829,-7.96308],[111.54898,-7.96238],[111.54913,-7.96227],[111.54931,-7.96221],[111.55056,-7.96326],[111.55093,-7.96461],[111.55109,-7.96482],[111.55119,-7.9649],[111.55139,-7.9649],[111.55251,-7.96442],[111.55316,-7.96427],[111.55335,-7.96435],[111.55393,-7.96491],[111.5542,-7.96505],[111.55439,-7.96505],[111.55488,-7.9649],[111.55542,-7.96429],[111.55588,-7.96409],[111.5561,-7.96402],[111.55623,-7.96403],[111.55633,-7.96412],[111.55648,-7.96525],[111.55655,-7.96556],[111.55662,-7.96569],[111.5568,-7.96584],[111.55703,-7.96594],[111.55731,-7.96601],[111.55754,-7.96599],[111.55792,-7.96573],[111.55825,-7.96569],[111.55904,-7.96712],[111.55924,-7.96736],[111.55945,-7.9675],[111.55962,-7.96756],[111.55978,-7.96755],[111.55993,-7.96748],[111.56006,-7.96734],[111.56059,-7.9663],[111.56078,-7.96606],[111.56101,-7.96585],[111.56144,-7.96575],[111.5619,-7.96578],[111.56329,-7.96565],[111.56352,-7.96579],[111.56374,-7.966],[111.56391,-7.96624],[111.56418,-7.96672],[111.56431,-7.96682],[111.5649,-7.96636],[111.56508,-7.96625],[111.5653,-7.9662],[111.56548,-7.96621],[111.56563,-7.96631],[111.56605,-7.96669],[111.56641,-7.9669],[111.56679,-7.96701],[111.56734,-7.96708],[111.56822,-7.967],[111.56836,-7.96706],[111.56853,-7.96729],[111.56864,-7.96759],[111.56866,-7.96796],[111.56977,-7.96914],[111.57003,-7.96935],[111.57026,-7.96947],[111.5717,-7.9698],[111.57201,-7.96991],[111.57375,-7.97086],[111.57503,-7.97183],[111.57583,-7.97277],[111.57604,-7.97297],[111.57679,-7.97331],[111.57746,-7.97394],[111.57754,-7.97408],[111.57756,-7.97432],[111.57739,-7.97493],[111.57685,-7.97552],[111.57669,-7.97617],[111.57665,-7.97661],[111.57666,-7.97721],[111.57677,-7.97744],[111.577,-7.97772],[111.57778,-7.9783],[111.57788,-7.97842],[111.57791,-7.97938],[111.57832,-7.98075],[111.57836,-7.98138],[111.5782,-7.98163],[111.57797,-7.98214],[111.57734,-7.98267],[111.57721,-7.98279],[111.57719,-7.98286],[111.57756,-7.9832],[111.57804,-7.98353],[111.57889,-7.9839],[111.57901,-7.98401],[111.57915,-7.98433],[111.57949,-7.98615],[111.5796,-7.98662],[111.57984,-7.98729],[111.57985,-7.9876],[111.57994,-7.98799],[111.58005,-7.98822],[111.58022,-7.98835],[111.58046,-7.98843],[111.58141,-7.98845],[111.58182,-7.98861],[111.58187,-7.98871],[111.58179,-7.98992],[111.58212,-7.99034],[111.58291,-7.99085],[111.583,-7.99101],[111.58308,-7.99175],[111.58298,-7.99244],[111.58283,-7.99154],[111.58271,-7.99123],[111.58254,-7.99095],[111.58234,-7.99075],[111.58175,-7.99042],[111.58165,-7.99025],[111.58155,-7.98992],[111.58153,-7.98975],[111.58172,-7.98906],[111.58168,-7.98891],[111.58155,-7.98879],[111.58133,-7.98866],[111.58108,-7.98862],[111.58028,-7.98866],[111.58014,-7.98857],[111.57948,-7.98748],[111.57939,-7.98716],[111.57916,-7.98597],[111.57879,-7.98513],[111.5785,-7.98476],[111.5783,-7.98457],[111.57766,-7.98424],[111.57722,-7.98391],[111.5768,-7.98337],[111.57676,-7.98315],[111.57679,-7.983],[111.57695,-7.98271],[111.5774,-7.98209],[111.57786,-7.98177],[111.57795,-7.98157],[111.57808,-7.98106],[111.57804,-7.98084],[111.57777,-7.98015],[111.57758,-7.97984],[111.57744,-7.97946],[111.57749,-7.97865],[111.57743,-7.97849],[111.57716,-7.97821],[111.5766,-7.9778],[111.57642,-7.97757],[111.57629,-7.97731],[111.57624,-7.97711],[111.57625,-7.97681],[111.57669,-7.97485],[111.5768,-7.97466],[111.57714,-7.97442],[111.57718,-7.97432],[111.57714,-7.97418],[111.57704,-7.97403],[111.57672,-7.97373],[111.57544,-7.97278],[111.57492,-7.97217],[111.57446,-7.97174],[111.5738,-7.97124],[111.5726,-7.97064],[111.57204,-7.97042],[111.57157,-7.97011],[111.57126,-7.96999],[111.57062,-7.96985],[111.57031,-7.96986],[111.56997,-7.96982],[111.56971,-7.96968],[111.56947,-7.96946],[111.56922,-7.9689],[111.56839,-7.96796],[111.56806,-7.96748],[111.56784,-7.96738],[111.56744,-7.96728],[111.56637,-7.96713],[111.56611,-7.96703],[111.56526,-7.96639],[111.5644,-7.96697],[111.56425,-7.96697],[111.56413,-7.9669],[111.56351,-7.9661],[111.56313,-7.96584],[111.56117,-7.96595],[111.56104,-7.96603],[111.56081,-7.96641],[111.56024,-7.96755],[111.56008,-7.96769],[111.55989,-7.96773],[111.55967,-7.96773],[111.55933,-7.96763],[111.55893,-7.96744],[111.55875,-7.96731],[111.55864,-7.96715],[111.55855,-7.96658],[111.55846,-7.96637],[111.5583,-7.96619],[111.55803,-7.96609],[111.55782,-7.96609],[111.55723,-7.96617],[111.55695,-7.9661],[111.55663,-7.96597],[111.55648,-7.96583],[111.55637,-7.96565],[111.5562,-7.96505],[111.55598,-7.9646],[111.55587,-7.9645],[111.55559,-7.96469],[111.55479,-7.96541],[111.5546,-7.96543],[111.55405,-7.96515],[111.55361,-7.96489],[111.55328,-7.96461],[111.55312,-7.96461],[111.55275,-7.96466],[111.55209,-7.9648],[111.55128,-7.96504],[111.55105,-7.96499],[111.55089,-7.96486],[111.55069,-7.96461],[111.55048,-7.96349],[111.55021,-7.96322],[111.54928,-7.96247],[111.54921,-7.96249],[111.54886,-7.96293],[111.54853,-7.96328],[111.5484,-7.96333],[111.54825,-7.96332],[111.54811,-7.96326],[111.54795,-7.96312],[111.54769,-7.96281],[111.54723,-7.96211],[111.5469,-7.9618],[111.54667,-7.96172],[111.5455,-7.96157],[111.54538,-7.96165],[111.54529,-7.96179],[111.54528,-7.96194],[111.54534,-7.96223],[111.54512,-7.96227],[111.54503,-7.96201],[111.54503,-7.96189],[111.5452,-7.96163],[111.54529,-7.96141],[111.54539,-7.96135],[111.54571,-7.96133],[111.54654,-7.9615]]],[[[111.53833,-7.95727],[111.53824,-7.95734],[111.53847,-7.95688],[111.5386,-7.95618],[111.53882,-7.95588],[111.53893,-7.95583],[111.53896,-7.95572],[111.53899,-7.95598],[111.53889,-7.95614],[111.5387,-7.9563],[111.53848,-7.95698],[111.53833,-7.95727]]],[[[111.61295,-7.93538],[111.61355,-7.93614],[111.61377,-7.93631],[111.61402,-7.93657],[111.61435,-7.93681],[111.61521,-7.93719],[111.61564,-7.93727],[111.61579,-7.93723],[111.61599,-7.93705],[111.61631,-7.93712],[111.6164,-7.93709],[111.61663,-7.9367],[111.61711,-7.93662],[111.61687,-7.93696],[111.61664,-7.93717],[111.61642,-7.93731],[111.61603,-7.93744],[111.61581,-7.93744],[111.61529,-7.93735],[111.61467,-7.93714],[111.61388,-7.9366],[111.61355,-7.93635],[111.6127,-7.93543],[111.61259,-7.93545],[111.6125,-7.93553],[111.612,-7.93643],[111.61207,-7.93603],[111.61224,-7.93563],[111.61244,-7.93526],[111.6127,-7.93512],[111.61295,-7.93538]]],[[[111.58203,-7.93112],[111.58236,-7.93158],[111.5829,-7.93261],[111.58316,-7.93285],[111.58406,-7.93329],[111.58562,-7.93391],[111.586,-7.93419],[111.58713,-7.93518],[111.5873,-7.93539],[111.58761,-7.93597],[111.58781,-7.9371],[111.58794,-7.93734],[111.58815,-7.93758],[111.58831,-7.93766],[111.58869,-7.93774],[111.58882,-7.93772],[111.5898,-7.93659],[111.59003,-7.93648],[111.59029,-7.93647],[111.59187,-7.93672],[111.59246,-7.93677],[111.59246,-7.93689],[111.59308,-7.93685],[111.59323,-7.93674],[111.59332,-7.93654],[111.59335,-7.93618],[111.5933,-7.93571],[111.59331,-7.93535],[111.59339,-7.93504],[111.59367,-7.93438],[111.5938,-7.93427],[111.59444,-7.93401],[111.59483,-7.93395],[111.59496,-7.93389],[111.59512,-7.93356],[111.59508,-7.93339],[111.59512,-7.93331],[111.5952,-7.93328],[111.59553,-7.93318],[111.5961,-7.9332],[111.59631,-7.93318],[111.59703,-7.93294],[111.59747,-7.93291],[111.59822,-7.93293],[111.59985,-7.93306],[111.60008,-7.93333],[111.60019,-7.93361],[111.60007,-7.93416],[111.60009,-7.93424],[111.60021,-7.93431],[111.60027,-7.93449],[111.60032,-7.93452],[111.60052,-7.93442],[111.60071,-7.93442],[111.60112,-7.93434],[111.60134,-7.93422],[111.60151,-7.93408],[111.60162,-7.93405],[111.60182,-7.93402],[111.60208,-7.93409],[111.60235,-7.93408],[111.60239,-7.934],[111.6025,-7.93397],[111.60255,-7.9339],[111.60262,-7.93388],[111.60279,-7.93371],[111.60313,-7.93369],[111.60337,-7.93374],[111.60384,-7.93399],[111.60414,-7.93436],[111.6044,-7.93458],[111.60443,-7.93472],[111.60441,-7.93491],[111.60445,-7.93505],[111.60458,-7.93517],[111.60469,-7.93567],[111.60476,-7.93571],[111.60494,-7.93577],[111.60583,-7.93593],[111.6059,-7.93599],[111.60618,-7.93582],[111.6063,-7.93561],[111.60636,-7.93538],[111.60637,-7.93515],[111.60629,-7.9348],[111.60651,-7.93464],[111.60733,-7.93527],[111.60795,-7.93594],[111.60822,-7.93609],[111.60836,-7.93608],[111.60853,-7.93614],[111.60914,-7.93585],[111.60969,-7.93569],[111.61007,-7.93573],[111.61049,-7.93567],[111.61077,-7.93579],[111.6109,-7.93592],[111.61107,-7.93623],[111.61116,-7.93649],[111.61118,-7.93679],[111.61125,-7.93683],[111.61118,-7.93712],[111.61119,-7.93722],[111.61132,-7.93728],[111.61139,-7.93725],[111.61128,-7.93735],[111.61119,-7.9373],[111.61104,-7.93713],[111.61034,-7.93591],[111.60996,-7.93594],[111.60901,-7.93625],[111.60867,-7.93644],[111.60858,-7.93642],[111.6078,-7.93599],[111.60753,-7.93573],[111.60722,-7.93535],[111.60697,-7.93513],[111.60663,-7.93493],[111.60647,-7.93502],[111.60641,-7.93516],[111.6063,-7.93584],[111.60618,-7.93597],[111.60596,-7.93609],[111.60567,-7.93609],[111.6051,-7.93601],[111.60481,-7.93592],[111.60455,-7.93574],[111.60435,-7.93553],[111.60414,-7.9347],[111.60397,-7.93441],[111.60318,-7.93378],[111.60303,-7.93377],[111.60254,-7.93428],[111.60147,-7.93431],[111.6013,-7.93441],[111.60097,-7.93486],[111.60088,-7.93487],[111.60064,-7.93482],[111.60038,-7.93471],[111.60016,-7.93453],[111.60004,-7.93433],[111.59998,-7.93397],[111.59974,-7.93333],[111.59955,-7.93311],[111.59786,-7.933],[111.59723,-7.93307],[111.59628,-7.9334],[111.59548,-7.93333],[111.59538,-7.93337],[111.59522,-7.9335],[111.59508,-7.93392],[111.59499,-7.93404],[111.59438,-7.93421],[111.59392,-7.93441],[111.59355,-7.93492],[111.5935,-7.93511],[111.59358,-7.93617],[111.59345,-7.93672],[111.59334,-7.93692],[111.5932,-7.93702],[111.59257,-7.93713],[111.59209,-7.93712],[111.59005,-7.93695],[111.58975,-7.937],[111.58937,-7.93748],[111.58877,-7.93806],[111.58844,-7.93806],[111.58821,-7.93797],[111.58779,-7.93771],[111.58759,-7.93748],[111.58747,-7.93727],[111.58733,-7.93685],[111.58715,-7.93608],[111.58699,-7.93579],[111.58639,-7.93504],[111.58572,-7.9344],[111.58539,-7.93417],[111.58484,-7.93393],[111.58415,-7.93377],[111.58372,-7.93363],[111.58308,-7.93334],[111.58268,-7.93296],[111.5825,-7.93271],[111.58227,-7.93194],[111.58211,-7.93167],[111.58171,-7.9314],[111.58154,-7.93142],[111.58053,-7.93196],[111.58037,-7.93212],[111.58019,-7.93245],[111.57951,-7.93404],[111.57941,-7.93411],[111.57886,-7.93423],[111.57857,-7.93439],[111.57848,-7.93455],[111.57851,-7.9351],[111.57829,-7.93547],[111.57812,-7.93556],[111.57794,-7.93558],[111.57767,-7.93553],[111.57667,-7.93511],[111.57652,-7.9358],[111.5764,-7.93601],[111.57619,-7.93624],[111.57591,-7.93642],[111.57468,-7.93705],[111.57394,-7.93763],[111.57326,-7.93845],[111.57288,-7.93875],[111.57254,-7.93876],[111.5723,-7.9387],[111.57198,-7.93856],[111.57177,-7.9384],[111.57126,-7.93771],[111.57106,-7.93754],[111.57089,-7.93749],[111.57074,-7.93751],[111.5705,-7.93763],[111.5699,-7.93844],[111.56965,-7.93886],[111.56943,-7.93977],[111.56937,-7.94019],[111.56925,-7.94053],[111.56913,-7.94058],[111.56854,-7.94047],[111.56721,-7.94047],[111.56681,-7.94063],[111.56657,-7.94077],[111.56642,-7.94093],[111.56641,-7.94107],[111.56648,-7.9414],[111.56684,-7.94203],[111.56689,-7.94223],[111.56681,-7.94242],[111.56666,-7.94257],[111.56631,-7.94278],[111.56568,-7.94331],[111.56517,-7.94354],[111.56455,-7.94358],[111.56422,-7.94356],[111.56379,-7.94347],[111.56274,-7.94315],[111.56144,-7.9426],[111.5613,-7.94266],[111.56107,-7.94289],[111.56084,-7.94305],[111.56,-7.94358],[111.55889,-7.94455],[111.55883,-7.94469],[111.55883,-7.94487],[111.5589,-7.94518],[111.55909,-7.94566],[111.55953,-7.94643],[111.56014,-7.94682],[111.56026,-7.94698],[111.55969,-7.94791],[111.55906,-7.94827],[111.5587,-7.94841],[111.55845,-7.94842],[111.5581,-7.94838],[111.55708,-7.94807],[111.55686,-7.94813],[111.55673,-7.94822],[111.55658,-7.94861],[111.55631,-7.94906],[111.55571,-7.94977],[111.55533,-7.9503],[111.55525,-7.95033],[111.55505,-7.95029],[111.55371,-7.94903],[111.55349,-7.94891],[111.55343,-7.94893],[111.55317,-7.94931],[111.55288,-7.94946],[111.55244,-7.94956],[111.55195,-7.94955],[111.55092,-7.94946],[111.55078,-7.94943],[111.55061,-7.94945],[111.5505,-7.94954],[111.55039,-7.94984],[111.54973,-7.95108],[111.54948,-7.95174],[111.5493,-7.95188],[111.54688,-7.95269],[111.54596,-7.95296],[111.54563,-7.95298],[111.54537,-7.95294],[111.54493,-7.95256],[111.54391,-7.95204],[111.54362,-7.95208],[111.54352,-7.95219],[111.54334,-7.95248],[111.54321,-7.95322],[111.54301,-7.95353],[111.543,-7.95346],[111.54286,-7.95348],[111.54273,-7.95345],[111.54266,-7.95337],[111.54213,-7.95317],[111.54137,-7.95322],[111.54057,-7.9539],[111.54034,-7.95405],[111.53977,-7.95465],[111.53963,-7.95474],[111.53908,-7.95486],[111.53892,-7.95495],[111.53886,-7.95501],[111.53896,-7.95568],[111.53888,-7.95553],[111.53888,-7.95523],[111.5388,-7.95502],[111.5388,-7.95491],[111.53871,-7.95489],[111.53875,-7.95478],[111.53921,-7.95462],[111.53978,-7.9545],[111.54019,-7.954],[111.54057,-7.9538],[111.54087,-7.95349],[111.54102,-7.95322],[111.54107,-7.95297],[111.5412,-7.95115],[111.54106,-7.95098],[111.54088,-7.95089],[111.5405,-7.95082],[111.54022,-7.95072],[111.53975,-7.95035],[111.53793,-7.94943],[111.53719,-7.94912],[111.53673,-7.94909],[111.53653,-7.94914],[111.53642,-7.94922],[111.53642,-7.94929],[111.53666,-7.94998],[111.53665,-7.95012],[111.53658,-7.95023],[111.53632,-7.95042],[111.53571,-7.95079],[111.53536,-7.9508],[111.53505,-7.95094],[111.53478,-7.95114],[111.53358,-7.95245],[111.53326,-7.9527],[111.5331,-7.95274],[111.53285,-7.95268],[111.53233,-7.95229],[111.53176,-7.95205],[111.53147,-7.95205],[111.53138,-7.95211],[111.53127,-7.95225],[111.53156,-7.95276],[111.53162,-7.95321],[111.53151,-7.95349],[111.53147,-7.95333],[111.53147,-7.95269],[111.53126,-7.95226],[111.53128,-7.95194],[111.53148,-7.95186],[111.53173,-7.95184],[111.53219,-7.95197],[111.53281,-7.95235],[111.53297,-7.95237],[111.53321,-7.95234],[111.53336,-7.95225],[111.53402,-7.95146],[111.53466,-7.95079],[111.53568,-7.95039],[111.53595,-7.95026],[111.53612,-7.95011],[111.53622,-7.94982],[111.53618,-7.94935],[111.53622,-7.9492],[111.53631,-7.94907],[111.53661,-7.94891],[111.53695,-7.9489],[111.53824,-7.94932],[111.53873,-7.94956],[111.53972,-7.95011],[111.54096,-7.95054],[111.54126,-7.9507],[111.54135,-7.9508],[111.54148,-7.95218],[111.54155,-7.9526],[111.54162,-7.95283],[111.54168,-7.95289],[111.54206,-7.95286],[111.54289,-7.95308],[111.54302,-7.95305],[111.54316,-7.9524],[111.54328,-7.95221],[111.54353,-7.95199],[111.54381,-7.95187],[111.54412,-7.95182],[111.54431,-7.95182],[111.54484,-7.9523],[111.54525,-7.95257],[111.5455,-7.95267],[111.54578,-7.9527],[111.54621,-7.95265],[111.54664,-7.95254],[111.54791,-7.95211],[111.54868,-7.95193],[111.54889,-7.95184],[111.54916,-7.95162],[111.54943,-7.95131],[111.5496,-7.95099],[111.54968,-7.95038],[111.5499,-7.94995],[111.54992,-7.94983],[111.55018,-7.94946],[111.55032,-7.94935],[111.55056,-7.94929],[111.5513,-7.94926],[111.55224,-7.94928],[111.55292,-7.9492],[111.55305,-7.94912],[111.55329,-7.94871],[111.55341,-7.9487],[111.55371,-7.9488],[111.5545,-7.94935],[111.55487,-7.9498],[111.55505,-7.94986],[111.5552,-7.94986],[111.55556,-7.9494],[111.55581,-7.94915],[111.5567,-7.94789],[111.55683,-7.94782],[111.557,-7.94779],[111.55773,-7.94803],[111.55841,-7.94817],[111.5587,-7.94812],[111.5596,-7.94768],[111.56,-7.94711],[111.55902,-7.94623],[111.55872,-7.94538],[111.5586,-7.94494],[111.55858,-7.94468],[111.55863,-7.94452],[111.55879,-7.94434],[111.55923,-7.94394],[111.56107,-7.94262],[111.56149,-7.9421],[111.56167,-7.94211],[111.56185,-7.94218],[111.56243,-7.94274],[111.5629,-7.94297],[111.56328,-7.94312],[111.56479,-7.94339],[111.56508,-7.94335],[111.5654,-7.94319],[111.56584,-7.9429],[111.56604,-7.94271],[111.56629,-7.94226],[111.56633,-7.942],[111.56613,-7.9413],[111.56608,-7.94096],[111.56609,-7.94076],[111.56672,-7.94052],[111.56757,-7.94029],[111.56904,-7.94037],[111.56913,-7.94032],[111.56932,-7.93931],[111.56936,-7.93893],[111.56979,-7.93814],[111.57035,-7.93757],[111.57061,-7.93735],[111.57108,-7.93706],[111.57119,-7.93705],[111.57155,-7.93748],[111.57187,-7.93799],[111.57214,-7.93824],[111.57242,-7.93844],[111.57255,-7.93851],[111.57268,-7.93851],[111.5729,-7.93837],[111.5732,-7.93797],[111.57414,-7.93711],[111.57464,-7.93675],[111.57564,-7.93617],[111.57622,-7.93573],[111.57635,-7.93549],[111.5764,-7.93534],[111.57639,-7.93526],[111.57618,-7.93521],[111.57612,-7.93514],[111.57611,-7.9349],[111.57616,-7.93474],[111.57628,-7.93467],[111.5765,-7.93464],[111.57673,-7.93469],[111.57789,-7.93525],[111.57803,-7.9353],[111.57812,-7.93527],[111.5782,-7.93513],[111.57814,-7.93442],[111.5782,-7.93429],[111.57853,-7.93408],[111.57878,-7.93397],[111.57926,-7.93387],[111.57938,-7.93376],[111.57951,-7.93343],[111.57965,-7.9328],[111.57968,-7.93247],[111.57976,-7.93228],[111.58026,-7.93178],[111.58082,-7.9313],[111.58107,-7.93113],[111.58134,-7.93102],[111.58173,-7.93098],[111.58187,-7.931],[111.58203,-7.93112]]]]}}]}