{"type":"FeatureCollection","features":[{"type":"Feature","properties":{"REMARK":"Tonggak/Pal KM"},"geometry":{"type":"Point","coordinates":[111.54315,-7.96541]}},{"type":"Feature","properties":{"REMARK":"Tonggak/Pal KM"},"geometry":{"type":"Point","coordinates":[111.5514,-7.96656]}},{"type":"Feature","properties":{"REMARK":"Tonggak/Pal KM"},"geometry":{"type":"Point","coordinates":[111.55933,-7.96919]}},{"type":"Feature","properties":{"REMARK":"Tonggak/Pal KM"},"geometry":{"type":"Point","coordinates":[111.56749,-7.97232]}},{"type":"Feature","properties":{"REMARK":"Tonggak/Pal KM"},"geometry":{"type":"Point","coordinates":[111.5748,-7.97758]}},{"type":"Feature","properties":{"REMARK":"Tonggak/Pal KM"},"geometry":{"type":"Point","coordinates":[111.57458,-7.98557]}},{"type":"Feature","properties":{"REMARK":"Tonggak/Pal KM"},"geometry":{"type":"Point","coordinates":[111.57689,-7.99029]}},{"type":"Feature","properties":{"REMARK":"Tonggak/Pal KM"},"geometry":{"type":"Point","coordinates":[111.57941,-7.99667]}},{"type":"Feature","properties":{"REMARK":"Tonggak/Pal KM"},"geometry":{"type":"Point","coordinates":[111.57652,-8.00383]}},{"type":"Feature","properties":{"REMARK":"Tonggak/Pal KM"},"geometry":{"type":"Point","coordinates":[111.5695,-8.00722]}},{"type":"Feature","properties":{"REMARK":"Tonggak/Pal KM"},"geometry":{"type":"Point","coordinates":[111.56349,-8.01134]}},{"type":"Feature","properties":{"REMARK":"Tonggak/Pal KM"},"geometry":{"type":"Point","coordinates":[111.56933,-8.01326]}},{"type":"Feature","properties":{"REMARK":"Tonggak/Pal KM"},"geometry":{"type":"Point","coordinates":[111.57638,-8.01607]}},{"type":"Feature","properties":{"REMARK":"Tonggak/Pal KM"},"geometry":{"type":"Point","coordinates":[111.57839,-8.02227]}},{"type":"Feature","properties":{"REMARK":"Tonggak/Pal KM"},"geometry":{"type":"Point","coordinates":[111.57614,-8.02884]}},{"type":"Feature","properties":{"REMARK":"Tonggak/Pal KM"},"geometry":{"type":"Point","coordinates":[111.57682,-8.03592]}}]}