{"type":"FeatureCollection","features":[{"type":"Feature","properties":{"NAMOBJ":"TUMPAKPELEM","REMARK":"Desa","FTYPE":null,"KLSTPN":null,"_cls":"Desa"},"geometry":{"type":"Point","coordinates":[111.61457,-8.00424]}},{"type":"Feature","properties":{"NAMOBJ":"GROGOL","REMARK":"Desa","FTYPE":null,"KLSTPN":null,"_cls":"Desa"},"geometry":{"type":"Point","coordinates":[111.54888,-8.00993]}},{"type":"Feature","properties":{"NAMOBJ":"PANGKAL","REMARK":"Desa","FTYPE":null,"KLSTPN":null,"_cls":"Desa"},"geometry":{"type":"Point","coordinates":[111.58785,-8.01318]}},{"type":"Feature","properties":{"NAMOBJ":"SAWOO","REMARK":"Kecamatan","FTYPE":null,"KLSTPN":null,"_cls":"Kecamatan"},"geometry":{"type":"Point","coordinates":[111.58372,-8.01582]}},{"type":"Feature","properties":{"NAMOBJ":"PONOROGO","REMARK":"Kota","FTYPE":null,"KLSTPN":null,"_cls":"Kota"},"geometry":{"type":"Point","coordinates":[111.56011,-8.01838]}},{"type":"Feature","properties":{"NAMOBJ":"TUMPUK","REMARK":"Desa","FTYPE":null,"KLSTPN":null,"_cls":"Desa"},"geometry":{"type":"Point","coordinates":[111.5632,-8.03853]}},{"type":"Feature","properties":{"NAMOBJ":"TUMPAKPELEM","REMARK":"Desa","FTYPE":null,"KLSTPN":null,"_cls":"Desa"},"geometry":{"type":"Point","coordinates":[111.62783,-8.00275]}},{"type":"Feature","properties":{"NAMOBJ":"PONOROGO","REMARK":"Kota","FTYPE":null,"KLSTPN":null,"_cls":"Kota"},"geometry":{"type":"Point","coordinates":[111.64211,-8.00284]}},{"type":"Feature","properties":{"NAMOBJ":"JAWA TIMUR","REMARK":"Daerah Istimewa","FTYPE":null,"KLSTPN":null,"_cls":"Daerah Istimewa"},"geometry":{"type":"Point","coordinates":[111.564,-7.95136]}},{"type":"Feature","properties":{"NAMOBJ":"TEMON","REMARK":"Desa","FTYPE":null,"KLSTPN":null,"_cls":"Desa"},"geometry":{"type":"Point","coordinates":[111.60237,-7.96987]}},{"type":"Feature","properties":{"NAMOBJ":"SRITI","REMARK":"Desa","FTYPE":null,"KLSTPN":null,"_cls":"Desa"},"geometry":{"type":"Point","coordinates":[111.61992,-7.97241]}},{"type":"Feature","properties":{"NAMOBJ":"TUMPAKPELEM","REMARK":"Desa","FTYPE":null,"KLSTPN":null,"_cls":"Desa"},"geometry":{"type":"Point","coordinates":[111.61281,-7.99639]}},{"type":"Feature","properties":{"NAMOBJ":"SAWOO","REMARK":"Desa","FTYPE":null,"KLSTPN":null,"_cls":"Desa"},"geometry":{"type":"Point","coordinates":[111.58553,-7.98115]}},{"type":"Feature","properties":{"NAMOBJ":"PANGKAL","REMARK":"Desa","FTYPE":null,"KLSTPN":null,"_cls":"Desa"},"geometry":{"type":"Point","coordinates":[111.59473,-7.99814]}},{"type":"Feature","properties":{"NAMOBJ":"PRAYUNGAN","REMARK":"Desa","FTYPE":null,"KLSTPN":null,"_cls":"Desa"},"geometry":{"type":"Point","coordinates":[111.55199,-7.96353]}},{"type":"Feature","properties":{"NAMOBJ":"TUGUREJO","REMARK":"Desa","FTYPE":null,"KLSTPN":null,"_cls":"Desa"},"geometry":{"type":"Point","coordinates":[111.54297,-7.97318]}},{"type":"Feature","properties":{"NAMOBJ":"GROGOL","REMARK":"Desa","FTYPE":null,"KLSTPN":null,"_cls":"Desa"},"geometry":{"type":"Point","coordinates":[111.55092,-7.99075]}},{"type":"Feature","properties":{"NAMOBJ":"KETRO","REMARK":"Desa","FTYPE":null,"KLSTPN":null,"_cls":"Desa"},"geometry":{"type":"Point","coordinates":[111.53053,-7.94685]}},{"type":"Feature","properties":{"NAMOBJ":"NGINDENG","REMARK":"Desa","FTYPE":null,"KLSTPN":null,"_cls":"Desa"},"geometry":{"type":"Point","coordinates":[111.54513,-7.95091]}},{"type":"Feature","properties":{"NAMOBJ":"KORI","REMARK":"Desa","FTYPE":null,"KLSTPN":null,"_cls":"Desa"},"geometry":{"type":"Point","coordinates":[111.54235,-7.95679]}},{"type":"Feature","properties":{"NAMOBJ":"BONDRANG","REMARK":"Desa","FTYPE":null,"KLSTPN":null,"_cls":"Desa"},"geometry":{"type":"Point","coordinates":[111.54847,-7.93757]}},{"type":"Feature","properties":{"NAMOBJ":"NGINDENG","REMARK":"Desa","FTYPE":null,"KLSTPN":null,"_cls":"Desa"},"geometry":{"type":"Point","coordinates":[111.56305,-7.94304]}},{"type":"Feature","properties":{"NAMOBJ":"TEMPURAN","REMARK":"Desa","FTYPE":null,"KLSTPN":null,"_cls":"Desa"},"geometry":{"type":"Point","coordinates":[111.62366,-7.98646]}},{"type":"Feature","properties":{"NAMOBJ":"SAWOO","REMARK":"Kecamatan","FTYPE":null,"KLSTPN":null,"_cls":"Kecamatan"},"geometry":{"type":"Point","coordinates":[111.58214,-7.95257]}},{"type":"Feature","properties":{"NAMOBJ":"TUMPAKPELEM","REMARK":"Desa","FTYPE":null,"KLSTPN":null,"_cls":"Desa"},"geometry":{"type":"Point","coordinates":[111.62525,-7.99601]}},{"type":"Feature","properties":{"NAMOBJ":"TEMPURAN","REMARK":"Desa","FTYPE":null,"KLSTPN":null,"_cls":"Desa"},"geometry":{"type":"Point","coordinates":[111.64577,-7.98998]}},{"type":"Feature","properties":{"NAMOBJ":"SAWOO","REMARK":"Kecamatan","FTYPE":null,"KLSTPN":null,"_cls":"Kecamatan"},"geometry":{"type":"Point","coordinates":[111.64469,-7.98065]}},{"type":"Feature","properties":{"NAMOBJ":"SRITI","REMARK":"Desa","FTYPE":null,"KLSTPN":null,"_cls":"Desa"},"geometry":{"type":"Point","coordinates":[111.63963,-7.97092]}},{"type":"Feature","properties":{"NAMOBJ":"TEMON","REMARK":"Desa","FTYPE":null,"KLSTPN":null,"_cls":"Desa"},"geometry":{"type":"Point","coordinates":[111.62527,-7.95219]}},{"type":"Feature","properties":{"NAMOBJ":"Bondrang","REMARK":null,"FTYPE":"Desa","KLSTPN":"Wilayah Administrasi","_cls":"Tidak ada data"},"geometry":{"type":"Point","coordinates":[111.557,-7.93078]}},{"type":"Feature","properties":{"NAMOBJ":"Grogol","REMARK":null,"FTYPE":"Desa","KLSTPN":"Wilayah Administrasi","_cls":"Tidak ada data"},"geometry":{"type":"Point","coordinates":[111.54809,-7.99466]}},{"type":"Feature","properties":{"NAMOBJ":"Ketro","REMARK":null,"FTYPE":"Desa","KLSTPN":"Wilayah Administrasi","_cls":"Tidak ada data"},"geometry":{"type":"Point","coordinates":[111.5353,-7.95159]}},{"type":"Feature","properties":{"NAMOBJ":"Kori","REMARK":null,"FTYPE":"Desa","KLSTPN":"Wilayah Administrasi","_cls":"Tidak ada data"},"geometry":{"type":"Point","coordinates":[111.54771,-7.95627]}},{"type":"Feature","properties":{"NAMOBJ":"Ngindeng","REMARK":null,"FTYPE":"Desa","KLSTPN":"Wilayah Administrasi","_cls":"Tidak ada data"},"geometry":{"type":"Point","coordinates":[111.57163,-7.94325]}},{"type":"Feature","properties":{"NAMOBJ":"Pangkal","REMARK":null,"FTYPE":"Desa","KLSTPN":"Wilayah Administrasi","_cls":"Tidak ada data"},"geometry":{"type":"Point","coordinates":[111.57934,-8.01184]}},{"type":"Feature","properties":{"NAMOBJ":"Prayungan","REMARK":null,"FTYPE":"Desa","KLSTPN":"Wilayah Administrasi","_cls":"Tidak ada data"},"geometry":{"type":"Point","coordinates":[111.56021,-7.96455]}},{"type":"Feature","properties":{"NAMOBJ":"Sawoo","REMARK":null,"FTYPE":"Desa","KLSTPN":"Wilayah Administrasi","_cls":"Tidak ada data"},"geometry":{"type":"Point","coordinates":[111.58304,-7.97384]}},{"type":"Feature","properties":{"NAMOBJ":"Sriti","REMARK":null,"FTYPE":"Desa","KLSTPN":"Wilayah Administrasi","_cls":"Tidak ada data"},"geometry":{"type":"Point","coordinates":[111.63797,-7.97131]}},{"type":"Feature","properties":{"NAMOBJ":"Temon","REMARK":null,"FTYPE":"Desa","KLSTPN":"Wilayah Administrasi","_cls":"Tidak ada data"},"geometry":{"type":"Point","coordinates":[111.60762,-7.95817]}},{"type":"Feature","properties":{"NAMOBJ":"Tempuran","REMARK":null,"FTYPE":"Desa","KLSTPN":"Wilayah Administrasi","_cls":"Tidak ada data"},"geometry":{"type":"Point","coordinates":[111.64228,-7.99591]}},{"type":"Feature","properties":{"NAMOBJ":"Tugurejo","REMARK":null,"FTYPE":"Desa","KLSTPN":"Wilayah Administrasi","_cls":"Tidak ada data"},"geometry":{"type":"Point","coordinates":[111.54635,-7.97451]}},{"type":"Feature","properties":{"NAMOBJ":"Tumpakpelem","REMARK":null,"FTYPE":"Desa","KLSTPN":"Wilayah Administrasi","_cls":"Tidak ada data"},"geometry":{"type":"Point","coordinates":[111.6125,-7.99922]}},{"type":"Feature","properties":{"NAMOBJ":"Tumpuk","REMARK":null,"FTYPE":"Desa","KLSTPN":"Wilayah Administrasi","_cls":"Tidak ada data"},"geometry":{"type":"Point","coordinates":[111.55785,-8.03451]}},{"type":"Feature","properties":{"NAMOBJ":"Sawoo","REMARK":null,"FTYPE":"Kecamatan","KLSTPN":"Wilayah Administrasi","_cls":"Tidak ada data"},"geometry":{"type":"Point","coordinates":[111.58557,-7.98187]}}]}