{"type":"FeatureCollection","features":[{"type":"Feature","properties":{"gridcode":1,"Topografi":"0-500 Mpdl","NTopografi":5,"_cls":"0-500 Mpdl"},"geometry":{"type":"MultiPolygon","coordinates":[[[[111.61531,-7.96621],[111.61536,-7.96662],[111.61508,-7.96657],[111.6148,-7.9662],[111.61531,-7.96621]]],[[[111.62134,-7.96546],[111.62121,-7.96565],[111.62111,-7.96557],[111.6212,-7.96539],[111.62134,-7.96546]]],[[[111.6148,-7.95738],[111.61484,-7.95747],[111.61466,-7.95744],[111.6148,-7.95738]]],[[[111.57486,-7.92434],[111.57535,-7.92488],[111.57664,-7.92581],[111.57818,-7.92709],[111.57898,-7.92795],[111.58067,-7.93001],[111.58188,-7.9299],[111.58244,-7.93003],[111.58296,-7.93006],[111.58459,-7.93005],[111.58544,-7.93023],[111.58635,-7.93073],[111.58699,-7.9313],[111.58803,-7.93159],[111.59005,-7.93154],[111.59112,-7.9314],[111.59245,-7.93163],[111.59246,-7.93689],[111.59308,-7.93685],[111.59323,-7.93674],[111.59332,-7.93654],[111.59335,-7.9363],[111.5933,-7.93571],[111.59331,-7.93535],[111.59339,-7.93504],[111.59367,-7.93438],[111.594,-7.93409],[111.59483,-7.93395],[111.59496,-7.93389],[111.5951,-7.93364],[111.59511,-7.93346],[111.59508,-7.93339],[111.59512,-7.93331],[111.59553,-7.93318],[111.5961,-7.9332],[111.59631,-7.93318],[111.59703,-7.93294],[111.59747,-7.93291],[111.59822,-7.93293],[111.59961,-7.93303],[111.59988,-7.93307],[111.60008,-7.93313],[111.60024,-7.93336],[111.60026,-7.93352],[111.60019,-7.93362],[111.60007,-7.93416],[111.60009,-7.93424],[111.60021,-7.93431],[111.60027,-7.93449],[111.60032,-7.93452],[111.60052,-7.93442],[111.60071,-7.93442],[111.60112,-7.93434],[111.60134,-7.93422],[111.60157,-7.93404],[111.6017,-7.93399],[111.60208,-7.93409],[111.60235,-7.93408],[111.60239,-7.934],[111.6025,-7.93397],[111.60255,-7.9339],[111.60262,-7.93388],[111.60279,-7.93371],[111.60313,-7.93369],[111.60337,-7.93374],[111.60357,-7.93383],[111.60384,-7.93399],[111.60414,-7.93436],[111.6044,-7.93458],[111.60443,-7.93472],[111.60441,-7.93491],[111.60445,-7.93505],[111.60458,-7.93517],[111.60469,-7.93567],[111.60476,-7.93571],[111.60494,-7.93577],[111.60583,-7.93593],[111.6059,-7.93599],[111.60618,-7.93582],[111.6063,-7.93561],[111.60636,-7.93538],[111.60637,-7.93515],[111.60627,-7.93473],[111.60633,-7.93465],[111.6065,-7.93463],[111.60733,-7.93527],[111.60795,-7.93594],[111.60822,-7.93609],[111.60836,-7.93608],[111.60853,-7.93614],[111.6092,-7.93583],[111.60938,-7.93577],[111.60954,-7.93567],[111.61007,-7.93573],[111.61036,-7.93567],[111.61069,-7.93571],[111.61107,-7.93594],[111.61115,-7.93644],[111.61125,-7.93681],[111.61118,-7.93712],[111.61119,-7.93722],[111.61132,-7.93728],[111.61153,-7.93719],[111.6117,-7.93705],[111.612,-7.93649],[111.61199,-7.93636],[111.61207,-7.93603],[111.61236,-7.93538],[111.61255,-7.93515],[111.61267,-7.9351],[111.61289,-7.93531],[111.61355,-7.93614],[111.61377,-7.93631],[111.61402,-7.93657],[111.61444,-7.93685],[111.61521,-7.93719],[111.61564,-7.93727],[111.61579,-7.93723],[111.61622,-7.93684],[111.61658,-7.93671],[111.61734,-7.93659],[111.61753,-7.93659],[111.61782,-7.93685],[111.61797,-7.93704],[111.61827,-7.93729],[111.61841,-7.93737],[111.61905,-7.93739],[111.6193,-7.93746],[111.61979,-7.9379],[111.6199,-7.93806],[111.62006,-7.93815],[111.62062,-7.93802],[111.62074,-7.93807],[111.62086,-7.93838],[111.62102,-7.93854],[111.62126,-7.93858],[111.62155,-7.93857],[111.62201,-7.93842],[111.62215,-7.93843],[111.62258,-7.93864],[111.62263,-7.93867],[111.62266,-7.93878],[111.62259,-7.93898],[111.62258,-7.9393],[111.62266,-7.9395],[111.62273,-7.93957],[111.62295,-7.93969],[111.62326,-7.93983],[111.62385,-7.93998],[111.62392,-7.94007],[111.62392,-7.94019],[111.62402,-7.94048],[111.62433,-7.94056],[111.62451,-7.94057],[111.62464,-7.94051],[111.62476,-7.94041],[111.62486,-7.94042],[111.62493,-7.94044],[111.62499,-7.94051],[111.62514,-7.94053],[111.62531,-7.94068],[111.62536,-7.94083],[111.62536,-7.94097],[111.62554,-7.94106],[111.62563,-7.94125],[111.62565,-7.94144],[111.62554,-7.94155],[111.62555,-7.94174],[111.62562,-7.94181],[111.62565,-7.9421],[111.62575,-7.94237],[111.62584,-7.94241],[111.62586,-7.94248],[111.62592,-7.9425],[111.62596,-7.94257],[111.626,-7.94271],[111.62599,-7.94287],[111.62589,-7.94297],[111.62587,-7.94304],[111.62566,-7.94337],[111.62562,-7.94339],[111.62543,-7.94334],[111.62532,-7.94338],[111.62533,-7.94366],[111.6253,-7.94373],[111.62523,-7.94382],[111.62493,-7.94389],[111.62494,-7.94399],[111.62503,-7.94409],[111.62492,-7.94418],[111.62471,-7.94418],[111.62457,-7.9442],[111.6245,-7.94424],[111.62447,-7.94434],[111.62447,-7.9447],[111.62429,-7.94486],[111.62419,-7.94502],[111.62423,-7.94513],[111.62441,-7.94542],[111.62459,-7.94551],[111.62476,-7.94549],[111.62482,-7.94552],[111.62485,-7.94569],[111.62478,-7.94589],[111.62486,-7.94603],[111.625,-7.94617],[111.625,-7.94653],[111.62483,-7.94674],[111.62486,-7.94684],[111.62506,-7.947],[111.62512,-7.94719],[111.62487,-7.94775],[111.62485,-7.94789],[111.62496,-7.94824],[111.62493,-7.94831],[111.62498,-7.94842],[111.62511,-7.94841],[111.62519,-7.94852],[111.62525,-7.94853],[111.62532,-7.94861],[111.62529,-7.9487],[111.62517,-7.94893],[111.62518,-7.94908],[111.62527,-7.94914],[111.62574,-7.94926],[111.62586,-7.94954],[111.62612,-7.94965],[111.62615,-7.94971],[111.6261,-7.95016],[111.62594,-7.9502],[111.62574,-7.95002],[111.62563,-7.94998],[111.62554,-7.95],[111.62554,-7.95027],[111.62549,-7.95041],[111.62574,-7.95062],[111.62576,-7.9507],[111.62574,-7.95079],[111.62563,-7.95086],[111.62553,-7.95087],[111.6254,-7.95106],[111.62546,-7.95114],[111.62581,-7.95131],[111.62597,-7.95135],[111.62617,-7.95132],[111.62625,-7.95134],[111.62632,-7.9514],[111.62642,-7.95167],[111.62628,-7.9519],[111.62633,-7.95195],[111.62632,-7.95233],[111.62606,-7.95253],[111.62607,-7.95279],[111.62612,-7.95298],[111.62607,-7.95325],[111.62581,-7.9535],[111.62572,-7.95381],[111.62574,-7.95394],[111.62586,-7.95411],[111.6258,-7.95437],[111.62585,-7.95448],[111.62588,-7.95494],[111.62583,-7.955],[111.62589,-7.95521],[111.62605,-7.95521],[111.62614,-7.95525],[111.62618,-7.95528],[111.62619,-7.95535],[111.62636,-7.95544],[111.62642,-7.95556],[111.62643,-7.95581],[111.62656,-7.956],[111.62659,-7.95612],[111.6269,-7.95618],[111.62736,-7.95657],[111.62753,-7.95685],[111.62754,-7.95768],[111.6278,-7.95767],[111.62797,-7.95793],[111.62807,-7.95822],[111.62765,-7.95838],[111.62743,-7.95861],[111.62642,-7.95901],[111.62606,-7.95919],[111.62597,-7.95965],[111.62561,-7.95982],[111.62531,-7.96003],[111.62515,-7.95946],[111.62502,-7.95923],[111.62425,-7.95982],[111.62343,-7.95923],[111.62305,-7.95916],[111.62282,-7.95908],[111.62283,-7.95892],[111.62349,-7.95828],[111.62373,-7.95788],[111.6238,-7.95758],[111.62365,-7.95728],[111.6232,-7.95698],[111.62312,-7.9569],[111.62313,-7.95663],[111.62255,-7.95646],[111.62183,-7.95698],[111.62102,-7.95706],[111.62048,-7.95721],[111.61993,-7.9572],[111.61974,-7.95634],[111.6199,-7.95593],[111.6199,-7.95564],[111.62005,-7.95526],[111.62012,-7.95488],[111.62035,-7.95455],[111.62035,-7.95435],[111.62019,-7.9542],[111.61997,-7.95421],[111.61975,-7.95443],[111.61945,-7.95451],[111.61892,-7.95483],[111.61825,-7.95496],[111.61809,-7.95465],[111.6181,-7.95433],[111.61866,-7.95396],[111.61877,-7.9534],[111.61768,-7.9533],[111.61683,-7.95331],[111.61597,-7.95401],[111.61561,-7.95382],[111.61509,-7.95383],[111.61495,-7.95399],[111.61544,-7.95431],[111.61591,-7.95419],[111.61623,-7.95444],[111.61622,-7.95463],[111.61562,-7.95451],[111.61482,-7.95443],[111.61454,-7.95487],[111.61413,-7.95506],[111.61331,-7.95539],[111.61288,-7.95583],[111.61277,-7.95617],[111.61278,-7.95644],[111.61337,-7.95653],[111.61346,-7.9569],[111.61405,-7.95713],[111.6142,-7.95727],[111.61368,-7.95739],[111.61311,-7.95716],[111.61261,-7.95729],[111.61231,-7.95744],[111.61166,-7.95743],[111.61085,-7.95792],[111.61075,-7.95833],[111.61058,-7.95866],[111.61067,-7.95901],[111.61067,-7.9593],[111.61078,-7.95962],[111.61067,-7.95984],[111.61067,-7.96042],[111.61114,-7.96053],[111.6118,-7.96093],[111.61234,-7.96114],[111.61282,-7.96102],[111.61292,-7.96134],[111.61341,-7.96165],[111.61357,-7.96215],[111.61435,-7.96223],[111.61465,-7.96232],[111.61446,-7.96268],[111.61493,-7.96302],[111.61517,-7.96344],[111.6148,-7.96362],[111.61409,-7.96347],[111.61436,-7.96382],[111.6142,-7.96463],[111.6142,-7.96478],[111.61411,-7.96512],[111.61373,-7.96537],[111.61351,-7.9657],[111.61322,-7.96599],[111.61323,-7.96644],[111.61379,-7.96672],[111.6139,-7.96702],[111.61337,-7.96715],[111.61287,-7.9674],[111.61201,-7.96718],[111.61154,-7.96719],[111.61127,-7.96735],[111.61143,-7.96781],[111.61159,-7.96812],[111.61223,-7.96873],[111.6126,-7.96929],[111.61272,-7.96991],[111.61286,-7.97004],[111.61335,-7.97003],[111.61398,-7.96924],[111.61486,-7.96905],[111.61563,-7.96944],[111.61594,-7.96943],[111.61634,-7.96922],[111.61705,-7.96914],[111.61722,-7.96905],[111.61737,-7.96845],[111.61773,-7.96801],[111.61799,-7.96761],[111.61822,-7.96689],[111.61916,-7.96708],[111.61977,-7.96688],[111.62005,-7.96617],[111.6203,-7.96579],[111.62092,-7.96568],[111.62168,-7.9662],[111.62249,-7.96562],[111.62262,-7.96508],[111.62314,-7.96478],[111.62415,-7.96582],[111.62482,-7.96561],[111.62553,-7.9659],[111.62606,-7.96598],[111.6265,-7.96576],[111.62699,-7.96556],[111.62758,-7.96507],[111.62837,-7.96509],[111.62857,-7.96498],[111.62869,-7.96415],[111.62929,-7.96403],[111.62948,-7.96404],[111.6298,-7.96427],[111.62964,-7.96472],[111.62881,-7.96524],[111.6286,-7.96546],[111.6281,-7.96571],[111.628,-7.96621],[111.62788,-7.96656],[111.62836,-7.96701],[111.62943,-7.96711],[111.6298,-7.96739],[111.62942,-7.96749],[111.62899,-7.96771],[111.62857,-7.96784],[111.62793,-7.96771],[111.6268,-7.96762],[111.62521,-7.96764],[111.62474,-7.96812],[111.62433,-7.96801],[111.62345,-7.96793],[111.62313,-7.96771],[111.62284,-7.96764],[111.62168,-7.96817],[111.62154,-7.96832],[111.62107,-7.96912],[111.62037,-7.96946],[111.62021,-7.97028],[111.62057,-7.97063],[111.62065,-7.97083],[111.61959,-7.97093],[111.61905,-7.97112],[111.61875,-7.97174],[111.61846,-7.97253],[111.61855,-7.97297],[111.61855,-7.97327],[111.61765,-7.9737],[111.61757,-7.97379],[111.61713,-7.97401],[111.61681,-7.97447],[111.61683,-7.97508],[111.61701,-7.9756],[111.61774,-7.97645],[111.61772,-7.9772],[111.61748,-7.97756],[111.61727,-7.97777],[111.61693,-7.97776],[111.6166,-7.9771],[111.61606,-7.97679],[111.61521,-7.97696],[111.61468,-7.97731],[111.61405,-7.97731],[111.61277,-7.97695],[111.61278,-7.97642],[111.61269,-7.97625],[111.6124,-7.97597],[111.61178,-7.97589],[111.61026,-7.97744],[111.61012,-7.97784],[111.6094,-7.9789],[111.60923,-7.98129],[111.6094,-7.98197],[111.61014,-7.98233],[111.61038,-7.98249],[111.61037,-7.98299],[111.60923,-7.98309],[111.60894,-7.98339],[111.60895,-7.98366],[111.60933,-7.98392],[111.60948,-7.98406],[111.60948,-7.98448],[111.61019,-7.98484],[111.6103,-7.98526],[111.61045,-7.98549],[111.61052,-7.98579],[111.61007,-7.98647],[111.60985,-7.98668],[111.60944,-7.98731],[111.60986,-7.98794],[111.6097,-7.98834],[111.6097,-7.98855],[111.60961,-7.98881],[111.6094,-7.98923],[111.60928,-7.99008],[111.61016,-7.99051],[111.61053,-7.99089],[111.61052,-7.99134],[111.61097,-7.99178],[111.61113,-7.99186],[111.61134,-7.99142],[111.61165,-7.99104],[111.61192,-7.99063],[111.61241,-7.99051],[111.61302,-7.99067],[111.61348,-7.99066],[111.61362,-7.99021],[111.61385,-7.98987],[111.61355,-7.98948],[111.6133,-7.98871],[111.61331,-7.98818],[111.6136,-7.98804],[111.61332,-7.98767],[111.61346,-7.98744],[111.61408,-7.98776],[111.61428,-7.98834],[111.61472,-7.98849],[111.61496,-7.98864],[111.61549,-7.98864],[111.61642,-7.98911],[111.61683,-7.98954],[111.61682,-7.98978],[111.61645,-7.99006],[111.61637,-7.99029],[111.61601,-7.99047],[111.61592,-7.99085],[111.61622,-7.99128],[111.61607,-7.99156],[111.61623,-7.99186],[111.616,-7.99211],[111.61633,-7.99233],[111.61667,-7.99269],[111.61703,-7.99286],[111.61669,-7.9937],[111.6166,-7.9945],[111.61675,-7.99495],[111.61742,-7.99539],[111.6175,-7.99555],[111.61663,-7.99572],[111.61645,-7.99636],[111.61625,-7.99665],[111.61546,-7.99674],[111.61483,-7.99658],[111.6136,-7.9966],[111.61256,-7.99658],[111.61206,-7.99675],[111.61193,-7.99725],[111.61165,-7.99768],[111.61203,-7.9987],[111.61202,-7.99994],[111.61218,-8.00049],[111.61279,-8.00095],[111.61301,-8.00117],[111.613,-8.00161],[111.61313,-8.00211],[111.613,-8.00237],[111.613,-8.00262],[111.6138,-8.00274],[111.6145,-8.00244],[111.61616,-8.00206],[111.61635,-8.00185],[111.61645,-8.00079],[111.61756,-7.99959],[111.61765,-7.99914],[111.61775,-7.99893],[111.6187,-7.99884],[111.61932,-7.99859],[111.61983,-7.99846],[111.62005,-7.99831],[111.62069,-7.99832],[111.62116,-7.99848],[111.62349,-7.99844],[111.6239,-7.99919],[111.62425,-7.99936],[111.62447,-7.9998],[111.62465,-8.00007],[111.62502,-8.00019],[111.62536,-8.00019],[111.62637,-7.99944],[111.62651,-7.99944],[111.62673,-7.99967],[111.62672,-8.00022],[111.62695,-8.00079],[111.62711,-8.00164],[111.62746,-8.00176],[111.6286,-8.00123],[111.62918,-8.00124],[111.62952,-8.00116],[111.63016,-8.00117],[111.6309,-8.00084],[111.63102,-8.00031],[111.63127,-8.00008],[111.63157,-7.99989],[111.63171,-8.00018],[111.63203,-8.00026],[111.6319,-7.99988],[111.6319,-7.99964],[111.63228,-7.99899],[111.63235,-7.99824],[111.63243,-7.99783],[111.63303,-7.99726],[111.63319,-7.99692],[111.63348,-7.99712],[111.63378,-7.99774],[111.63393,-7.99846],[111.63423,-7.9993],[111.6346,-7.99965],[111.63481,-8.00018],[111.63515,-8.00026],[111.6356,-7.99963],[111.63676,-7.99849],[111.63709,-7.99839],[111.63753,-7.99854],[111.63768,-7.9987],[111.63767,-7.99913],[111.63777,-7.99941],[111.63753,-7.99989],[111.63745,-8.00019],[111.63725,-8.0006],[111.63704,-8.00164],[111.63789,-8.002],[111.63867,-8.00249],[111.6396,-8.00236],[111.64008,-8.00198],[111.63977,-8.00169],[111.63978,-8.00127],[111.64007,-8.00084],[111.63989,-8.00049],[111.64023,-8.00026],[111.64037,-8.00012],[111.6399,-7.99956],[111.64004,-7.99928],[111.64114,-7.99868],[111.64157,-7.99869],[111.6421,-7.99846],[111.64263,-7.99839],[111.64346,-7.99815],[111.64421,-7.99816],[111.64475,-7.99835],[111.64519,-7.99923],[111.64548,-8.00012],[111.64614,-8.00033],[111.64688,-8.0007],[111.64743,-8.00109],[111.64781,-8.00116],[111.64829,-8.001],[111.6484,-8.00034],[111.64865,-8.0],[111.64952,-7.99949],[111.64979,-7.99881],[111.65039,-7.99792],[111.6505,-7.99752],[111.64968,-7.99659],[111.64944,-7.99635],[111.64898,-7.99613],[111.64846,-7.99614],[111.64755,-7.99661],[111.64721,-7.99696],[111.64642,-7.99748],[111.64591,-7.9971],[111.64547,-7.99642],[111.64524,-7.9962],[111.64489,-7.99547],[111.64473,-7.99524],[111.64453,-7.99463],[111.64483,-7.99423],[111.64541,-7.99388],[111.64634,-7.99365],[111.64653,-7.99335],[111.64653,-7.99305],[111.64623,-7.99247],[111.64608,-7.99186],[111.64592,-7.99163],[111.64523,-7.99112],[111.64465,-7.99089],[111.64423,-7.99054],[111.64396,-7.99027],[111.64398,-7.98954],[111.64443,-7.98977],[111.64537,-7.98975],[111.64587,-7.98992],[111.64649,-7.99056],[111.64747,-7.99078],[111.64773,-7.99068],[111.64738,-7.99023],[111.6478,-7.98931],[111.64788,-7.989],[111.6487,-7.98902],[111.64901,-7.98886],[111.64929,-7.98828],[111.64953,-7.98796],[111.6496,-7.98776],[111.6493,-7.98736],[111.64923,-7.98712],[111.64982,-7.98655],[111.6499,-7.9863],[111.64967,-7.98585],[111.64949,-7.9853],[111.64938,-7.98436],[111.64923,-7.98407],[111.64915,-7.9837],[111.65026,-7.98326],[111.651,-7.98314],[111.65147,-7.98239],[111.65157,-7.98178],[111.6523,-7.98108],[111.65247,-7.97999],[111.65319,-7.97981],[111.654,-7.98014],[111.6543,-7.97999],[111.65466,-7.97944],[111.655,-7.97921],[111.65533,-7.97915],[111.6553,-7.97989],[111.65518,-7.98024],[111.65496,-7.98061],[111.65372,-7.98153],[111.65369,-7.98166],[111.65373,-7.98224],[111.65338,-7.98336],[111.65335,-7.98357],[111.6534,-7.98372],[111.65351,-7.98448],[111.65367,-7.98503],[111.65365,-7.98593],[111.65358,-7.98614],[111.65367,-7.98644],[111.65416,-7.98688],[111.65443,-7.98727],[111.65493,-7.98789],[111.65498,-7.98805],[111.65496,-7.98807],[111.65502,-7.98817],[111.65577,-7.98879],[111.65637,-7.98956],[111.65681,-7.98998],[111.6564,-7.99023],[111.65558,-7.99081],[111.65587,-7.99152],[111.65606,-7.9921],[111.65618,-7.99304],[111.65623,-7.99342],[111.65621,-7.99485],[111.65629,-7.99644],[111.65588,-7.998],[111.65548,-7.99919],[111.65449,-8.00052],[111.65437,-8.00099],[111.65433,-8.0013],[111.65436,-8.0016],[111.65445,-8.00194],[111.6547,-8.00234],[111.65509,-8.00285],[111.6553,-8.0032],[111.65561,-8.00392],[111.65568,-8.00416],[111.65569,-8.00471],[111.65559,-8.00585],[111.65571,-8.00641],[111.65554,-8.00683],[111.65562,-8.00729],[111.65562,-8.00761],[111.65591,-8.00846],[111.6559,-8.00867],[111.6557,-8.00926],[111.65566,-8.00936],[111.65561,-8.00931],[111.65564,-8.01038],[111.6556,-8.01142],[111.65532,-8.01204],[111.65497,-8.01353],[111.65496,-8.01426],[111.655,-8.01459],[111.655,-8.01549],[111.65454,-8.01632],[111.65384,-8.01705],[111.65372,-8.01723],[111.65374,-8.01827],[111.6533,-8.01888],[111.65356,-8.01952],[111.65325,-8.02052],[111.6516,-8.02141],[111.65088,-8.02141],[111.65079,-8.02162],[111.65072,-8.02205],[111.65064,-8.02214],[111.64997,-8.02209],[111.64933,-8.02173],[111.64923,-8.02174],[111.64887,-8.02189],[111.64817,-8.02088],[111.64833,-8.01964],[111.64827,-8.01931],[111.64819,-8.01905],[111.64806,-8.01876],[111.64775,-8.01826],[111.6474,-8.01783],[111.64729,-8.01755],[111.6472,-8.0173],[111.6469,-8.01573],[111.64688,-8.01474],[111.64728,-8.01251],[111.64764,-8.01199],[111.6477,-8.01174],[111.64773,-8.01099],[111.64781,-8.01059],[111.64788,-8.00994],[111.64799,-8.00953],[111.64803,-8.00911],[111.64834,-8.00867],[111.64832,-8.00804],[111.64847,-8.00743],[111.64841,-8.00719],[111.64836,-8.00633],[111.6483,-8.006],[111.64824,-8.00577],[111.64788,-8.00506],[111.6477,-8.00376],[111.64667,-8.00337],[111.64544,-8.00319],[111.64515,-8.00386],[111.64486,-8.00435],[111.6446,-8.00462],[111.64425,-8.00486],[111.643,-8.00521],[111.64238,-8.0053],[111.64147,-8.00526],[111.64147,-8.00529],[111.64139,-8.00529],[111.64135,-8.00524],[111.64119,-8.00521],[111.6393,-8.00326],[111.63799,-8.00249],[111.6374,-8.00214],[111.63723,-8.00208],[111.63611,-8.00215],[111.63587,-8.00225],[111.63528,-8.00258],[111.63444,-8.00315],[111.63366,-8.00359],[111.63334,-8.00395],[111.63303,-8.00461],[111.63254,-8.00479],[111.63175,-8.00671],[111.6314,-8.00714],[111.63102,-8.00753],[111.6306,-8.00764],[111.62988,-8.00789],[111.62929,-8.00862],[111.62882,-8.00899],[111.62862,-8.00914],[111.62763,-8.00965],[111.62711,-8.00995],[111.62591,-8.01091],[111.62527,-8.00959],[111.62484,-8.00859],[111.62462,-8.00848],[111.62437,-8.00829],[111.62421,-8.00727],[111.62404,-8.00704],[111.62379,-8.00693],[111.62318,-8.0065],[111.62255,-8.00686],[111.62198,-8.00698],[111.62178,-8.00699],[111.62131,-8.00748],[111.6196,-8.00814],[111.61858,-8.00849],[111.61817,-8.00896],[111.61735,-8.00942],[111.61712,-8.00948],[111.61541,-8.00964],[111.61515,-8.00979],[111.61438,-8.01067],[111.61355,-8.01114],[111.61289,-8.01161],[111.61238,-8.01168],[111.61177,-8.01167],[111.61138,-8.01196],[111.61079,-8.0126],[111.61006,-8.01324],[111.60969,-8.01408],[111.6086,-8.01509],[111.60802,-8.01548],[111.60728,-8.01557],[111.6064,-8.016],[111.60637,-8.01607],[111.60642,-8.01638],[111.60652,-8.01648],[111.60664,-8.01653],[111.60693,-8.01672],[111.60701,-8.01683],[111.60713,-8.01742],[111.6072,-8.01771],[111.60726,-8.0178],[111.60753,-8.01805],[111.60778,-8.01816],[111.60742,-8.0186],[111.60703,-8.0189],[111.60608,-8.0194],[111.60586,-8.01944],[111.60483,-8.01919],[111.60447,-8.01903],[111.60382,-8.01866],[111.60346,-8.01859],[111.6028,-8.01857],[111.60201,-8.01829],[111.60185,-8.01826],[111.60143,-8.01828],[111.60041,-8.01826],[111.6003,-8.01824],[111.59977,-8.01825],[111.59924,-8.01843],[111.59833,-8.01841],[111.59786,-8.0185],[111.59713,-8.01871],[111.59709,-8.0187],[111.59695,-8.01858],[111.59657,-8.01807],[111.59625,-8.01754],[111.59608,-8.01763],[111.59616,-8.01722],[111.59646,-8.01738],[111.59708,-8.01781],[111.5973,-8.01782],[111.59757,-8.01769],[111.59789,-8.01749],[111.59852,-8.01661],[111.59888,-8.01638],[111.5992,-8.0156],[111.59921,-8.01499],[111.59891,-8.01441],[111.59869,-8.01375],[111.59882,-8.01324],[111.59891,-8.01251],[111.5998,-8.01135],[111.60005,-8.01087],[111.60027,-8.01034],[111.60023,-8.00924],[111.60032,-8.00904],[111.60071,-8.0085],[111.60069,-8.008],[111.60104,-8.00773],[111.60165,-8.00749],[111.60197,-8.00698],[111.60207,-8.00642],[111.60242,-8.00576],[111.6024,-8.00465],[111.60262,-8.00373],[111.60346,-8.00339],[111.6037,-8.00281],[111.60384,-8.00224],[111.60402,-8.00171],[111.60392,-8.00131],[111.6037,-8.00089],[111.60377,-8.00071],[111.60421,-8.00019],[111.60431,-7.99958],[111.60452,-7.99936],[111.6046,-7.99906],[111.60482,-7.99876],[111.6049,-7.99828],[111.60539,-7.99797],[111.60557,-7.9978],[111.60558,-7.99756],[111.60535,-7.99713],[111.60536,-7.99646],[111.60508,-7.99586],[111.60445,-7.9955],[111.60453,-7.99492],[111.60517,-7.99495],[111.60545,-7.99452],[111.60578,-7.99421],[111.60565,-7.99396],[111.6055,-7.99319],[111.60491,-7.99264],[111.60482,-7.99246],[111.60452,-7.99209],[111.60445,-7.99177],[111.60422,-7.99134],[111.60407,-7.99086],[111.60362,-7.99045],[111.60377,-7.99006],[111.60392,-7.98978],[111.60355,-7.9894],[111.60494,-7.9893],[111.60514,-7.98892],[111.60468,-7.98862],[111.60468,-7.98819],[111.6042,-7.98806],[111.60377,-7.98841],[111.60325,-7.98848],[111.60278,-7.98861],[111.6024,-7.98822],[111.60112,-7.98742],[111.60116,-7.9864],[111.60077,-7.98619],[111.60032,-7.98601],[111.59976,-7.98583],[111.59942,-7.98541],[111.59927,-7.9846],[111.59889,-7.9841],[111.59901,-7.98363],[111.5986,-7.98337],[111.59859,-7.98309],[111.59897,-7.98284],[111.59882,-7.98257],[111.5986,-7.98256],[111.59849,-7.98266],[111.59836,-7.98331],[111.59839,-7.98406],[111.59791,-7.98433],[111.59732,-7.98504],[111.59733,-7.98545],[111.59688,-7.98604],[111.59686,-7.98666],[111.597,-7.98706],[111.5968,-7.98736],[111.59668,-7.98773],[111.5962,-7.98817],[111.59619,-7.98847],[111.59646,-7.98877],[111.5972,-7.98855],[111.59875,-7.98861],[111.59912,-7.98834],[111.5994,-7.98804],[111.60041,-7.988],[111.60144,-7.98871],[111.60212,-7.98882],[111.60193,-7.98961],[111.6022,-7.99011],[111.6022,-7.99035],[111.60191,-7.99078],[111.60181,-7.99106],[111.60195,-7.99174],[111.60135,-7.99188],[111.60145,-7.99261],[111.6016,-7.99319],[111.60129,-7.99354],[111.60048,-7.99373],[111.60032,-7.99402],[111.60062,-7.99492],[111.60054,-7.99546],[111.59901,-7.99554],[111.5986,-7.99581],[111.59871,-7.99621],[111.5992,-7.99692],[111.59912,-7.99762],[111.59875,-7.99801],[111.5983,-7.99843],[111.59848,-7.99892],[111.59772,-7.99945],[111.59746,-7.99983],[111.59717,-8.0004],[111.59725,-8.00066],[111.59768,-8.00146],[111.59771,-8.00235],[111.59731,-8.00266],[111.59637,-8.00265],[111.59575,-8.00281],[111.59523,-8.0029],[111.59469,-8.00331],[111.59395,-8.00362],[111.59393,-8.00406],[111.59455,-8.00445],[111.59455,-8.00468],[111.5944,-8.00497],[111.5944,-8.00514],[111.59455,-8.006],[111.59429,-8.00645],[111.59354,-8.00693],[111.59329,-8.00745],[111.59298,-8.00761],[111.59237,-8.00769],[111.59139,-8.00786],[111.5911,-8.00829],[111.59095,-8.00866],[111.5907,-8.00899],[111.59088,-8.00983],[111.59072,-8.01029],[111.5908,-8.01061],[111.59095,-8.0109],[111.59077,-8.01119],[111.59032,-8.01161],[111.59015,-8.01231],[111.58952,-8.01241],[111.58885,-8.01258],[111.58833,-8.01328],[111.58784,-8.01351],[111.5877,-8.01382],[111.58683,-8.01398],[111.58673,-8.01425],[111.58683,-8.01461],[111.58681,-8.01503],[111.58734,-8.01543],[111.5871,-8.01579],[111.58661,-8.01638],[111.58652,-8.01677],[111.58607,-8.01744],[111.58573,-8.01787],[111.58629,-8.01869],[111.58631,-8.01913],[111.58599,-8.01969],[111.58567,-8.02071],[111.58547,-8.02082],[111.58453,-8.02091],[111.58427,-8.02139],[111.5842,-8.02209],[111.58412,-8.02231],[111.58415,-8.02299],[111.58341,-8.02297],[111.58284,-8.02329],[111.58267,-8.02356],[111.58247,-8.02367],[111.58191,-8.02377],[111.5816,-8.0241],[111.58087,-8.02422],[111.58007,-8.0251],[111.5803,-8.02584],[111.58029,-8.02619],[111.58067,-8.02666],[111.58081,-8.02696],[111.58127,-8.02726],[111.58145,-8.02753],[111.58183,-8.0279],[111.58178,-8.02808],[111.58105,-8.02924],[111.58034,-8.03081],[111.57986,-8.03147],[111.57955,-8.03222],[111.57911,-8.0331],[111.579,-8.03356],[111.57828,-8.03463],[111.57813,-8.03498],[111.57795,-8.03519],[111.57767,-8.03558],[111.57759,-8.03593],[111.57751,-8.03693],[111.57747,-8.0371],[111.57679,-8.03858],[111.57675,-8.03865],[111.57634,-8.03876],[111.57623,-8.03882],[111.57461,-8.0397],[111.57432,-8.04],[111.57427,-8.04013],[111.57415,-8.04027],[111.57412,-8.0405],[111.57407,-8.04212],[111.57363,-8.04311],[111.57359,-8.04369],[111.57384,-8.04465],[111.5735,-8.0463],[111.57347,-8.04735],[111.57345,-8.04763],[111.57339,-8.04782],[111.57327,-8.04795],[111.57261,-8.04824],[111.57193,-8.04836],[111.57087,-8.04834],[111.57026,-8.0484],[111.56981,-8.04864],[111.56911,-8.04872],[111.56843,-8.04891],[111.56794,-8.04886],[111.56722,-8.0487],[111.56562,-8.04789],[111.56486,-8.04799],[111.56464,-8.04806],[111.56454,-8.04859],[111.56435,-8.04899],[111.56408,-8.04944],[111.56342,-8.04962],[111.56307,-8.04968],[111.56274,-8.04962],[111.56239,-8.04932],[111.56169,-8.04917],[111.56126,-8.04894],[111.56098,-8.04889],[111.5605,-8.0493],[111.55964,-8.04938],[111.5594,-8.04944],[111.55869,-8.04969],[111.55746,-8.04988],[111.55738,-8.04978],[111.55685,-8.04979],[111.55671,-8.04998],[111.55664,-8.05],[111.5565,-8.04997],[111.55638,-8.04989],[111.55616,-8.0494],[111.55603,-8.04924],[111.55568,-8.04917],[111.55511,-8.04919],[111.55474,-8.04902],[111.55424,-8.04893],[111.55433,-8.04838],[111.55429,-8.04834],[111.55394,-8.04823],[111.55362,-8.04794],[111.55343,-8.04729],[111.5531,-8.04681],[111.55271,-8.04634],[111.5525,-8.04622],[111.55195,-8.04615],[111.55218,-8.04583],[111.55258,-8.04562],[111.55339,-8.04631],[111.55424,-8.04631],[111.55493,-8.04684],[111.55553,-8.04699],[111.55642,-8.04685],[111.55704,-8.04669],[111.55779,-8.04662],[111.55876,-8.04633],[111.55959,-8.04683],[111.56023,-8.04629],[111.56097,-8.04599],[111.56184,-8.04543],[111.56202,-8.04516],[111.56191,-8.04428],[111.56117,-8.04362],[111.56088,-8.04343],[111.56079,-8.04315],[111.56057,-8.04272],[111.56067,-8.0422],[111.56139,-8.0422],[111.56206,-8.04197],[111.5628,-8.04211],[111.56323,-8.04232],[111.56365,-8.04257],[111.56416,-8.04256],[111.56486,-8.04286],[111.56642,-8.04294],[111.56688,-8.04302],[111.56759,-8.04301],[111.5682,-8.0433],[111.56852,-8.04354],[111.56963,-8.0437],[111.57021,-8.04414],[111.57062,-8.04415],[111.57077,-8.04343],[111.57078,-8.04288],[111.57069,-8.0427],[111.5704,-8.04242],[111.5704,-8.04186],[111.57029,-8.04119],[111.5699,-8.04078],[111.56929,-8.04042],[111.5691,-8.04014],[111.56941,-8.03938],[111.56919,-8.03872],[111.56921,-8.03771],[111.56899,-8.03748],[111.56839,-8.03717],[111.56814,-8.03717],[111.56762,-8.03732],[111.56631,-8.03747],[111.56554,-8.03746],[111.56507,-8.03776],[111.56485,-8.03799],[111.56456,-8.038],[111.56439,-8.03724],[111.56429,-8.03639],[111.56396,-8.03605],[111.56339,-8.03582],[111.56319,-8.03604],[111.5632,-8.03656],[111.56291,-8.03676],[111.56152,-8.03732],[111.56132,-8.03724],[111.56082,-8.03687],[111.55976,-8.03688],[111.55921,-8.03648],[111.55878,-8.03627],[111.55839,-8.03582],[111.55813,-8.03511],[111.55773,-8.03469],[111.5575,-8.03469],[111.55726,-8.03477],[111.55682,-8.03499],[111.55597,-8.03507],[111.55528,-8.03543],[111.5548,-8.03448],[111.5541,-8.03439],[111.55358,-8.03385],[111.55277,-8.03372],[111.55231,-8.03337],[111.55174,-8.03314],[111.55119,-8.03301],[111.55136,-8.03246],[111.55104,-8.03215],[111.55116,-8.03177],[111.55157,-8.03184],[111.55222,-8.03221],[111.55284,-8.03223],[111.55335,-8.0317],[111.55367,-8.03161],[111.55443,-8.03152],[111.55464,-8.03132],[111.55457,-8.03101],[111.55429,-8.03074],[111.55397,-8.03034],[111.55388,-8.02991],[111.55301,-8.02949],[111.5528,-8.02895],[111.55212,-8.02819],[111.55272,-8.02706],[111.55337,-8.02658],[111.55327,-8.0262],[111.55266,-8.02579],[111.55189,-8.02539],[111.55152,-8.02539],[111.55091,-8.02547],[111.55029,-8.02517],[111.55029,-8.02494],[111.55065,-8.02447],[111.55074,-8.02419],[111.55083,-8.02366],[111.55118,-8.02329],[111.55158,-8.02337],[111.55203,-8.02352],[111.55273,-8.02351],[111.55287,-8.02409],[111.55319,-8.02425],[111.55401,-8.02409],[111.55412,-8.02389],[111.55423,-8.02333],[111.5547,-8.02284],[111.55488,-8.02298],[111.55547,-8.02367],[111.55576,-8.02426],[111.55607,-8.02427],[111.55621,-8.02371],[111.55621,-8.02218],[111.55636,-8.02187],[111.55651,-8.02172],[111.55673,-8.02171],[111.5574,-8.02287],[111.55793,-8.02314],[111.55843,-8.02305],[111.55913,-8.02269],[111.55929,-8.02282],[111.5593,-8.02329],[111.55892,-8.02403],[111.55902,-8.02454],[111.55974,-8.02489],[111.55975,-8.0253],[111.55959,-8.02575],[111.55967,-8.02614],[111.56005,-8.02637],[111.56026,-8.02703],[111.56048,-8.02726],[111.56064,-8.02734],[111.56123,-8.02742],[111.56233,-8.02786],[111.56275,-8.02815],[111.56404,-8.02841],[111.56477,-8.02829],[111.56467,-8.02794],[111.56439,-8.02757],[111.5643,-8.02708],[111.56387,-8.02622],[111.56386,-8.02592],[111.56416,-8.02577],[111.56483,-8.02566],[111.56574,-8.02525],[111.56645,-8.02554],[111.56657,-8.02539],[111.56664,-8.02516],[111.56724,-8.02449],[111.56741,-8.02424],[111.56784,-8.02389],[111.56829,-8.02375],[111.56852,-8.02352],[111.56862,-8.02288],[111.56897,-8.02261],[111.56934,-8.02243],[111.5697,-8.02188],[111.57024,-8.02134],[111.57063,-8.02124],[111.57077,-8.02096],[111.57116,-8.02048],[111.57135,-8.0201],[111.57116,-8.01972],[111.57196,-8.01925],[111.57248,-8.01885],[111.57314,-8.01859],[111.57332,-8.01842],[111.57333,-8.01783],[111.57304,-8.01752],[111.57122,-8.01684],[111.57037,-8.01661],[111.56973,-8.01639],[111.56928,-8.01638],[111.56815,-8.0175],[111.568,-8.0178],[111.56829,-8.01852],[111.56822,-8.0188],[111.56799,-8.01923],[111.56791,-8.01987],[111.5675,-8.02017],[111.56734,-8.02081],[111.56692,-8.02095],[111.56652,-8.02076],[111.56545,-8.01978],[111.56544,-8.01947],[111.56565,-8.01885],[111.56544,-8.01834],[111.56534,-8.01772],[111.56495,-8.0173],[111.56463,-8.01714],[111.5644,-8.01714],[111.56391,-8.0175],[111.56322,-8.01768],[111.56223,-8.01766],[111.56207,-8.01774],[111.56146,-8.01826],[111.56123,-8.01819],[111.56081,-8.01797],[111.56017,-8.01776],[111.55998,-8.01739],[111.56057,-8.01654],[111.56064,-8.016],[111.56087,-8.01535],[111.56066,-8.01513],[111.56027,-8.01483],[111.5597,-8.01412],[111.55939,-8.01396],[111.55824,-8.01382],[111.55742,-8.0135],[111.55756,-8.01273],[111.5581,-8.01193],[111.55829,-8.01098],[111.55768,-8.01017],[111.55735,-8.0094],[111.55771,-8.00869],[111.55773,-8.00801],[111.55757,-8.00767],[111.55719,-8.00732],[111.55719,-8.00714],[111.55757,-8.00652],[111.55757,-8.00634],[111.55746,-8.00559],[111.55768,-8.00513],[111.55857,-8.00476],[111.55922,-8.00484],[111.5601,-8.00506],[111.56065,-8.00537],[111.56133,-8.00559],[111.56175,-8.00559],[111.5625,-8.00571],[111.56314,-8.0061],[111.56408,-8.00641],[111.56422,-8.00617],[111.56349,-8.00536],[111.56306,-8.00451],[111.56292,-8.0041],[111.56327,-8.00343],[111.56336,-8.00278],[111.56419,-8.00144],[111.56453,-8.00074],[111.56512,-7.99995],[111.56524,-7.99932],[111.56618,-7.99884],[111.56668,-7.99883],[111.56733,-7.99899],[111.56769,-7.99936],[111.56795,-7.99953],[111.56851,-8.00011],[111.56895,-7.99991],[111.56916,-7.9996],[111.56928,-7.99927],[111.56955,-7.99816],[111.56912,-7.99719],[111.56901,-7.99674],[111.56867,-7.99681],[111.56813,-7.99703],[111.56745,-7.99711],[111.56668,-7.99731],[111.56591,-7.99711],[111.56567,-7.99719],[111.56538,-7.99734],[111.56486,-7.99721],[111.56469,-7.9969],[111.56483,-7.99634],[111.56529,-7.99567],[111.5653,-7.99502],[111.56508,-7.99479],[111.5641,-7.99469],[111.56363,-7.99453],[111.56248,-7.99439],[111.56177,-7.99405],[111.56154,-7.99351],[111.56144,-7.9931],[111.56061,-7.99276],[111.56027,-7.99286],[111.56028,-7.99362],[111.56006,-7.99459],[111.55983,-7.99508],[111.55952,-7.99524],[111.55893,-7.99509],[111.55884,-7.99569],[111.55877,-7.99591],[111.55863,-7.99677],[111.55851,-7.99724],[111.55819,-7.99741],[111.55742,-7.99771],[111.55682,-7.99779],[111.55635,-7.99816],[111.55574,-7.99815],[111.55517,-7.99974],[111.55505,-8.00022],[111.55442,-8.00086],[111.55422,-8.00127],[111.55374,-8.00202],[111.55392,-8.00234],[111.55455,-8.00284],[111.55466,-8.00315],[111.55446,-8.00373],[111.55464,-8.00445],[111.55438,-8.00487],[111.55423,-8.00503],[111.55348,-8.00524],[111.55282,-8.00593],[111.5521,-8.00611],[111.55202,-8.00672],[111.55164,-8.00708],[111.55154,-8.00763],[111.55104,-8.00814],[111.55021,-8.00813],[111.54946,-8.00827],[111.54893,-8.00862],[111.54841,-8.00912],[111.54812,-8.00971],[111.54769,-8.00986],[111.54684,-8.00988],[111.54606,-8.00974],[111.54579,-8.01],[111.5458,-8.0107],[111.54571,-8.01151],[111.54484,-8.012],[111.54453,-8.01252],[111.54471,-8.01307],[111.54459,-8.01355],[111.5446,-8.01405],[111.54403,-8.01481],[111.54311,-8.0149],[111.54255,-8.01528],[111.54133,-8.01526],[111.54095,-8.01605],[111.54022,-8.01625],[111.53935,-8.01623],[111.53916,-8.0168],[111.53883,-8.01711],[111.53823,-8.01804],[111.53789,-8.01804],[111.53764,-8.01667],[111.53766,-8.01618],[111.53794,-8.01487],[111.53809,-8.01443],[111.53833,-8.01403],[111.53892,-8.01271],[111.53954,-8.01105],[111.53964,-8.01047],[111.53968,-8.01],[111.53986,-8.00946],[111.54013,-8.00903],[111.54017,-8.00881],[111.54001,-8.0072],[111.53996,-8.00702],[111.53983,-8.00681],[111.53973,-8.00653],[111.53933,-8.00614],[111.53917,-8.00589],[111.53912,-8.00566],[111.53897,-8.00556],[111.53876,-8.00549],[111.53861,-8.00556],[111.5382,-8.00554],[111.53555,-8.00518],[111.53537,-8.00506],[111.53477,-8.00409],[111.53429,-8.00116],[111.5341,-8.00025],[111.53381,-7.99967],[111.5341,-7.99892],[111.53405,-7.99882],[111.53386,-7.99866],[111.53355,-7.99851],[111.53342,-7.99841],[111.53324,-7.99709],[111.53313,-7.99511],[111.53282,-7.99186],[111.53257,-7.9895],[111.53232,-7.98772],[111.53207,-7.98367],[111.53198,-7.98174],[111.53198,-7.97973],[111.53107,-7.97973],[111.52943,-7.97961],[111.52939,-7.97748],[111.52953,-7.97087],[111.52851,-7.97083],[111.52803,-7.97087],[111.52307,-7.97103],[111.523,-7.97043],[111.52301,-7.97019],[111.52296,-7.96966],[111.52291,-7.96807],[111.52182,-7.96818],[111.52158,-7.96831],[111.52148,-7.96669],[111.52144,-7.96664],[111.52134,-7.96662],[111.52131,-7.96658],[111.52127,-7.96611],[111.51877,-7.96601],[111.5188,-7.96352],[111.52011,-7.96337],[111.52025,-7.96334],[111.52053,-7.9632],[111.52129,-7.96315],[111.52245,-7.9633],[111.52346,-7.96335],[111.52501,-7.96351],[111.52578,-7.96365],[111.527,-7.96378],[111.52713,-7.96382],[111.52722,-7.96388],[111.52724,-7.96394],[111.52728,-7.96428],[111.52739,-7.96434],[111.52763,-7.96457],[111.52782,-7.96463],[111.52829,-7.96459],[111.52842,-7.96464],[111.52861,-7.96482],[111.52881,-7.96481],[111.52903,-7.96485],[111.5291,-7.96483],[111.52913,-7.96481],[111.52923,-7.96457],[111.5293,-7.96452],[111.52939,-7.96451],[111.5296,-7.9647],[111.52967,-7.96491],[111.52978,-7.96493],[111.53009,-7.9649],[111.53027,-7.96518],[111.53042,-7.96531],[111.53059,-7.96529],[111.53058,-7.96503],[111.5307,-7.96497],[111.53077,-7.96489],[111.53082,-7.9664],[111.53089,-7.96641],[111.5309,-7.96636],[111.53125,-7.96641],[111.53185,-7.96644],[111.53192,-7.96659],[111.53192,-7.96678],[111.53232,-7.96683],[111.5328,-7.96687],[111.53281,-7.96681],[111.53345,-7.96681],[111.53354,-7.96684],[111.53363,-7.96693],[111.53378,-7.96688],[111.53401,-7.96685],[111.53408,-7.96678],[111.53596,-7.96686],[111.53608,-7.96894],[111.53625,-7.96879],[111.53635,-7.96866],[111.53656,-7.96869],[111.5367,-7.96874],[111.53684,-7.96896],[111.53716,-7.96922],[111.5372,-7.96958],[111.53732,-7.9698],[111.53769,-7.97013],[111.5379,-7.97055],[111.53826,-7.97102],[111.53835,-7.97107],[111.53846,-7.97107],[111.5389,-7.97095],[111.53889,-7.97061],[111.53892,-7.97015],[111.5411,-7.97045],[111.5412,-7.96891],[111.54093,-7.9688],[111.54089,-7.96867],[111.54088,-7.96856],[111.54091,-7.96842],[111.54089,-7.96825],[111.54083,-7.96817],[111.54066,-7.96681],[111.54078,-7.96606],[111.5407,-7.96594],[111.5407,-7.9658],[111.54079,-7.96572],[111.54083,-7.96549],[111.54073,-7.96545],[111.54107,-7.96508],[111.54151,-7.96511],[111.54153,-7.96499],[111.5416,-7.9649],[111.54149,-7.96459],[111.54145,-7.96457],[111.54149,-7.96446],[111.54145,-7.96436],[111.54164,-7.96388],[111.54177,-7.96382],[111.54193,-7.96349],[111.54261,-7.96313],[111.543,-7.96314],[111.54299,-7.96322],[111.54427,-7.96283],[111.54461,-7.96268],[111.54475,-7.96287],[111.54491,-7.96351],[111.54498,-7.96364],[111.54507,-7.96375],[111.54519,-7.96382],[111.54533,-7.96388],[111.54556,-7.96388],[111.54563,-7.96381],[111.54567,-7.96371],[111.54563,-7.96307],[111.54571,-7.96297],[111.54592,-7.96286],[111.54594,-7.96275],[111.54577,-7.96259],[111.54556,-7.96227],[111.54534,-7.96223],[111.54523,-7.96227],[111.54504,-7.96226],[111.54499,-7.96209],[111.54503,-7.96189],[111.5452,-7.96163],[111.54525,-7.96147],[111.54538,-7.9613],[111.54565,-7.96128],[111.54687,-7.9616],[111.54723,-7.96175],[111.5476,-7.96174],[111.54772,-7.96043],[111.54715,-7.96041],[111.54627,-7.96027],[111.54451,-7.96011],[111.54429,-7.96044],[111.54413,-7.96055],[111.54377,-7.96069],[111.54246,-7.96066],[111.54246,-7.9606],[111.54192,-7.96059],[111.54185,-7.96054],[111.54165,-7.96053],[111.5412,-7.96044],[111.5409,-7.96045],[111.54087,-7.95988],[111.54083,-7.95986],[111.54007,-7.95998],[111.53999,-7.95983],[111.53999,-7.95971],[111.53958,-7.95985],[111.53952,-7.95978],[111.53935,-7.95974],[111.53916,-7.95959],[111.53899,-7.95959],[111.53887,-7.95948],[111.53881,-7.95937],[111.53868,-7.9589],[111.53868,-7.95887],[111.53887,-7.95876],[111.53871,-7.95839],[111.5385,-7.95803],[111.53811,-7.95746],[111.53818,-7.95742],[111.53827,-7.9573],[111.53847,-7.95688],[111.53852,-7.95671],[111.53858,-7.95623],[111.53866,-7.95602],[111.53872,-7.95594],[111.53893,-7.95583],[111.53896,-7.9557],[111.53888,-7.95553],[111.53888,-7.95523],[111.5388,-7.95502],[111.5388,-7.95491],[111.53816,-7.95476],[111.53758,-7.95472],[111.53759,-7.95514],[111.53685,-7.95514],[111.53692,-7.9557],[111.5368,-7.95577],[111.53642,-7.95579],[111.53642,-7.95586],[111.5362,-7.95595],[111.53567,-7.95633],[111.53496,-7.95636],[111.53386,-7.95625],[111.53327,-7.95625],[111.53302,-7.95703],[111.53297,-7.95707],[111.53248,-7.95711],[111.53214,-7.95708],[111.53185,-7.9571],[111.53171,-7.95639],[111.53161,-7.95402],[111.53147,-7.95333],[111.53147,-7.95269],[111.53126,-7.95226],[111.53126,-7.95195],[111.53132,-7.95187],[111.53156,-7.95174],[111.53144,-7.9511],[111.5318,-7.95102],[111.5321,-7.95078],[111.53222,-7.95073],[111.53198,-7.95013],[111.53178,-7.94975],[111.53105,-7.9502],[111.53078,-7.94975],[111.53042,-7.94932],[111.53099,-7.94912],[111.53101,-7.94909],[111.53012,-7.94628],[111.52929,-7.94394],[111.52946,-7.94382],[111.52977,-7.94367],[111.53009,-7.94357],[111.53032,-7.9434],[111.53074,-7.94321],[111.5308,-7.94317],[111.53077,-7.94303],[111.53139,-7.94287],[111.53195,-7.9431],[111.53327,-7.94344],[111.53344,-7.94343],[111.53379,-7.94327],[111.53353,-7.94232],[111.5328,-7.94018],[111.53277,-7.93999],[111.53267,-7.9398],[111.5325,-7.93963],[111.53246,-7.93954],[111.53248,-7.93945],[111.53258,-7.93935],[111.53306,-7.93928],[111.53317,-7.93919],[111.53323,-7.93907],[111.53323,-7.93899],[111.53313,-7.93859],[111.53313,-7.93844],[111.53321,-7.93838],[111.53336,-7.93836],[111.53356,-7.93839],[111.53371,-7.93834],[111.53388,-7.93812],[111.53399,-7.93773],[111.53413,-7.93748],[111.5342,-7.93722],[111.53429,-7.9371],[111.53451,-7.93694],[111.53464,-7.93693],[111.53471,-7.93696],[111.53485,-7.93724],[111.53507,-7.93746],[111.5352,-7.93743],[111.53537,-7.93727],[111.53541,-7.93718],[111.53548,-7.93716],[111.53556,-7.93716],[111.53574,-7.93739],[111.53594,-7.93754],[111.53611,-7.93759],[111.53625,-7.93758],[111.53643,-7.9375],[111.5365,-7.93743],[111.53663,-7.9371],[111.53666,-7.93692],[111.53672,-7.93683],[111.5368,-7.9368],[111.53704,-7.93692],[111.53715,-7.93692],[111.53733,-7.93673],[111.53744,-7.93649],[111.53763,-7.93633],[111.53766,-7.93622],[111.5377,-7.9362],[111.53803,-7.93625],[111.53823,-7.93607],[111.53841,-7.93601],[111.53864,-7.93575],[111.53891,-7.93553],[111.53917,-7.93563],[111.53928,-7.93574],[111.53938,-7.93594],[111.53969,-7.93635],[111.53975,-7.9364],[111.53983,-7.9364],[111.53999,-7.93618],[111.53993,-7.93598],[111.53996,-7.93589],[111.54013,-7.93586],[111.54024,-7.93567],[111.54035,-7.9358],[111.54054,-7.93582],[111.54073,-7.93581],[111.54086,-7.93574],[111.5409,-7.93567],[111.54092,-7.93532],[111.5409,-7.93515],[111.54096,-7.93502],[111.54102,-7.93498],[111.54111,-7.93495],[111.54129,-7.93504],[111.54149,-7.93502],[111.54153,-7.93513],[111.54163,-7.93528],[111.5417,-7.93528],[111.54195,-7.93507],[111.54198,-7.93498],[111.54196,-7.93485],[111.54192,-7.93478],[111.54192,-7.93456],[111.54195,-7.93442],[111.54202,-7.93432],[111.54272,-7.93386],[111.54288,-7.93379],[111.54316,-7.93378],[111.54332,-7.93386],[111.5434,-7.93393],[111.54366,-7.93404],[111.54405,-7.93431],[111.54446,-7.93427],[111.54458,-7.9342],[111.54494,-7.93386],[111.54502,-7.93367],[111.54531,-7.93355],[111.54542,-7.93343],[111.54546,-7.93322],[111.54551,-7.93315],[111.54563,-7.93309],[111.54576,-7.93282],[111.54586,-7.93275],[111.5461,-7.93271],[111.54657,-7.93294],[111.5467,-7.93292],[111.54694,-7.93276],[111.54699,-7.93276],[111.54709,-7.93287],[111.54717,-7.9329],[111.5473,-7.93291],[111.54744,-7.93285],[111.54764,-7.9326],[111.54764,-7.93249],[111.54788,-7.9321],[111.54795,-7.93188],[111.548,-7.93186],[111.5481,-7.93185],[111.54851,-7.932],[111.54881,-7.932],[111.54938,-7.93228],[111.54946,-7.93227],[111.54955,-7.93218],[111.54974,-7.93186],[111.54989,-7.93178],[111.55015,-7.93177],[111.55024,-7.93181],[111.55037,-7.93181],[111.55071,-7.93175],[111.55082,-7.93165],[111.55091,-7.9315],[111.55091,-7.93141],[111.55105,-7.93101],[111.55098,-7.93083],[111.55081,-7.93075],[111.55044,-7.93047],[111.55033,-7.93024],[111.55037,-7.92992],[111.55061,-7.92953],[111.55072,-7.92929],[111.55077,-7.9291],[111.55079,-7.92854],[111.55099,-7.92854],[111.55153,-7.92877],[111.55161,-7.92877],[111.55177,-7.92862],[111.55178,-7.92845],[111.55173,-7.92839],[111.55159,-7.92831],[111.55147,-7.92818],[111.55143,-7.928],[111.55154,-7.92785],[111.55164,-7.92781],[111.55179,-7.9279],[111.55196,-7.92791],[111.55214,-7.92742],[111.55214,-7.92726],[111.55202,-7.92706],[111.55191,-7.92701],[111.55182,-7.92692],[111.55177,-7.92678],[111.55179,-7.9266],[111.55192,-7.9264],[111.55218,-7.92617],[111.55248,-7.92619],[111.55306,-7.92634],[111.55345,-7.92635],[111.55375,-7.9263],[111.55427,-7.92613],[111.55469,-7.92611],[111.55492,-7.92628],[111.55505,-7.92648],[111.55514,-7.92686],[111.55524,-7.92707],[111.55534,-7.92713],[111.55563,-7.92715],[111.55578,-7.92713],[111.55601,-7.92704],[111.55631,-7.92682],[111.55643,-7.9267],[111.55665,-7.92628],[111.55681,-7.92605],[111.5569,-7.92596],[111.5573,-7.9258],[111.5575,-7.92562],[111.55762,-7.92556],[111.55775,-7.92557],[111.55805,-7.92569],[111.55832,-7.92567],[111.55848,-7.92553],[111.55867,-7.92518],[111.55902,-7.92495],[111.55921,-7.92494],[111.55963,-7.92506],[111.55983,-7.92515],[111.56026,-7.92547],[111.56062,-7.92568],[111.56105,-7.92572],[111.56123,-7.92567],[111.56135,-7.92557],[111.56164,-7.92519],[111.56195,-7.92519],[111.56225,-7.92528],[111.56236,-7.92529],[111.56282,-7.92514],[111.56299,-7.92498],[111.56311,-7.92474],[111.56325,-7.92464],[111.56344,-7.92458],[111.56378,-7.92452],[111.56386,-7.92447],[111.56413,-7.92407],[111.56426,-7.92397],[111.56443,-7.92398],[111.56478,-7.92413],[111.56498,-7.92417],[111.56504,-7.92413],[111.5651,-7.924],[111.56508,-7.92393],[111.56501,-7.92381],[111.56506,-7.92374],[111.56516,-7.9237],[111.56558,-7.92379],[111.56579,-7.92365],[111.56616,-7.92365],[111.56628,-7.92355],[111.56639,-7.92351],[111.56648,-7.92352],[111.56658,-7.92359],[111.56663,-7.92367],[111.56671,-7.92396],[111.56687,-7.92409],[111.56731,-7.92422],[111.56751,-7.92413],[111.56761,-7.92413],[111.56812,-7.9244],[111.56796,-7.92409],[111.56771,-7.92389],[111.5677,-7.92378],[111.56773,-7.92371],[111.56782,-7.92361],[111.56825,-7.92332],[111.56851,-7.92281],[111.56866,-7.92265],[111.5689,-7.92246],[111.56988,-7.92188],[111.57031,-7.92177],[111.57053,-7.92152],[111.57058,-7.92139],[111.57095,-7.92101],[111.57099,-7.92078],[111.57096,-7.9207],[111.57056,-7.92008],[111.57048,-7.91988],[111.57049,-7.91977],[111.5707,-7.91931],[111.57066,-7.91906],[111.57082,-7.91877],[111.57091,-7.91871],[111.57128,-7.91858],[111.57154,-7.91843],[111.57185,-7.91841],[111.57194,-7.91854],[111.57208,-7.91897],[111.57179,-7.91909],[111.57154,-7.91925],[111.57156,-7.91971],[111.57173,-7.92009],[111.57203,-7.92103],[111.57242,-7.9218],[111.57285,-7.92236],[111.57486,-7.92434]],[[111.59791,-7.94336],[111.59764,-7.9436],[111.59748,-7.94404],[111.59764,-7.9445],[111.59777,-7.94506],[111.59792,-7.94548],[111.5977,-7.94615],[111.59768,-7.9465],[111.59803,-7.94747],[111.59927,-7.94889],[111.59978,-7.94963],[111.59992,-7.95021],[111.6002,-7.9504],[111.60092,-7.95076],[111.60185,-7.95088],[111.60239,-7.9513],[111.60355,-7.95163],[111.60398,-7.95139],[111.60429,-7.95154],[111.60437,-7.95196],[111.60452,-7.95224],[111.6046,-7.95276],[111.60479,-7.95282],[111.60491,-7.95227],[111.60575,-7.95217],[111.60631,-7.95154],[111.60668,-7.95137],[111.60742,-7.95082],[111.60756,-7.95023],[111.60774,-7.94989],[111.60787,-7.94927],[111.60765,-7.94886],[111.60768,-7.94839],[111.60764,-7.94783],[111.60781,-7.94738],[111.60756,-7.9471],[111.60711,-7.94681],[111.60663,-7.94642],[111.60565,-7.94588],[111.60528,-7.94563],[111.60472,-7.94546],[111.60459,-7.94501],[111.60422,-7.94484],[111.60369,-7.94447],[111.60213,-7.94415],[111.60133,-7.94393],[111.60031,-7.94384],[111.59959,-7.9435],[111.59916,-7.94271],[111.59901,-7.94191],[111.59855,-7.94203],[111.59808,-7.9426],[111.59791,-7.94336]],[[111.61662,-7.95174],[111.61671,-7.95177],[111.61669,-7.95168],[111.61662,-7.95174]],[[111.6097,-7.95271],[111.60925,-7.95301],[111.60902,-7.95301],[111.60884,-7.95336],[111.60793,-7.95346],[111.6076,-7.95368],[111.60713,-7.95376],[111.60655,-7.95361],[111.6056,-7.95347],[111.60542,-7.9537],[111.60616,-7.95388],[111.60632,-7.95419],[111.60583,-7.95429],[111.60557,-7.95481],[111.60558,-7.95518],[111.60535,-7.95553],[111.60561,-7.95592],[111.60614,-7.9562],[111.60639,-7.95594],[111.60658,-7.95556],[111.60672,-7.95485],[111.60706,-7.95452],[111.60753,-7.95443],[111.60774,-7.95421],[111.60858,-7.95391],[111.60888,-7.95406],[111.60913,-7.95482],[111.60977,-7.95503],[111.61011,-7.95511],[111.61107,-7.95469],[111.6112,-7.95443],[111.61143,-7.95421],[111.61161,-7.95383],[111.61149,-7.9536],[111.61057,-7.95361],[111.61037,-7.95337],[111.61064,-7.95261],[111.61044,-7.95233],[111.6097,-7.95271]],[[111.60448,-7.95392],[111.60474,-7.95342],[111.60438,-7.95312],[111.60375,-7.95301],[111.60318,-7.95346],[111.60367,-7.95386],[111.60386,-7.9541],[111.60411,-7.95417],[111.60448,-7.95392]],[[111.61391,-7.96328],[111.61401,-7.96332],[111.61398,-7.96315],[111.61391,-7.96328]],[[111.60345,-7.97245],[111.60366,-7.97247],[111.60364,-7.97234],[111.60334,-7.97234],[111.60345,-7.97245]],[[111.55525,-7.98515],[111.55551,-7.98522],[111.55566,-7.98508],[111.55582,-7.98489],[111.55591,-7.98437],[111.55549,-7.98366],[111.55555,-7.9832],[111.55553,-7.98302],[111.55486,-7.98317],[111.55399,-7.98397],[111.5539,-7.98427],[111.55412,-7.98466],[111.55492,-7.98474],[111.55525,-7.98515]],[[111.57565,-8.01806],[111.57673,-8.01823],[111.57714,-8.01784],[111.5769,-8.01749],[111.57671,-8.01731],[111.57604,-8.01745],[111.57563,-8.0176],[111.57565,-8.01806]],[[111.64701,-8.00282],[111.64731,-8.00285],[111.64749,-8.00248],[111.64735,-8.00214],[111.64728,-8.00191],[111.64701,-8.00158],[111.64678,-8.00163],[111.64665,-8.00182],[111.64682,-8.00251],[111.64701,-8.00282]],[[111.614,-7.97679],[111.61424,-7.97682],[111.61421,-7.97655],[111.61405,-7.97635],[111.61384,-7.97647],[111.614,-7.97679]]]]}},{"type":"Feature","properties":{"gridcode":2,"Topografi":"500-1000 Mpdl","NTopografi":4,"_cls":"500-1000 Mpdl"},"geometry":{"type":"MultiPolygon","coordinates":[[[[111.57714,-8.01784],[111.57673,-8.01823],[111.57565,-8.01806],[111.57563,-8.0176],[111.57604,-8.01745],[111.57671,-8.01731],[111.5769,-8.01749],[111.57714,-8.01784]]],[[[111.64749,-8.00248],[111.64731,-8.00285],[111.64701,-8.00282],[111.64682,-8.00251],[111.64665,-8.00182],[111.64678,-8.00163],[111.64701,-8.00158],[111.64728,-8.00191],[111.64735,-8.00214],[111.64749,-8.00248]]],[[[111.5653,-7.99502],[111.56529,-7.99567],[111.56483,-7.99634],[111.56469,-7.9969],[111.56486,-7.99721],[111.56538,-7.99734],[111.56567,-7.99719],[111.56591,-7.99711],[111.56668,-7.99731],[111.56745,-7.99711],[111.56813,-7.99703],[111.56867,-7.99681],[111.56901,-7.99674],[111.56912,-7.99719],[111.56955,-7.99816],[111.56928,-7.99927],[111.56916,-7.9996],[111.56895,-7.99991],[111.56851,-8.00011],[111.56795,-7.99953],[111.56769,-7.99936],[111.56733,-7.99899],[111.56668,-7.99883],[111.56618,-7.99884],[111.56524,-7.99932],[111.56512,-7.99995],[111.56453,-8.00074],[111.56419,-8.00144],[111.56336,-8.00278],[111.56327,-8.00343],[111.56292,-8.0041],[111.56306,-8.00451],[111.56349,-8.00536],[111.56422,-8.00617],[111.56408,-8.00641],[111.56314,-8.0061],[111.5625,-8.00571],[111.56175,-8.00559],[111.56133,-8.00559],[111.56065,-8.00537],[111.5601,-8.00506],[111.55922,-8.00484],[111.55857,-8.00476],[111.55768,-8.00513],[111.55746,-8.00559],[111.55757,-8.00634],[111.55757,-8.00652],[111.55719,-8.00714],[111.55719,-8.00732],[111.55757,-8.00767],[111.55773,-8.00801],[111.55771,-8.00869],[111.55735,-8.0094],[111.55768,-8.01017],[111.55829,-8.01098],[111.5581,-8.01193],[111.55756,-8.01273],[111.55742,-8.0135],[111.55824,-8.01382],[111.55939,-8.01396],[111.5597,-8.01412],[111.56027,-8.01483],[111.56066,-8.01513],[111.56087,-8.01535],[111.56064,-8.016],[111.56057,-8.01654],[111.55998,-8.01739],[111.56017,-8.01776],[111.56081,-8.01797],[111.56123,-8.01819],[111.56146,-8.01826],[111.56207,-8.01774],[111.56223,-8.01766],[111.56322,-8.01768],[111.56391,-8.0175],[111.5644,-8.01714],[111.56463,-8.01714],[111.56495,-8.0173],[111.56534,-8.01772],[111.56544,-8.01834],[111.56565,-8.01885],[111.56544,-8.01947],[111.56545,-8.01978],[111.56652,-8.02076],[111.56692,-8.02095],[111.56734,-8.02081],[111.5675,-8.02017],[111.56791,-8.01987],[111.56799,-8.01923],[111.56822,-8.0188],[111.56829,-8.01852],[111.568,-8.0178],[111.56815,-8.0175],[111.56928,-8.01638],[111.56973,-8.01639],[111.57037,-8.01661],[111.57122,-8.01684],[111.57304,-8.01752],[111.57333,-8.01783],[111.57332,-8.01842],[111.57314,-8.01859],[111.57248,-8.01885],[111.57196,-8.01925],[111.57116,-8.01972],[111.57135,-8.0201],[111.57116,-8.02048],[111.57077,-8.02096],[111.57063,-8.02124],[111.57024,-8.02134],[111.5697,-8.02188],[111.56934,-8.02243],[111.56897,-8.02261],[111.56862,-8.02288],[111.56852,-8.02352],[111.56829,-8.02375],[111.56784,-8.02389],[111.56741,-8.02424],[111.56724,-8.02449],[111.56664,-8.02516],[111.56657,-8.02539],[111.56645,-8.02554],[111.56574,-8.02525],[111.56483,-8.02566],[111.56416,-8.02577],[111.56386,-8.02592],[111.56387,-8.02622],[111.5643,-8.02708],[111.56439,-8.02757],[111.56467,-8.02794],[111.56477,-8.02829],[111.56404,-8.02841],[111.56275,-8.02815],[111.56233,-8.02786],[111.56123,-8.02742],[111.56064,-8.02734],[111.56048,-8.02726],[111.56026,-8.02703],[111.56005,-8.02637],[111.55967,-8.02614],[111.55959,-8.02575],[111.55975,-8.0253],[111.55974,-8.02489],[111.55902,-8.02454],[111.55892,-8.02403],[111.5593,-8.02329],[111.55929,-8.02282],[111.55913,-8.02269],[111.55843,-8.02305],[111.55793,-8.02314],[111.5574,-8.02287],[111.55673,-8.02171],[111.55651,-8.02172],[111.55636,-8.02187],[111.55621,-8.02218],[111.55621,-8.02371],[111.55607,-8.02427],[111.55576,-8.02426],[111.55547,-8.02367],[111.55488,-8.02298],[111.5547,-8.02284],[111.55423,-8.02333],[111.55412,-8.02389],[111.55401,-8.02409],[111.55319,-8.02425],[111.55287,-8.02409],[111.55273,-8.02351],[111.55203,-8.02352],[111.55158,-8.02337],[111.55118,-8.02329],[111.55083,-8.02366],[111.55074,-8.02419],[111.55065,-8.02447],[111.55029,-8.02494],[111.55029,-8.02517],[111.55091,-8.02547],[111.55152,-8.02539],[111.55189,-8.02539],[111.55266,-8.02579],[111.55327,-8.0262],[111.55337,-8.02658],[111.55272,-8.02706],[111.55212,-8.02819],[111.5528,-8.02895],[111.55301,-8.02949],[111.55388,-8.02991],[111.55397,-8.03034],[111.55429,-8.03074],[111.55457,-8.03101],[111.55464,-8.03132],[111.55443,-8.03152],[111.55367,-8.03161],[111.55335,-8.0317],[111.55284,-8.03223],[111.55222,-8.03221],[111.55157,-8.03184],[111.55116,-8.03177],[111.55104,-8.03215],[111.55136,-8.03246],[111.55119,-8.03301],[111.55174,-8.03314],[111.55231,-8.03337],[111.55277,-8.03372],[111.55358,-8.03385],[111.5541,-8.03439],[111.5548,-8.03448],[111.55528,-8.03543],[111.55597,-8.03507],[111.55682,-8.03499],[111.55726,-8.03477],[111.5575,-8.03469],[111.55773,-8.03469],[111.55813,-8.03511],[111.55839,-8.03582],[111.55878,-8.03627],[111.55921,-8.03648],[111.55976,-8.03688],[111.56082,-8.03687],[111.56132,-8.03724],[111.56152,-8.03732],[111.56291,-8.03676],[111.5632,-8.03656],[111.56319,-8.03604],[111.56339,-8.03582],[111.56396,-8.03605],[111.56429,-8.03639],[111.56439,-8.03724],[111.56456,-8.038],[111.56485,-8.03799],[111.56507,-8.03776],[111.56554,-8.03746],[111.56631,-8.03747],[111.56762,-8.03732],[111.56814,-8.03717],[111.56839,-8.03717],[111.56899,-8.03748],[111.56921,-8.03771],[111.56919,-8.03872],[111.56941,-8.03938],[111.5691,-8.04014],[111.56929,-8.04042],[111.5699,-8.04078],[111.57029,-8.04119],[111.5704,-8.04186],[111.5704,-8.04242],[111.57069,-8.0427],[111.57078,-8.04288],[111.57077,-8.04343],[111.57062,-8.04415],[111.57021,-8.04414],[111.56963,-8.0437],[111.56852,-8.04354],[111.5682,-8.0433],[111.56759,-8.04301],[111.56688,-8.04302],[111.56642,-8.04294],[111.56486,-8.04286],[111.56416,-8.04256],[111.56365,-8.04257],[111.56323,-8.04232],[111.5628,-8.04211],[111.56206,-8.04197],[111.56139,-8.0422],[111.56067,-8.0422],[111.56057,-8.04272],[111.56079,-8.04315],[111.56088,-8.04343],[111.56117,-8.04362],[111.56191,-8.04428],[111.56202,-8.04516],[111.56184,-8.04543],[111.56097,-8.04599],[111.56023,-8.04629],[111.55959,-8.04683],[111.55876,-8.04633],[111.55779,-8.04662],[111.55704,-8.04669],[111.55642,-8.04685],[111.55553,-8.04699],[111.55493,-8.04684],[111.55424,-8.04631],[111.55339,-8.04631],[111.55258,-8.04562],[111.55218,-8.04583],[111.55195,-8.04615],[111.55184,-8.04614],[111.55126,-8.04566],[111.55126,-8.0452],[111.55104,-8.04461],[111.55061,-8.04391],[111.55023,-8.0437],[111.54917,-8.04278],[111.54702,-8.04184],[111.54655,-8.04206],[111.54592,-8.04179],[111.54553,-8.0413],[111.5451,-8.04123],[111.54473,-8.04127],[111.5442,-8.04141],[111.54374,-8.04127],[111.54318,-8.04081],[111.5425,-8.04189],[111.54235,-8.04195],[111.5422,-8.04184],[111.54192,-8.04183],[111.54175,-8.04158],[111.54167,-8.04156],[111.54131,-8.04199],[111.54103,-8.04203],[111.54048,-8.04221],[111.54024,-8.04212],[111.5398,-8.04225],[111.5396,-8.04207],[111.53947,-8.04208],[111.53878,-8.0425],[111.53887,-8.04218],[111.53933,-8.04136],[111.53964,-8.04106],[111.54022,-8.04074],[111.54058,-8.04026],[111.54085,-8.03893],[111.5404,-8.03757],[111.53998,-8.03677],[111.53986,-8.0366],[111.53969,-8.03646],[111.53854,-8.03685],[111.53913,-8.03557],[111.53873,-8.03527],[111.53861,-8.03507],[111.53864,-8.03472],[111.53919,-8.03392],[111.53953,-8.03316],[111.53963,-8.03281],[111.53964,-8.03241],[111.53956,-8.03192],[111.5393,-8.03113],[111.53907,-8.0306],[111.53863,-8.02982],[111.53804,-8.02886],[111.5375,-8.02769],[111.53726,-8.02686],[111.53719,-8.02646],[111.53712,-8.02528],[111.53719,-8.02303],[111.53712,-8.02265],[111.53717,-8.0222],[111.53745,-8.02129],[111.53748,-8.02085],[111.5376,-8.02024],[111.53772,-8.01991],[111.53812,-8.01922],[111.53817,-8.01906],[111.53814,-8.01875],[111.53789,-8.01804],[111.53823,-8.01804],[111.53883,-8.01711],[111.53916,-8.0168],[111.53935,-8.01623],[111.54022,-8.01625],[111.54095,-8.01605],[111.54133,-8.01526],[111.54255,-8.01528],[111.54311,-8.0149],[111.54403,-8.01481],[111.5446,-8.01405],[111.54459,-8.01355],[111.54471,-8.01307],[111.54453,-8.01252],[111.54484,-8.012],[111.54571,-8.01151],[111.5458,-8.0107],[111.54579,-8.01],[111.54606,-8.00974],[111.54684,-8.00988],[111.54769,-8.00986],[111.54812,-8.00971],[111.54841,-8.00912],[111.54893,-8.00862],[111.54946,-8.00827],[111.55021,-8.00813],[111.55104,-8.00814],[111.55154,-8.00763],[111.55164,-8.00708],[111.55202,-8.00672],[111.5521,-8.00611],[111.55282,-8.00593],[111.55348,-8.00524],[111.55423,-8.00503],[111.55438,-8.00487],[111.55464,-8.00445],[111.55446,-8.00373],[111.55466,-8.00315],[111.55455,-8.00284],[111.55392,-8.00234],[111.55374,-8.00202],[111.55422,-8.00127],[111.55442,-8.00086],[111.55505,-8.00022],[111.55517,-7.99974],[111.55574,-7.99815],[111.55635,-7.99816],[111.55682,-7.99779],[111.55742,-7.99771],[111.55819,-7.99741],[111.55851,-7.99724],[111.55863,-7.99677],[111.55877,-7.99591],[111.55884,-7.99569],[111.55893,-7.99509],[111.55952,-7.99524],[111.55983,-7.99508],[111.56006,-7.99459],[111.56028,-7.99362],[111.56027,-7.99286],[111.56061,-7.99276],[111.56144,-7.9931],[111.56154,-7.99351],[111.56177,-7.99405],[111.56248,-7.99439],[111.56363,-7.99453],[111.5641,-7.99469],[111.56508,-7.99479],[111.5653,-7.99502]]],[[[111.55566,-7.98508],[111.55551,-7.98522],[111.55525,-7.98515],[111.55492,-7.98474],[111.55412,-7.98466],[111.5539,-7.98427],[111.55399,-7.98397],[111.55486,-7.98317],[111.55553,-7.98302],[111.55555,-7.9832],[111.55549,-7.98366],[111.55591,-7.98437],[111.55582,-7.98489],[111.55566,-7.98508]]],[[[111.60112,-7.98742],[111.6024,-7.98822],[111.60278,-7.98861],[111.60325,-7.98848],[111.60377,-7.98841],[111.6042,-7.98806],[111.60468,-7.98819],[111.60468,-7.98862],[111.60514,-7.98892],[111.60494,-7.9893],[111.60355,-7.9894],[111.60392,-7.98978],[111.60377,-7.99006],[111.60362,-7.99045],[111.60407,-7.99086],[111.60422,-7.99134],[111.60445,-7.99177],[111.60452,-7.99209],[111.60482,-7.99246],[111.60491,-7.99264],[111.6055,-7.99319],[111.60565,-7.99396],[111.60578,-7.99421],[111.60545,-7.99452],[111.60517,-7.99495],[111.60453,-7.99492],[111.60445,-7.9955],[111.60508,-7.99586],[111.60536,-7.99646],[111.60535,-7.99713],[111.60558,-7.99756],[111.60557,-7.9978],[111.60539,-7.99797],[111.6049,-7.99828],[111.60482,-7.99876],[111.6046,-7.99906],[111.60452,-7.99936],[111.60431,-7.99958],[111.60421,-8.00019],[111.60377,-8.00071],[111.6037,-8.00089],[111.60392,-8.00131],[111.60402,-8.00171],[111.60384,-8.00224],[111.6037,-8.00281],[111.60346,-8.00339],[111.60262,-8.00373],[111.6024,-8.00465],[111.60242,-8.00576],[111.60207,-8.00642],[111.60197,-8.00698],[111.60165,-8.00749],[111.60104,-8.00773],[111.60069,-8.008],[111.60071,-8.0085],[111.60032,-8.00904],[111.60023,-8.00924],[111.60027,-8.01034],[111.60005,-8.01087],[111.5998,-8.01135],[111.59891,-8.01251],[111.59882,-8.01324],[111.59869,-8.01375],[111.59891,-8.01441],[111.59921,-8.01499],[111.5992,-8.0156],[111.59888,-8.01638],[111.59852,-8.01661],[111.59789,-8.01749],[111.59757,-8.01769],[111.5973,-8.01782],[111.59708,-8.01781],[111.59646,-8.01738],[111.59616,-8.01722],[111.59608,-8.01763],[111.59562,-8.01789],[111.59514,-8.01842],[111.59423,-8.01851],[111.59235,-8.01896],[111.59046,-8.01938],[111.58928,-8.02053],[111.58765,-8.02262],[111.58676,-8.02352],[111.58615,-8.02396],[111.58527,-8.02444],[111.58337,-8.02514],[111.58274,-8.0257],[111.58262,-8.02652],[111.58234,-8.02701],[111.58194,-8.0278],[111.58183,-8.0279],[111.58145,-8.02753],[111.58127,-8.02726],[111.58081,-8.02696],[111.58067,-8.02666],[111.58029,-8.02619],[111.5803,-8.02584],[111.58007,-8.0251],[111.58087,-8.02422],[111.5816,-8.0241],[111.58191,-8.02377],[111.58247,-8.02367],[111.58267,-8.02356],[111.58284,-8.02329],[111.58341,-8.02297],[111.58415,-8.02299],[111.58412,-8.02231],[111.5842,-8.02209],[111.58427,-8.02139],[111.58453,-8.02091],[111.58547,-8.02082],[111.58567,-8.02071],[111.58599,-8.01969],[111.58631,-8.01913],[111.58629,-8.01869],[111.58573,-8.01787],[111.58607,-8.01744],[111.58652,-8.01677],[111.58661,-8.01638],[111.5871,-8.01579],[111.58734,-8.01543],[111.58681,-8.01503],[111.58683,-8.01461],[111.58673,-8.01425],[111.58683,-8.01398],[111.5877,-8.01382],[111.58784,-8.01351],[111.58833,-8.01328],[111.58885,-8.01258],[111.58952,-8.01241],[111.59015,-8.01231],[111.59032,-8.01161],[111.59077,-8.01119],[111.59095,-8.0109],[111.5908,-8.01061],[111.59072,-8.01029],[111.59088,-8.00983],[111.5907,-8.00899],[111.59095,-8.00866],[111.5911,-8.00829],[111.59139,-8.00786],[111.59237,-8.00769],[111.59298,-8.00761],[111.59329,-8.00745],[111.59354,-8.00693],[111.59429,-8.00645],[111.59455,-8.006],[111.5944,-8.00514],[111.5944,-8.00497],[111.59455,-8.00468],[111.59455,-8.00445],[111.59393,-8.00406],[111.59395,-8.00362],[111.59469,-8.00331],[111.59523,-8.0029],[111.59575,-8.00281],[111.59637,-8.00265],[111.59731,-8.00266],[111.59771,-8.00235],[111.59768,-8.00146],[111.59725,-8.00066],[111.59717,-8.0004],[111.59746,-7.99983],[111.59772,-7.99945],[111.59848,-7.99892],[111.5983,-7.99843],[111.59875,-7.99801],[111.59912,-7.99762],[111.5992,-7.99692],[111.59871,-7.99621],[111.5986,-7.99581],[111.59901,-7.99554],[111.60054,-7.99546],[111.60062,-7.99492],[111.60032,-7.99402],[111.60048,-7.99373],[111.60129,-7.99354],[111.6016,-7.99319],[111.60145,-7.99261],[111.60135,-7.99188],[111.60195,-7.99174],[111.60181,-7.99106],[111.60191,-7.99078],[111.6022,-7.99035],[111.6022,-7.99011],[111.60193,-7.98961],[111.60212,-7.98882],[111.60144,-7.98871],[111.60041,-7.988],[111.5994,-7.98804],[111.59912,-7.98834],[111.59875,-7.98861],[111.5972,-7.98855],[111.59646,-7.98877],[111.59619,-7.98847],[111.5962,-7.98817],[111.59668,-7.98773],[111.5968,-7.98736],[111.597,-7.98706],[111.59686,-7.98666],[111.59688,-7.98604],[111.59733,-7.98545],[111.59732,-7.98504],[111.59791,-7.98433],[111.59839,-7.98406],[111.59836,-7.98331],[111.59849,-7.98266],[111.5986,-7.98256],[111.59882,-7.98257],[111.59897,-7.98284],[111.59859,-7.98309],[111.5986,-7.98337],[111.59901,-7.98363],[111.59889,-7.9841],[111.59927,-7.9846],[111.59942,-7.98541],[111.59976,-7.98583],[111.60032,-7.98601],[111.60077,-7.98619],[111.60116,-7.9864],[111.60112,-7.98742]]],[[[111.61421,-7.97655],[111.61424,-7.97682],[111.614,-7.97679],[111.61384,-7.97647],[111.61405,-7.97635],[111.61421,-7.97655]]],[[[111.60364,-7.97234],[111.60366,-7.97247],[111.60345,-7.97245],[111.60334,-7.97234],[111.60364,-7.97234]]],[[[111.61398,-7.96315],[111.61401,-7.96332],[111.61391,-7.96328],[111.61398,-7.96315]]],[[[111.61866,-7.95396],[111.6181,-7.95433],[111.61809,-7.95465],[111.61825,-7.95496],[111.61892,-7.95483],[111.61945,-7.95451],[111.61975,-7.95443],[111.61997,-7.95421],[111.62019,-7.9542],[111.62035,-7.95435],[111.62035,-7.95455],[111.62012,-7.95488],[111.62005,-7.95526],[111.6199,-7.95564],[111.6199,-7.95593],[111.61974,-7.95634],[111.61993,-7.9572],[111.62048,-7.95721],[111.62102,-7.95706],[111.62183,-7.95698],[111.62255,-7.95646],[111.62313,-7.95663],[111.62312,-7.9569],[111.6232,-7.95698],[111.62365,-7.95728],[111.6238,-7.95758],[111.62373,-7.95788],[111.62349,-7.95828],[111.62283,-7.95892],[111.62282,-7.95908],[111.62305,-7.95916],[111.62343,-7.95923],[111.62425,-7.95982],[111.62502,-7.95923],[111.62515,-7.95946],[111.62531,-7.96003],[111.62561,-7.95982],[111.62597,-7.95965],[111.62606,-7.95919],[111.62642,-7.95901],[111.62743,-7.95861],[111.62765,-7.95838],[111.62807,-7.95822],[111.62816,-7.95854],[111.62823,-7.95861],[111.62838,-7.95856],[111.62851,-7.95857],[111.62877,-7.95841],[111.62896,-7.95842],[111.62929,-7.9586],[111.62938,-7.95872],[111.62963,-7.95803],[111.62977,-7.95815],[111.63005,-7.95817],[111.63006,-7.95794],[111.62999,-7.95783],[111.63003,-7.95772],[111.63051,-7.95775],[111.63081,-7.9577],[111.63119,-7.95774],[111.63129,-7.9578],[111.63145,-7.95775],[111.63161,-7.95781],[111.63165,-7.95819],[111.63183,-7.95815],[111.63202,-7.95822],[111.6326,-7.95814],[111.63273,-7.95807],[111.63281,-7.95795],[111.63279,-7.95784],[111.63297,-7.95769],[111.63346,-7.95707],[111.63364,-7.95697],[111.63396,-7.95689],[111.63413,-7.95676],[111.63468,-7.95624],[111.63481,-7.95605],[111.63495,-7.95592],[111.63511,-7.95588],[111.63581,-7.95587],[111.63604,-7.95596],[111.63673,-7.95634],[111.63753,-7.95685],[111.63824,-7.95697],[111.63841,-7.95696],[111.63856,-7.9569],[111.6389,-7.95696],[111.63873,-7.95743],[111.63871,-7.95778],[111.63883,-7.95831],[111.63881,-7.95861],[111.63901,-7.95874],[111.6392,-7.95905],[111.63932,-7.95916],[111.63935,-7.9593],[111.63951,-7.95944],[111.63951,-7.95967],[111.63956,-7.95975],[111.63966,-7.9598],[111.64007,-7.95987],[111.64035,-7.96009],[111.64072,-7.96018],[111.64094,-7.96026],[111.64123,-7.96073],[111.64131,-7.96081],[111.64142,-7.96081],[111.64148,-7.96077],[111.64162,-7.96054],[111.64169,-7.96052],[111.64182,-7.96057],[111.64202,-7.96077],[111.64248,-7.96101],[111.6426,-7.961],[111.64275,-7.96086],[111.64282,-7.96085],[111.64295,-7.96093],[111.64308,-7.96091],[111.64314,-7.96087],[111.64321,-7.96071],[111.64321,-7.96017],[111.64328,-7.96011],[111.64348,-7.96014],[111.64405,-7.96043],[111.64422,-7.96046],[111.64434,-7.96042],[111.64441,-7.96026],[111.64448,-7.96023],[111.64459,-7.96026],[111.64831,-7.96014],[111.64837,-7.96037],[111.64845,-7.96048],[111.64878,-7.96081],[111.64969,-7.96126],[111.64986,-7.96144],[111.64986,-7.9615],[111.65026,-7.96185],[111.65099,-7.96202],[111.65142,-7.96232],[111.65184,-7.96334],[111.65216,-7.9637],[111.65237,-7.96389],[111.65288,-7.96398],[111.65301,-7.96404],[111.65318,-7.96431],[111.65317,-7.96437],[111.65367,-7.96457],[111.65436,-7.96505],[111.65582,-7.96572],[111.65696,-7.96613],[111.65765,-7.9666],[111.65849,-7.96735],[111.65902,-7.96778],[111.66052,-7.96757],[111.66191,-7.96716],[111.66232,-7.96714],[111.66274,-7.96719],[111.66343,-7.96759],[111.66348,-7.96771],[111.66349,-7.96819],[111.66332,-7.96888],[111.66291,-7.96995],[111.66251,-7.97061],[111.66236,-7.97093],[111.66226,-7.97104],[111.66171,-7.97122],[111.66163,-7.97129],[111.66168,-7.9719],[111.66154,-7.97224],[111.66152,-7.97332],[111.66158,-7.97344],[111.66186,-7.97379],[111.66225,-7.97404],[111.66223,-7.97412],[111.66213,-7.97425],[111.66164,-7.97459],[111.66157,-7.97484],[111.66119,-7.97504],[111.661,-7.97545],[111.66087,-7.97551],[111.66007,-7.97543],[111.65935,-7.97559],[111.65896,-7.97529],[111.65841,-7.97532],[111.65783,-7.97537],[111.6574,-7.97551],[111.65679,-7.97563],[111.65641,-7.97579],[111.65628,-7.97588],[111.65613,-7.97621],[111.6558,-7.97712],[111.65557,-7.97797],[111.6553,-7.97861],[111.65529,-7.97886],[111.65533,-7.97915],[111.655,-7.97921],[111.65466,-7.97944],[111.6543,-7.97999],[111.654,-7.98014],[111.65319,-7.97981],[111.65247,-7.97999],[111.6523,-7.98108],[111.65157,-7.98178],[111.65147,-7.98239],[111.651,-7.98314],[111.65026,-7.98326],[111.64915,-7.9837],[111.64923,-7.98407],[111.64938,-7.98436],[111.64949,-7.9853],[111.64967,-7.98585],[111.6499,-7.9863],[111.64982,-7.98655],[111.64923,-7.98712],[111.6493,-7.98736],[111.6496,-7.98776],[111.64953,-7.98796],[111.64929,-7.98828],[111.64901,-7.98886],[111.6487,-7.98902],[111.64788,-7.989],[111.6478,-7.98931],[111.64738,-7.99023],[111.64773,-7.99068],[111.64747,-7.99078],[111.64649,-7.99056],[111.64587,-7.98992],[111.64537,-7.98975],[111.64443,-7.98977],[111.64398,-7.98954],[111.64396,-7.99027],[111.64423,-7.99054],[111.64465,-7.99089],[111.64523,-7.99112],[111.64592,-7.99163],[111.64608,-7.99186],[111.64623,-7.99247],[111.64653,-7.99305],[111.64653,-7.99335],[111.64634,-7.99365],[111.64541,-7.99388],[111.64483,-7.99423],[111.64453,-7.99463],[111.64473,-7.99524],[111.64489,-7.99547],[111.64524,-7.9962],[111.64547,-7.99642],[111.64591,-7.9971],[111.64642,-7.99748],[111.64721,-7.99696],[111.64755,-7.99661],[111.64846,-7.99614],[111.64898,-7.99613],[111.64944,-7.99635],[111.64968,-7.99659],[111.6505,-7.99752],[111.65039,-7.99792],[111.64979,-7.99881],[111.64952,-7.99949],[111.64865,-8.0],[111.6484,-8.00034],[111.64829,-8.001],[111.64781,-8.00116],[111.64743,-8.00109],[111.64688,-8.0007],[111.64614,-8.00033],[111.64548,-8.00012],[111.64519,-7.99923],[111.64475,-7.99835],[111.64421,-7.99816],[111.64346,-7.99815],[111.64263,-7.99839],[111.6421,-7.99846],[111.64157,-7.99869],[111.64114,-7.99868],[111.64004,-7.99928],[111.6399,-7.99956],[111.64037,-8.00012],[111.64023,-8.00026],[111.63989,-8.00049],[111.64007,-8.00084],[111.63978,-8.00127],[111.63977,-8.00169],[111.64008,-8.00198],[111.6396,-8.00236],[111.63867,-8.00249],[111.63789,-8.002],[111.63704,-8.00164],[111.63725,-8.0006],[111.63745,-8.00019],[111.63753,-7.99989],[111.63777,-7.99941],[111.63767,-7.99913],[111.63768,-7.9987],[111.63753,-7.99854],[111.63709,-7.99839],[111.63676,-7.99849],[111.6356,-7.99963],[111.63515,-8.00026],[111.63481,-8.00018],[111.6346,-7.99965],[111.63423,-7.9993],[111.63393,-7.99846],[111.63378,-7.99774],[111.63348,-7.99712],[111.63319,-7.99692],[111.63303,-7.99726],[111.63243,-7.99783],[111.63235,-7.99824],[111.63228,-7.99899],[111.6319,-7.99964],[111.6319,-7.99988],[111.63203,-8.00026],[111.63171,-8.00018],[111.63157,-7.99989],[111.63127,-8.00008],[111.63102,-8.00031],[111.6309,-8.00084],[111.63016,-8.00117],[111.62952,-8.00116],[111.62918,-8.00124],[111.6286,-8.00123],[111.62746,-8.00176],[111.62711,-8.00164],[111.62695,-8.00079],[111.62672,-8.00022],[111.62673,-7.99967],[111.62651,-7.99944],[111.62637,-7.99944],[111.62536,-8.00019],[111.62502,-8.00019],[111.62465,-8.00007],[111.62447,-7.9998],[111.62425,-7.99936],[111.6239,-7.99919],[111.62349,-7.99844],[111.62116,-7.99848],[111.62069,-7.99832],[111.62005,-7.99831],[111.61983,-7.99846],[111.61932,-7.99859],[111.6187,-7.99884],[111.61775,-7.99893],[111.61765,-7.99914],[111.61756,-7.99959],[111.61645,-8.00079],[111.61635,-8.00185],[111.61616,-8.00206],[111.6145,-8.00244],[111.6138,-8.00274],[111.613,-8.00262],[111.613,-8.00237],[111.61313,-8.00211],[111.613,-8.00161],[111.61301,-8.00117],[111.61279,-8.00095],[111.61218,-8.00049],[111.61202,-7.99994],[111.61203,-7.9987],[111.61165,-7.99768],[111.61193,-7.99725],[111.61206,-7.99675],[111.61256,-7.99658],[111.6136,-7.9966],[111.61483,-7.99658],[111.61546,-7.99674],[111.61625,-7.99665],[111.61645,-7.99636],[111.61663,-7.99572],[111.6175,-7.99555],[111.61742,-7.99539],[111.61675,-7.99495],[111.6166,-7.9945],[111.61669,-7.9937],[111.61703,-7.99286],[111.61667,-7.99269],[111.61633,-7.99233],[111.616,-7.99211],[111.61623,-7.99186],[111.61607,-7.99156],[111.61622,-7.99128],[111.61592,-7.99085],[111.61601,-7.99047],[111.61637,-7.99029],[111.61645,-7.99006],[111.61682,-7.98978],[111.61683,-7.98954],[111.61642,-7.98911],[111.61549,-7.98864],[111.61496,-7.98864],[111.61472,-7.98849],[111.61428,-7.98834],[111.61408,-7.98776],[111.61346,-7.98744],[111.61332,-7.98767],[111.6136,-7.98804],[111.61331,-7.98818],[111.6133,-7.98871],[111.61355,-7.98948],[111.61385,-7.98987],[111.61362,-7.99021],[111.61348,-7.99066],[111.61302,-7.99067],[111.61241,-7.99051],[111.61192,-7.99063],[111.61165,-7.99104],[111.61134,-7.99142],[111.61113,-7.99186],[111.61097,-7.99178],[111.61052,-7.99134],[111.61053,-7.99089],[111.61016,-7.99051],[111.60928,-7.99008],[111.6094,-7.98923],[111.60961,-7.98881],[111.6097,-7.98855],[111.6097,-7.98834],[111.60986,-7.98794],[111.60944,-7.98731],[111.60985,-7.98668],[111.61007,-7.98647],[111.61052,-7.98579],[111.61045,-7.98549],[111.6103,-7.98526],[111.61019,-7.98484],[111.60948,-7.98448],[111.60948,-7.98406],[111.60933,-7.98392],[111.60895,-7.98366],[111.60894,-7.98339],[111.60923,-7.98309],[111.61037,-7.98299],[111.61038,-7.98249],[111.61014,-7.98233],[111.6094,-7.98197],[111.60923,-7.98129],[111.6094,-7.9789],[111.61012,-7.97784],[111.61026,-7.97744],[111.61178,-7.97589],[111.6124,-7.97597],[111.61269,-7.97625],[111.61278,-7.97642],[111.61277,-7.97695],[111.61405,-7.97731],[111.61468,-7.97731],[111.61521,-7.97696],[111.61606,-7.97679],[111.6166,-7.9771],[111.61693,-7.97776],[111.61727,-7.97777],[111.61748,-7.97756],[111.61772,-7.9772],[111.61774,-7.97645],[111.61701,-7.9756],[111.61683,-7.97508],[111.61681,-7.97447],[111.61713,-7.97401],[111.61757,-7.97379],[111.61765,-7.9737],[111.61855,-7.97327],[111.61855,-7.97297],[111.61846,-7.97253],[111.61875,-7.97174],[111.61905,-7.97112],[111.61959,-7.97093],[111.62065,-7.97083],[111.62057,-7.97063],[111.62021,-7.97028],[111.62037,-7.96946],[111.62107,-7.96912],[111.62154,-7.96832],[111.62168,-7.96817],[111.62284,-7.96764],[111.62313,-7.96771],[111.62345,-7.96793],[111.62433,-7.96801],[111.62474,-7.96812],[111.62521,-7.96764],[111.6268,-7.96762],[111.62793,-7.96771],[111.62857,-7.96784],[111.62899,-7.96771],[111.62942,-7.96749],[111.6298,-7.96739],[111.62943,-7.96711],[111.62836,-7.96701],[111.62788,-7.96656],[111.628,-7.96621],[111.6281,-7.96571],[111.6286,-7.96546],[111.62881,-7.96524],[111.62964,-7.96472],[111.6298,-7.96427],[111.62948,-7.96404],[111.62929,-7.96403],[111.62869,-7.96415],[111.62857,-7.96498],[111.62837,-7.96509],[111.62758,-7.96507],[111.62699,-7.96556],[111.6265,-7.96576],[111.62606,-7.96598],[111.62553,-7.9659],[111.62482,-7.96561],[111.62415,-7.96582],[111.62314,-7.96478],[111.62262,-7.96508],[111.62249,-7.96562],[111.62168,-7.9662],[111.62092,-7.96568],[111.6203,-7.96579],[111.62005,-7.96617],[111.61977,-7.96688],[111.61916,-7.96708],[111.61822,-7.96689],[111.61799,-7.96761],[111.61773,-7.96801],[111.61737,-7.96845],[111.61722,-7.96905],[111.61705,-7.96914],[111.61634,-7.96922],[111.61594,-7.96943],[111.61563,-7.96944],[111.61486,-7.96905],[111.61398,-7.96924],[111.61335,-7.97003],[111.61286,-7.97004],[111.61272,-7.96991],[111.6126,-7.96929],[111.61223,-7.96873],[111.61159,-7.96812],[111.61143,-7.96781],[111.61127,-7.96735],[111.61154,-7.96719],[111.61201,-7.96718],[111.61287,-7.9674],[111.61337,-7.96715],[111.6139,-7.96702],[111.61379,-7.96672],[111.61323,-7.96644],[111.61322,-7.96599],[111.61351,-7.9657],[111.61373,-7.96537],[111.61411,-7.96512],[111.6142,-7.96478],[111.6142,-7.96463],[111.61436,-7.96382],[111.61409,-7.96347],[111.6148,-7.96362],[111.61517,-7.96344],[111.61493,-7.96302],[111.61446,-7.96268],[111.61465,-7.96232],[111.61435,-7.96223],[111.61357,-7.96215],[111.61341,-7.96165],[111.61292,-7.96134],[111.61282,-7.96102],[111.61234,-7.96114],[111.6118,-7.96093],[111.61114,-7.96053],[111.61067,-7.96042],[111.61067,-7.95984],[111.61078,-7.95962],[111.61067,-7.9593],[111.61067,-7.95901],[111.61058,-7.95866],[111.61075,-7.95833],[111.61085,-7.95792],[111.61166,-7.95743],[111.61231,-7.95744],[111.61261,-7.95729],[111.61311,-7.95716],[111.61368,-7.95739],[111.6142,-7.95727],[111.61405,-7.95713],[111.61346,-7.9569],[111.61337,-7.95653],[111.61278,-7.95644],[111.61277,-7.95617],[111.61288,-7.95583],[111.61331,-7.95539],[111.61413,-7.95506],[111.61454,-7.95487],[111.61482,-7.95443],[111.61562,-7.95451],[111.61622,-7.95463],[111.61623,-7.95444],[111.61591,-7.95419],[111.61544,-7.95431],[111.61495,-7.95399],[111.61509,-7.95383],[111.61561,-7.95382],[111.61597,-7.95401],[111.61683,-7.95331],[111.61768,-7.9533],[111.61877,-7.9534],[111.61866,-7.95396]],[[111.6148,-7.95738],[111.61466,-7.95744],[111.61484,-7.95747],[111.6148,-7.95738]],[[111.62111,-7.96557],[111.62121,-7.96565],[111.62134,-7.96546],[111.6212,-7.96539],[111.62111,-7.96557]],[[111.61508,-7.96657],[111.61536,-7.96662],[111.61531,-7.96621],[111.6148,-7.9662],[111.61508,-7.96657]]],[[[111.60448,-7.95392],[111.60411,-7.95417],[111.60386,-7.9541],[111.60367,-7.95386],[111.60318,-7.95346],[111.60375,-7.95301],[111.60438,-7.95312],[111.60474,-7.95342],[111.60448,-7.95392]]],[[[111.61064,-7.95261],[111.61037,-7.95337],[111.61057,-7.95361],[111.61149,-7.9536],[111.61161,-7.95383],[111.61143,-7.95421],[111.6112,-7.95443],[111.61107,-7.95469],[111.61011,-7.95511],[111.60977,-7.95503],[111.60913,-7.95482],[111.60888,-7.95406],[111.60858,-7.95391],[111.60774,-7.95421],[111.60753,-7.95443],[111.60706,-7.95452],[111.60672,-7.95485],[111.60658,-7.95556],[111.60639,-7.95594],[111.60614,-7.9562],[111.60561,-7.95592],[111.60535,-7.95553],[111.60558,-7.95518],[111.60557,-7.95481],[111.60583,-7.95429],[111.60632,-7.95419],[111.60616,-7.95388],[111.60542,-7.9537],[111.6056,-7.95347],[111.60655,-7.95361],[111.60713,-7.95376],[111.6076,-7.95368],[111.60793,-7.95346],[111.60884,-7.95336],[111.60902,-7.95301],[111.60925,-7.95301],[111.6097,-7.95271],[111.61044,-7.95233],[111.61064,-7.95261]]],[[[111.61669,-7.95168],[111.61671,-7.95177],[111.61662,-7.95174],[111.61669,-7.95168]]],[[[111.60668,-7.95137],[111.60631,-7.95154],[111.60575,-7.95217],[111.60491,-7.95227],[111.60479,-7.95282],[111.6046,-7.95276],[111.60452,-7.95224],[111.60437,-7.95196],[111.60429,-7.95154],[111.60398,-7.95139],[111.60355,-7.95163],[111.60239,-7.9513],[111.60185,-7.95088],[111.60092,-7.95076],[111.6002,-7.9504],[111.59992,-7.95021],[111.59978,-7.94963],[111.59927,-7.94889],[111.59803,-7.94747],[111.59768,-7.9465],[111.5977,-7.94615],[111.59792,-7.94548],[111.59777,-7.94506],[111.59764,-7.9445],[111.59748,-7.94404],[111.59764,-7.9436],[111.59791,-7.94336],[111.59808,-7.9426],[111.59855,-7.94203],[111.59901,-7.94191],[111.59916,-7.94271],[111.59959,-7.9435],[111.60031,-7.94384],[111.60133,-7.94393],[111.60213,-7.94415],[111.60369,-7.94447],[111.60422,-7.94484],[111.60459,-7.94501],[111.60472,-7.94546],[111.60528,-7.94563],[111.60565,-7.94588],[111.60663,-7.94642],[111.60711,-7.94681],[111.60756,-7.9471],[111.60781,-7.94738],[111.60764,-7.94783],[111.60768,-7.94839],[111.60765,-7.94886],[111.60787,-7.94927],[111.60774,-7.94989],[111.60756,-7.95023],[111.60742,-7.95082],[111.60668,-7.95137]]]]}}]}