{"type":"FeatureCollection","features":[{"type":"Feature","properties":{"issuer":"GUBERNUR","prov":"JAWA TIMUR","idprov":"35","kab":"PONOROGO","idkab":"02","island":"JAWA DAN BALI","nmoprt":"WAWAN HERNAWAN","tipopr":"SDR","adoprt":"JL. SIMPANG UTARA NO.19 PANDALARANG - BANDUNG","phoprt":"-","skblok":"P2T/6/15.02/I/2018","tiptmb":"IUP","datstr":"2018-01-11","datend":"2023-01-11","lublok":2.65,"status":"2","locate":"DESA TEMON, KEC. SAWOO, KAB. PONOROGO","idcmd":"44","clascmd":"5","commdt":"BATU GAMPING","idblok":"2235025442018013","datcrte":"2020-11-18","_cls":"BATU GAMPING"},"geometry":{"type":"Polygon","coordinates":[[[111.61781,-7.95011],[111.61781,-7.95039],[111.61794,-7.95039],[111.61794,-7.95078],[111.61833,-7.95078],[111.61833,-7.95089],[111.61897,-7.95089],[111.61897,-7.95097],[111.61883,-7.95097],[111.61883,-7.95131],[111.61869,-7.95131],[111.61869,-7.95156],[111.61858,-7.95156],[111.61858,-7.95172],[111.61867,-7.95172],[111.61867,-7.952],[111.61878,-7.952],[111.61878,-7.95228],[111.61894,-7.95228],[111.61894,-7.95253],[111.61883,-7.95253],[111.61883,-7.95242],[111.61864,-7.95242],[111.61864,-7.95228],[111.61828,-7.95228],[111.61828,-7.95208],[111.61789,-7.95208],[111.61789,-7.95192],[111.61758,-7.95192],[111.61758,-7.95183],[111.61731,-7.95183],[111.61731,-7.95042],[111.61747,-7.95042],[111.61747,-7.95017],[111.61772,-7.95017],[111.61772,-7.95011],[111.61781,-7.95011]]]}},{"type":"Feature","properties":{"issuer":"GUBERNUR","prov":"JAWA TIMUR","idprov":"35","kab":"PONOROGO","idkab":"02","island":"JAWA DAN BALI","nmoprt":"FAJAR INTI MARMER","tipopr":"PT","adoprt":"DS. PANGKAL, KEC. SAWOO, KAB. PONOROGO","phoprt":"-","skblok":"P2T/169/15.01/XI/2019","tiptmb":"IUP","datstr":"2019-11-27","datend":"2022-11-27","lublok":5.25,"status":"1","locate":"DESA PANGKAL, KEC. SAWOO, KAB. PONOROGO","idcmd":"12","clascmd":"5","commdt":"ANDESIT","idblok":"2235025122019057","datcrte":"2020-11-18","_cls":"ANDESIT"},"geometry":{"type":"Polygon","coordinates":[[[111.59466,-8.01017],[111.59466,-8.01101],[111.59477,-8.01101],[111.59477,-8.01149],[111.59465,-8.01149],[111.59465,-8.01161],[111.59371,-8.01161],[111.59371,-8.01131],[111.59229,-8.01131],[111.59229,-8.01077],[111.59254,-8.01077],[111.59254,-8.01031],[111.5929,-8.01031],[111.5929,-8.00995],[111.5933,-8.00995],[111.5933,-8.00936],[111.59501,-8.00936],[111.59501,-8.01017],[111.59466,-8.01017]]]}},{"type":"Feature","properties":{"issuer":"GUBERNUR","prov":"JAWA TIMUR","idprov":"35","kab":"PONOROGO","idkab":"02","island":"JAWA DAN BALI","nmoprt":"WANDI","tipopr":"SDR","adoprt":"RT.01/RW.02, DUKUH PETUNG, DESA TEMPURAN, KEC.SAWOO, KAB.PONOROGO","phoprt":"-","skblok":"P2T/103/15.02/XI/2017","tiptmb":"IUP","datstr":"2017-11-08","datend":"2022-11-07","lublok":0.35,"status":"2","locate":"DESA TEMPURAN, KEC. SAWOO, KAB. PONOROGO","idcmd":"12","clascmd":"5","commdt":"ANDESIT","idblok":"2235025122017010","datcrte":"2020-11-18","_cls":"ANDESIT"},"geometry":{"type":"Polygon","coordinates":[[[111.63672,-7.99333],[111.63672,-7.99367],[111.63678,-7.99367],[111.63678,-7.99417],[111.63647,-7.99417],[111.63647,-7.99394],[111.63636,-7.99394],[111.63636,-7.99361],[111.6365,-7.99361],[111.6365,-7.99344],[111.63664,-7.99344],[111.63664,-7.99333],[111.63672,-7.99333]]]}},{"type":"Feature","properties":{"issuer":"MENTERI","prov":"JAWA TIMUR","idprov":"35","kab":"PONOROGO","idkab":"02","island":"JAWA DAN BALI","nmoprt":"DEGAR PUTRA SAKTI","tipopr":"PT","adoprt":"JL. SONO INDAH 3/6A, KEL. SONOKWIJENAN, KEC. SUKOMANUNGGAL,KOTA SURABAYA, PROV. JAWA TIMUR","phoprt":"08507783158","skblok":"446/1/IUP/PMDN/2022","tiptmb":"IUP","datstr":"2022-03-07","datend":"2025-03-07","lublok":20.57,"status":"1","locate":"DESA TEMON, KECAMATAN SAWO, KABUPATEN PONOROGO, PROVINSIJAWA TIMUR","idcmd":"12","clascmd":"5","commdt":"ANDESIT","idblok":"1235025122021003","datcrte":"2022-04-01","_cls":"ANDESIT"},"geometry":{"type":"Polygon","coordinates":[[[111.60579,-7.9696],[111.60579,-7.9707],[111.60666,-7.9707],[111.60666,-7.97111],[111.60735,-7.97111],[111.60735,-7.97238],[111.60582,-7.97238],[111.60582,-7.97288],[111.60397,-7.97288],[111.60397,-7.97304],[111.60341,-7.97304],[111.60341,-7.97322],[111.60275,-7.97322],[111.60275,-7.97278],[111.60111,-7.97278],[111.60111,-7.97258],[111.60053,-7.97258],[111.60053,-7.97138],[111.60131,-7.97138],[111.60131,-7.97099],[111.60177,-7.97099],[111.60177,-7.97055],[111.60251,-7.97055],[111.60251,-7.9696],[111.60579,-7.9696]]]}}]}